{"type":"FeatureCollection","metadata":{"source":"Geofabrik Nigeria OSM extract, OpenStreetMap contributors, ODbL 1.0; geoBoundaries gbOpen GRID3 2022, CC BY 4.0","surfaceFormatVersion":1,"pbfUrl":"https://download.geofabrik.de/africa/nigeria-261003.osm.pbf","pbfDate":"2026-10-03","pbfSha256":"6dfa568106792fb8a9bba0b12a91e1edfb789d38c452087b2c48bc58326880b5","pbfBytes":709273731,"boundaryRelease":"9469f09","adm1Sha256":"64fa218ac3d453cc1e66412ff461c5dfa1a4a1ade0da93b239a9891b587d28f9","adm2Sha256":"bef7f2cfa45e012f4772eaa61c7b99e5188aeba4d5c6badae7e9f9aae8c02fcd","cityId":"awka","stateId":"anambra","stateSourceName":"Anambra","localUnits":[["awka-south","Awka South"]],"coordinatePrecisionDegrees":1e-07,"transportSimplificationDegrees":8e-05,"locationIndex":"sparse_file_array","waterObjects":[["relation",16057524],["relation",16069750],["way",332243424],["way",1050563543],["way",1123659878],["way",1126464015],["way",1126464017],["way",1126470288]]},"features":[{"type":"Feature","properties":{"kind":"state","id":"state:anambra","localUnitId":"anambra","name":"Anambra"},"geometry":{"type":"Polygon","coordinates":[[[6.6006273,5.7066219],[6.6390779,5.7394611],[6.64363,5.7473254],[6.6482806,5.7716799],[6.6472472,5.7853129],[6.6486251,5.7970543],[6.6504603,5.8079824],[6.6507635,5.8171134],[6.6560496,5.8342934],[6.6579299,5.8404045],[6.6609159,5.8565292],[6.6673844,5.8729704],[6.6735492,5.8891461],[6.6811196,5.8979042],[6.6860279,5.9047952],[6.6888106,5.9110278],[6.6936978,5.9181559],[6.6965015,5.9237621],[6.7001391,5.9293448],[6.702994,5.9406214],[6.7094393,5.9593307],[6.7158751,5.9698958],[6.7162945,5.9772745],[6.716506,5.9809971],[6.719679,5.9961611],[6.7245278,6.01227],[6.7264938,6.0289302],[6.7255145,6.0407487],[6.7202313,6.0457295],[6.7031529,6.0511502],[6.6990996,6.0609963],[6.7045372,6.0810955],[6.713316,6.0870728],[6.7221112,6.097548],[6.7377138,6.1059999],[6.7416682,6.1086498],[6.7492409,6.1137242],[6.7533432,6.1184305],[6.7553301,6.1207099],[6.7558041,6.1233125],[6.7561893,6.1254292],[6.7579167,6.1349142],[6.7585532,6.1379561],[6.7603577,6.1464233],[6.7606511,6.1478],[6.7647839,6.1558046],[6.7660451,6.158247],[6.7675103,6.1624969],[6.7686496,6.1658016],[6.7686555,6.1658187],[6.769402,6.167984],[6.7673011,6.1818361],[6.7628894,6.1853857],[6.7625883,6.185628],[6.7536521,6.1928182],[6.7512017,6.1965209],[6.7461671,6.2041285],[6.7426982,6.2093701],[6.7388529,6.2186481],[6.7358241,6.225956],[6.7326512,6.2346074],[6.7310061,6.2390928],[6.7261529,6.2598572],[6.7231346,6.2655756],[6.7219848,6.2744594],[6.7221075,6.2827154],[6.7212682,6.288249],[6.7191758,6.3000212],[6.718441,6.3124971],[6.7170248,6.3249679],[6.7149239,6.33882],[6.7139697,6.3454169],[6.7128201,6.3533659],[6.7122476,6.3549469],[6.7073121,6.368577],[6.6997738,6.38169],[6.6976809,6.3934622],[6.6968831,6.3972395],[6.6951028,6.4056683],[6.6949029,6.4066148],[6.6947105,6.4074314],[6.692131,6.4183812],[6.6886702,6.4322219],[6.6852241,6.442595],[6.6817651,6.4557419],[6.6754351,6.4658293],[6.6738639,6.4683332],[6.671624,6.4817736],[6.668921,6.5012341],[6.6654854,6.5281924],[6.6616958,6.5579284],[6.6720332,6.5675243],[6.7157363,6.5603483],[6.7641082,6.5636029],[6.7933059,6.5723186],[6.8081226,6.5801625],[6.8085714,6.5893658],[6.8089938,6.5980301],[6.8089938,6.6158972],[6.8050718,6.6368151],[6.8031055,6.6545146],[6.8028932,6.6564255],[6.800714,6.6699347],[6.7989707,6.679522],[6.8002782,6.6934671],[6.8063793,6.7030544],[6.8194528,6.7126417],[6.8338337,6.722229],[6.8421135,6.7305088],[6.8530083,6.7444539],[6.8599811,6.75317],[6.8609656,6.7534291],[6.9098151,6.6964186],[6.9131036,6.6954422],[6.918728,6.6986357],[6.9229224,6.6990647],[6.9268785,6.6984927],[6.9289356,6.6974441],[6.9305752,6.695743],[6.9325847,6.6952212],[6.9356487,6.6956328],[6.9376029,6.6988263],[6.9393232,6.7033443],[6.9438701,6.7061048],[6.9565077,6.7100272],[6.9687095,6.7113342],[6.982655,6.7130775],[6.9909348,6.7130775],[6.9971337,6.7114463],[7.0074945,6.7087197],[7.0166464,6.7061048],[7.0318985,6.6965175],[7.0448032,6.6883054],[7.0462794,6.687366],[7.0506377,6.6825724],[7.0606604,6.6843157],[7.0702476,6.6856232],[7.0902939,6.6773429],[7.1016245,6.6756001],[7.1126678,6.6689742],[7.1168771,6.6664486],[7.1290789,6.6594758],[7.1325655,6.6520677],[7.1316938,6.6433516],[7.128643,6.6355076],[7.1247211,6.6259203],[7.1242998,6.6252884],[7.1177487,6.6154613],[7.1155696,6.6032596],[7.1094685,6.5932364],[7.0920372,6.5758047],[7.088551,6.5688324],[7.0841943,6.5622954],[7.0829976,6.561356],[7.0829116,6.5612884],[7.0780921,6.5575018],[7.0632753,6.5548873],[7.0554314,6.5453],[7.0484586,6.5274324],[7.0462794,6.5121799],[7.0462794,6.5008497],[7.0484586,6.4851664],[7.0489915,6.4803657],[7.0496593,6.4743567],[7.0454082,6.4712162],[7.0362563,6.4738307],[7.033206,6.4668584],[7.0330699,6.4637289],[7.0327702,6.4568353],[7.0318467,6.4507841],[7.0317859,6.4459958],[7.0322421,6.442439],[7.0350077,6.4418974],[7.0386534,6.4402439],[7.0441772,6.4396064],[7.0648007,6.4372249],[7.0636738,6.4347467],[7.0638855,6.4311973],[7.0635397,6.4279178],[7.0706288,6.4287773],[7.0785701,6.427622],[7.0811526,6.4267025],[7.0843238,6.4262139],[7.0894444,6.4262585],[7.0999761,6.4186538],[7.1138654,6.4031493],[7.1153517,6.4014902],[7.1306933,6.3993747],[7.1370907,6.3951353],[7.1438676,6.3882514],[7.1418124,6.3798909],[7.1422554,6.3714309],[7.1419349,6.3596549],[7.1445476,6.3517122],[7.1473823,6.3430948],[7.1508684,6.3343792],[7.1523197,6.3289369],[7.1589415,6.3229891],[7.1617592,6.3155929],[7.1610527,6.3119669],[7.1602208,6.3036839],[7.1602406,6.3033748],[7.1504326,6.2969017],[7.1454316,6.2919004],[7.1425886,6.2890573],[7.1452031,6.2746763],[7.1491251,6.2624745],[7.1470224,6.2558302],[7.1477779,6.2540125],[7.1477761,6.2539146],[7.1472561,6.2525666],[7.1488798,6.2525707],[7.1484469,6.2510207],[7.146366,6.2506648],[7.1454819,6.250002],[7.1450179,6.249226],[7.1461391,6.2486745],[7.1461181,6.2485762],[7.1452464,6.2472728],[7.1448372,6.2460262],[7.143817,6.2456285],[7.1423415,6.2438619],[7.1432825,6.2431065],[7.1437772,6.2417585],[7.1454635,6.2403598],[7.1453511,6.238049],[7.1452794,6.2363254],[7.1441518,6.2362313],[7.1434415,6.2355552],[7.1442216,6.2343907],[7.146269,6.2335832],[7.1463874,6.2334522],[7.1484875,6.2311278],[7.15074,6.2299589],[7.1506124,6.2286443],[7.1616927,6.2312138],[7.1635166,6.2316698],[7.1727533,6.2339792],[7.186239,6.2384743],[7.1892962,6.2394934],[7.1995368,6.234767],[7.202948,6.2204413],[7.203476,6.218224],[7.2039325,6.2127455],[7.2042637,6.2087708],[7.2089901,6.2024689],[7.2184429,6.196167],[7.2239575,6.1914401],[7.2247453,6.1788363],[7.2240913,6.174422],[7.2232785,6.1689353],[7.2215943,6.157567],[7.2239575,6.1425996],[7.2294717,6.1276321],[7.2365375,6.1183923],[7.2397127,6.1142402],[7.2483778,6.108726],[7.2497211,6.1064878],[7.2548032,6.1047196],[7.2595249,6.0879794],[7.2595968,6.0877242],[7.2613006,6.079419],[7.2627548,6.0793527],[7.2708186,6.0789847],[7.2848961,6.0777416],[7.3094811,6.0789607],[7.3096361,6.0764586],[7.3072917,6.0747984],[7.3058543,6.072707],[7.3039176,6.0710137],[7.3024398,6.0672773],[7.3005714,6.0655545],[7.3000505,6.0617699],[7.2985958,6.0588737],[7.2973426,6.0562055],[7.2972118,6.0525912],[7.2978256,6.0508294],[7.2995374,6.0481463],[7.3017638,6.0465177],[7.3038092,6.0450172],[7.3101482,6.0450172],[7.3284512,6.0424023],[7.3390627,6.0421495],[7.3382692,6.0361991],[7.3330345,6.0314403],[7.3278635,6.0175559],[7.3225646,6.0038385],[7.3182817,5.9986033],[7.3170749,5.9985689],[7.3016253,5.9981275],[7.2927095,5.9983561],[7.2869802,5.998503],[7.2830658,5.9986033],[7.2725959,5.9976516],[7.26403,5.9914651],[7.2592711,5.9776645],[7.2546298,5.9651857],[7.2547723,5.9632666],[7.2549188,5.9621409],[7.2564158,5.9505386],[7.2586705,5.9448094],[7.2603673,5.9404978],[7.2609839,5.938931],[7.2592316,5.9363599],[7.2569165,5.9346538],[7.253458,5.9332423],[7.2511539,5.9323969],[7.2486185,5.931852],[7.2451196,5.9312906],[7.2405488,5.9316096],[7.2403886,5.9316284],[7.2379826,5.9318002],[7.2359605,5.9325018],[7.2322407,5.9331012],[7.2302109,5.932946],[7.2287974,5.932838],[7.2265,5.9325666],[7.2230568,5.9323039],[7.220469,5.9317474],[7.2170181,5.9309101],[7.2150044,5.9303498],[7.2121196,5.9289346],[7.2095175,5.9272304],[7.2077794,5.925807],[7.206038,5.9240971],[7.2028446,5.9209619],[7.2017865,5.9189019],[7.2007871,5.9169574],[7.1990275,5.9138122],[7.1981382,5.9115224],[7.1960845,5.907805],[7.1951885,5.9049411],[7.1948357,5.9044966],[7.1931491,5.9023719],[7.1914039,5.9003749],[7.1888127,5.8995314],[7.186523,5.8998342],[7.1828179,5.9015818],[7.1799693,5.9030366],[7.1779771,5.9041986],[7.1751323,5.9059405],[7.1725702,5.907393],[7.1705742,5.908268],[7.1682954,5.9094315],[7.1648769,5.9111772],[7.1623044,5.9117694],[7.1604256,5.912297],[7.1591616,5.912652],[7.1565924,5.9135303],[7.1545968,5.9144053],[7.1520309,5.9155712],[7.149179,5.916739],[7.1463232,5.9176197],[7.1429301,5.9184949],[7.1428938,5.9185042],[7.1383142,5.9191098],[7.1357417,5.9197021],[7.1342162,5.9197125],[7.132875,5.9197216],[7.1305814,5.9197373],[7.1285748,5.9197512],[7.126575,5.9203391],[7.1245723,5.92064],[7.1218007,5.9213549],[7.1211429,5.9215245],[7.1193895,5.9217564],[7.1188531,5.9218273],[7.1165705,5.9227042],[7.1120095,5.9247446],[7.1098924,5.9255579],[7.1097269,5.9256215],[7.1077275,5.9262094],[7.1055037,5.9265435],[7.1049886,5.9266208],[7.1037211,5.9268112],[7.1001192,5.9270615],[7.0991378,5.9271297],[7.0985074,5.9271341],[7.0971313,5.9271436],[7.0956207,5.9274295],[7.0939851,5.9277391],[7.0914049,5.9277568],[7.0888286,5.9280615],[7.0856791,5.9283705],[7.0836525,5.9288366],[7.0833083,5.9289157],[7.083106,5.9289622],[7.080533,5.929554],[7.0779605,5.9301457],[7.0759573,5.9304466],[7.0730872,5.9301791],[7.0707974,5.9304819],[7.0682206,5.9307871],[7.0653577,5.9310937],[7.0627813,5.9313984],[7.0602012,5.931416],[7.0564446,5.9306135],[7.053009,5.9294567],[7.0478201,5.927196],[7.0455012,5.9252028],[7.0434728,5.9234948],[7.0411577,5.9217882],[7.0394125,5.9197912],[7.0376635,5.9175072],[7.0367227,5.916715],[7.035635,5.9157991],[7.0338969,5.9143758],[7.0316372,5.9125994],[7.0310011,5.9120994],[7.0289496,5.9112532],[7.0255256,5.9098411],[7.0212833,5.9093404],[7.0209312,5.9092989],[7.0177708,5.9087462],[7.0146136,5.9084811],[7.0091562,5.9076576],[7.0031118,5.9051933],[7.0004457,5.9027546],[6.9999137,5.9022679],[6.9981756,5.9008446],[6.9979069,5.9005283],[6.9967208,5.8991327],[6.9949718,5.8968482],[6.9937318,5.895229],[6.9932227,5.8945642],[6.9908857,5.8911362],[6.9888248,5.8868446],[6.9862123,5.8842797],[6.9844666,5.8822823],[6.9820868,5.8782434],[6.9794712,5.8745081],[6.9751246,5.8697188],[6.9728227,5.8682985],[6.9722011,5.8676015],[6.9692529,5.8643189],[6.9664254,5.861167],[6.9646764,5.8588824],[6.9623504,5.8563151],[6.9600315,5.854322],[6.9580657,5.8528732],[6.957872,5.8527304],[6.9577165,5.8526158],[6.9559712,5.8506188],[6.9555858,5.8499425],[6.954505,5.8480458],[6.9538994,5.8454666],[6.9524369,5.8431802],[6.9517959,5.8424814],[6.9506859,5.8412715],[6.9498205,5.8403282],[6.9483657,5.8386159],[6.9457636,5.8369117],[6.9453119,5.8366344],[6.9434524,5.8354926],[6.9432052,5.835354],[6.941431,5.8343587],[6.9388366,5.8332281],[6.9353747,5.8315301],[6.9333534,5.8303957],[6.9301858,5.8292694],[6.9270177,5.8281431],[6.9235597,5.8267317],[6.9203954,5.8258924],[6.9155612,5.8238063],[6.9125196,5.822314],[6.9123563,5.8222339],[6.9117446,5.8219337],[6.9088631,5.8208056],[6.9068384,5.8193846],[6.9045305,5.8182521],[6.9040704,5.818047],[6.9013591,5.8168387],[6.8987503,5.8145609],[6.8958578,5.8125715],[6.8944068,5.8111463],[6.8919102,5.8091837],[6.891511,5.8088698],[6.8912959,5.8085544],[6.8897581,5.8062987],[6.8894391,5.8037176],[6.8888187,5.7999907],[6.8881984,5.7962637],[6.8876655,5.7950581],[6.8864274,5.7922573],[6.885838,5.78897],[6.885665,5.788005],[6.8855023,5.7870975],[6.885437,5.7819314],[6.8851109,5.7787762],[6.8844867,5.7747622],[6.8847408,5.7721772],[6.8843999,5.7678742],[6.8840771,5.7650061],[6.8837395,5.7609901],[6.8836994,5.757833],[6.8836527,5.7541022],[6.8830466,5.751523],[6.8812904,5.7486649],[6.8799139,5.746205],[6.8795304,5.7455196],[6.8768453,5.7442024],[6.8766456,5.7441044],[6.8743525,5.7441201],[6.8723493,5.744421],[6.8700705,5.745585],[6.8680744,5.74646],[6.8658803,5.7477038],[6.8655124,5.7479124],[6.8636538,5.7493344],[6.8632407,5.7496505],[6.8615389,5.7510972],[6.8601236,5.752542],[6.8587122,5.7542739],[6.8564005,5.7566339],[6.8558817,5.7571635],[6.8536172,5.7594757],[6.8510699,5.7620764],[6.8495604,5.7634237],[6.8488016,5.764101],[6.84653,5.7658391],[6.8434057,5.7681565],[6.8404584,5.7696614],[6.8382778,5.7707753],[6.8345766,5.77281],[6.8325844,5.7739716],[6.8288941,5.7768674],[6.8257694,5.7791853],[6.8243542,5.7806301],[6.8226485,5.7817898],[6.8198037,5.7835317],[6.8178077,5.7844067],[6.8152456,5.7858591],[6.8126802,5.787025],[6.8106809,5.7876129],[6.8043707,5.7860728],[6.8008018,5.7845586],[6.7939649,5.7741965],[6.7616789,5.7578462],[6.7513697,5.7495508],[6.7301196,5.7506904],[6.7143054,5.7612963],[6.7111158,5.7584481],[6.7090874,5.7567396],[6.7059083,5.7547526],[6.7015648,5.751338],[6.6975083,5.7479219],[6.6949062,5.7462177],[6.6925929,5.7250479],[6.691258,5.699709],[6.67942,5.69576],[6.6688681,5.6899252],[6.653137,5.6816093],[6.6260025,5.6835235],[6.6018733,5.6874585],[6.6006273,5.7066219]]]}},{"type":"Feature","properties":{"kind":"administrative","id":"administrative:awka-south","localUnitId":"awka-south","name":"Awka South"},"geometry":{"type":"Polygon","coordinates":[[[7.1507267,6.1783025],[7.1501099,6.1764103],[7.1319324,6.1625332],[7.1303378,6.1627535],[7.1294965,6.1619285],[7.1292494,6.1613352],[7.1287639,6.161159],[7.1272258,6.1604469],[7.1241802,6.1576721],[7.12409,6.1572538],[7.1236944,6.1570043],[7.1232112,6.15634],[7.1229967,6.1552658],[7.1231443,6.1546319],[7.1216688,6.1541811],[7.1209703,6.1536632],[7.1194177,6.1533703],[7.117626,6.1529141],[7.1158717,6.1526686],[7.1146048,6.1523333],[7.1136227,6.1524795],[7.113257,6.152339],[7.112829,6.1523922],[7.1114897,6.1521239],[7.1103041,6.1514993],[7.1099444,6.1513178],[7.1097091,6.1512182],[7.1093211,6.1511837],[7.1090909,6.1511753],[7.1088204,6.150893],[7.1085433,6.1507487],[7.108288,6.1503806],[7.1079823,6.1497386],[7.10779,6.1493146],[7.1076347,6.1490644],[7.1073385,6.1486197],[7.1070857,6.1477821],[7.1079112,6.1474894],[7.1077306,6.1472058],[7.107507,6.1468861],[7.1073234,6.1466528],[7.1072566,6.1462015],[7.1073836,6.145974],[7.1074487,6.1455008],[7.1073986,6.1454012],[7.1072541,6.1450682],[7.1066098,6.1443946],[7.1062956,6.1440319],[7.1055835,6.143491],[7.1050392,6.1431749],[7.1043879,6.1427568],[7.1036749,6.1420524],[7.1032167,6.1418074],[7.1026262,6.1415771],[7.1020894,6.1414581],[7.1015206,6.1412099],[7.1013042,6.1411147],[7.1009959,6.141112],[7.1006003,6.1412597],[7.1001658,6.1409868],[7.0999104,6.1401847],[7.0991932,6.1386978],[7.0973454,6.1352754],[7.0962712,6.1332817],[7.0952773,6.1311872],[7.095057,6.1274902],[7.0949196,6.1242633],[7.0940152,6.1211145],[7.0900521,6.1180782],[7.0892504,6.1174316],[7.088234,6.1161301],[7.0875799,6.1152281],[7.0868916,6.1137348],[7.0866774,6.1129425],[7.0864607,6.1121472],[7.0855748,6.1121008],[7.0843484,6.1119375],[7.0839845,6.1118455],[7.0838403,6.1121149],[7.0838611,6.1123813],[7.0837646,6.1127053],[7.0789565,6.115501],[7.0767001,6.1168787],[7.0648059,6.1179827],[7.0622599,6.1284117],[7.0598542,6.1328754],[7.0592177,6.131563],[7.058477,6.1306795],[7.0577824,6.1299014],[7.0572804,6.1294198],[7.0571166,6.1292808],[7.0568112,6.129117],[7.0564297,6.1287789],[7.0560839,6.1283632],[7.0558486,6.1278501],[7.0555092,6.1263108],[7.0553451,6.125529],[7.0547618,6.1260952],[7.0545933,6.1264305],[7.0543319,6.127122],[7.053824,6.1273041],[7.0533382,6.1278677],[7.0529674,6.1286629],[7.0526787,6.1294446],[7.0525471,6.1298448],[7.0521238,6.1305026],[7.0519052,6.1308211],[7.051754,6.1310535],[7.0516264,6.1311838],[7.0516047,6.1314237],[7.0515668,6.1316332],[7.0513822,6.1317861],[7.0510007,6.1317841],[7.050365,6.1316995],[7.0497552,6.1315362],[7.0486729,6.1311732],[7.0484622,6.1310989],[7.0480588,6.1313579],[7.047767,6.131281],[7.0465871,6.130552],[7.0455927,6.1300644],[7.0451317,6.130527],[7.0416047,6.1321949],[7.0414448,6.1322195],[7.0410928,6.1326159],[7.0391145,6.1358728],[7.0383327,6.1364697],[7.0368119,6.1373572],[7.0351312,6.1383728],[7.0348312,6.138627],[7.034658,6.1385703],[7.0347208,6.1376416],[7.0348088,6.1363557],[7.033991,6.1365624],[7.0337422,6.1366582],[7.0334371,6.1371012],[7.0331846,6.1374551],[7.0329279,6.1373865],[7.0326428,6.1373379],[7.0323645,6.1372344],[7.0321835,6.1372029],[7.0309912,6.1370617],[7.0299595,6.1373706],[7.029923,6.1376193],[7.0298273,6.1377611],[7.0296941,6.1378115],[7.0293882,6.1379404],[7.0290719,6.1380082],[7.0286779,6.1379516],[7.0279902,6.137966],[7.0277329,6.138023],[7.027421,6.1381058],[7.0271477,6.1380264],[7.0267826,6.1378492],[7.0264606,6.1376086],[7.0260616,6.1371934],[7.0257697,6.1370476],[7.0251849,6.1368398],[7.0240961,6.1366244],[7.0231174,6.1367089],[7.0230738,6.1359284],[7.0219939,6.1357674],[7.0212217,6.135693],[7.0206567,6.1356163],[7.02056,6.1356612],[7.0203466,6.1360542],[7.0202893,6.1363777],[7.0202279,6.1368222],[7.0201045,6.1374276],[7.0199683,6.1376967],[7.0190474,6.137721],[7.0181916,6.1386208],[7.0177682,6.1388788],[7.0175664,6.139096],[7.0173382,6.1395114],[7.0172025,6.1394508],[7.0162483,6.1393988],[7.0156334,6.1392716],[7.0148425,6.1388154],[7.0141054,6.1394351],[7.0138919,6.1396146],[7.0136992,6.1397766],[7.0136875,6.1400825],[7.0133795,6.1403298],[7.0127448,6.1405665],[7.0124412,6.1407771],[7.0125582,6.1409614],[7.0131492,6.1417282],[7.0131614,6.142214],[7.0131362,6.1424498],[7.0132509,6.1427686],[7.0136917,6.1437864],[7.0136976,6.1440759],[7.0139209,6.1443825],[7.0141331,6.1448747],[7.0132364,6.1449413],[7.0130489,6.1452282],[7.0123244,6.1502664],[7.0124531,6.1512745],[7.0126618,6.1519677],[7.0127156,6.1521146],[7.0126048,6.1522695],[7.012737,6.1528992],[7.0126643,6.1530789],[7.0128576,6.1533496],[7.0134945,6.1543644],[7.0142748,6.1554873],[7.0144126,6.1558445],[7.0143327,6.1563997],[7.014145,6.1569354],[7.0140681,6.1576039],[7.0139923,6.1579719],[7.0143897,6.1577094],[7.0149693,6.1571573],[7.0151971,6.157027],[7.0152716,6.1570342],[7.0148947,6.1578937],[7.0148217,6.1594117],[7.0145811,6.1599863],[7.0142186,6.1605468],[7.0134981,6.1608411],[7.012467,6.161273],[7.0116899,6.1617422],[7.0115119,6.1620525],[7.0107431,6.1635884],[7.0114833,6.1638559],[7.011906,6.1639873],[7.0122575,6.1640124],[7.0129074,6.163958],[7.0136704,6.1639547],[7.0139575,6.1640524],[7.0142564,6.1642745],[7.0146669,6.1647599],[7.0149885,6.1649759],[7.0154238,6.1650217],[7.0160286,6.1651498],[7.0162886,6.1651731],[7.0161924,6.1653206],[7.0159769,6.1655847],[7.0158669,6.1661651],[7.0161995,6.1661631],[7.0163341,6.1662578],[7.0169075,6.1668808],[7.0170236,6.1670506],[7.017088,6.1672198],[7.0169695,6.1674314],[7.0162669,6.1673271],[7.0160111,6.1674471],[7.0162254,6.167903],[7.0162871,6.1679789],[7.0162064,6.1681666],[7.0161921,6.1683643],[7.0161661,6.1688021],[7.0166105,6.1691593],[7.0164703,6.1692862],[7.0166534,6.16959],[7.0170361,6.1701644],[7.0167491,6.1704822],[7.0161472,6.1710848],[7.015574,6.1715733],[7.015319,6.1718573],[7.0156761,6.1717627],[7.0163031,6.1715196],[7.0168347,6.1712765],[7.0170384,6.1711853],[7.0175671,6.172001],[7.0175491,6.1722572],[7.0175027,6.1723582],[7.0171769,6.1724742],[7.01701,6.1727712],[7.0167225,6.1732882],[7.0165037,6.1736102],[7.0164832,6.173723],[7.0166852,6.1738145],[7.0167259,6.1738985],[7.0165139,6.1740485],[7.0167313,6.1742832],[7.0173188,6.1745385],[7.0175677,6.1738958],[7.0178688,6.1731507],[7.0181663,6.1731874],[7.0185329,6.1731836],[7.0192951,6.1734919],[7.0195795,6.173389],[7.020034,6.1734421],[7.0202143,6.1739364],[7.0201722,6.1747084],[7.0202103,6.1750708],[7.0205049,6.1756744],[7.0216261,6.1756348],[7.0216785,6.1755501],[7.0218385,6.1749724],[7.0219626,6.174582],[7.0219203,6.1743473],[7.0228416,6.1742134],[7.0235631,6.1741758],[7.023462,6.1747324],[7.0240189,6.1748579],[7.0244085,6.1750095],[7.0244915,6.1756417],[7.024759,6.1758996],[7.0254807,6.1748575],[7.0256516,6.1747325],[7.0259712,6.1746146],[7.0276728,6.1737961],[7.0285253,6.1732738],[7.0294759,6.1724195],[7.0295234,6.1720663],[7.0298675,6.1720561],[7.0300927,6.1723355],[7.0305662,6.1726101],[7.0312563,6.1723528],[7.0319264,6.1721708],[7.0342878,6.1724469],[7.0352447,6.1727529],[7.0355475,6.1727529],[7.0361302,6.1727528],[7.0370783,6.1728653],[7.0374524,6.1729513],[7.0380121,6.172996],[7.0387851,6.1728993],[7.039564,6.172658],[7.040223,6.1724381],[7.0407794,6.1722802],[7.0404341,6.1739875],[7.0404925,6.174375],[7.0405253,6.1748064],[7.0400117,6.1748625],[7.0399217,6.1752371],[7.0398466,6.1755446],[7.0398412,6.1759025],[7.0399497,6.1761676],[7.0400028,6.1765447],[7.0399881,6.1770946],[7.0400356,6.1776007],[7.0400022,6.1780964],[7.0398437,6.178426],[7.0397703,6.1787671],[7.0396062,6.1790794],[7.0393573,6.180263],[7.0391334,6.1812347],[7.0390696,6.1816434],[7.0392206,6.1817393],[7.0391736,6.1820595],[7.0394648,6.1827223],[7.0396119,6.1837781],[7.0381757,6.183698],[7.037959,6.1840628],[7.0379403,6.1843793],[7.0379389,6.1853345],[7.0379095,6.1860063],[7.0375737,6.1866179],[7.0369747,6.1869758],[7.0336641,6.188148],[7.0333318,6.1894013],[7.033617,6.1903027],[7.0337146,6.1908344],[7.0335603,6.1908715],[7.0335699,6.1910787],[7.0334571,6.1911482],[7.0333678,6.1919559],[7.0332011,6.1923153],[7.0328266,6.1920895],[7.0325696,6.1927947],[7.0322633,6.1935578],[7.0321174,6.1939792],[7.0321024,6.194219],[7.0321669,6.1943932],[7.0323289,6.194684],[7.0313431,6.1949747],[7.0303366,6.1952918],[7.0305484,6.1962183],[7.0302125,6.1963327],[7.0290674,6.196957],[7.0286932,6.1972607],[7.0283982,6.1973355],[7.0277321,6.1979287],[7.0278293,6.1981421],[7.0282618,6.1987736],[7.0284724,6.1989886],[7.0288179,6.1994435],[7.0291791,6.200048],[7.0295683,6.2006381],[7.0298996,6.2013706],[7.0302249,6.2021833],[7.0302281,6.2023376],[7.026113,6.2016073],[7.0220426,6.2009156],[7.0218803,6.2029678],[7.0238636,6.2068598],[7.0251959,6.2087135],[7.0246822,6.2094378],[7.0257092,6.2126719],[7.0260725,6.2144437],[7.0266055,6.216787],[7.026976,6.2190194],[7.0306391,6.2173299],[7.0330161,6.2163229],[7.0336658,6.218159],[7.0342312,6.2195893],[7.0346713,6.2209632],[7.0361048,6.223944],[7.0354206,6.2248082],[7.03436,6.2256663],[7.0340788,6.2251092],[7.0334817,6.2254191],[7.0326401,6.2233872],[7.0307454,6.2241921],[7.0294008,6.2265333],[7.0284011,6.2279132],[7.0275644,6.2292452],[7.0294575,6.2358717],[7.0308909,6.2358753],[7.0321932,6.2361468],[7.0335368,6.2358433],[7.0355377,6.2366856],[7.0374085,6.2385826],[7.0402039,6.2416812],[7.0453728,6.2452482],[7.0471443,6.2473576],[7.0496615,6.247984],[7.0529649,6.2455424],[7.0561802,6.2446064],[7.0587107,6.2477324],[7.0602997,6.2512944],[7.0619709,6.2537951],[7.0625509,6.2565072],[7.0706699,6.2596295],[7.079116,6.2634632],[7.0804057,6.265371],[7.0805755,6.2665389],[7.0813987,6.266723],[7.0820976,6.2670944],[7.0825654,6.2670763],[7.0833225,6.2676153],[7.0837231,6.2682484],[7.0838777,6.2688004],[7.0842975,6.2690697],[7.0850239,6.2690866],[7.0855414,6.2697501],[7.0857371,6.2698955],[7.0858996,6.2696792],[7.0863489,6.2694864],[7.0864968,6.2698349],[7.086548,6.2700867],[7.0866853,6.2709515],[7.0874602,6.2710986],[7.0877314,6.2708243],[7.0879806,6.2707675],[7.0887661,6.2704945],[7.089337,6.270362],[7.0892698,6.2699458],[7.089436,6.2698379],[7.0906412,6.2689952],[7.0916554,6.2687224],[7.0932759,6.2691134],[7.0943388,6.2690987],[7.0950895,6.2685233],[7.0962286,6.2628464],[7.0971227,6.2608633],[7.0992928,6.260762],[7.1002116,6.2608778],[7.1011193,6.2609472],[7.101786,6.2588086],[7.1026288,6.2574497],[7.1034417,6.256835],[7.1044137,6.2560295],[7.1031016,6.253723],[7.1069987,6.247535],[7.1177785,6.2363541],[7.1213832,6.2301646],[7.1228086,6.2256427],[7.1237832,6.2254774],[7.1252085,6.2223885],[7.1291514,6.2226738],[7.1286152,6.2213551],[7.1288494,6.218682],[7.1293506,6.2163574],[7.1312395,6.2166437],[7.1348335,6.2158118],[7.1352161,6.2153316],[7.1353313,6.213173],[7.1356272,6.211178],[7.1369186,6.2104531],[7.1386966,6.211104],[7.1507267,6.1783025]]]}},{"type":"Feature","properties":{"kind":"land","id":"awka-south","localUnitId":"awka-south","name":"Awka South"},"geometry":{"type":"Polygon","coordinates":[[[7.1501099,6.1764103],[7.1319324,6.1625332],[7.1303378,6.1627535],[7.1294965,6.1619285],[7.1292494,6.1613352],[7.1287639,6.161159],[7.1272258,6.1604469],[7.1241802,6.1576721],[7.12409,6.1572538],[7.1236944,6.1570043],[7.1232112,6.15634],[7.1229967,6.1552658],[7.1231443,6.1546319],[7.1216688,6.1541811],[7.1209703,6.1536632],[7.1194177,6.1533703],[7.117626,6.1529141],[7.1158717,6.1526686],[7.1146048,6.1523333],[7.1136227,6.1524795],[7.113257,6.152339],[7.112829,6.1523922],[7.1114897,6.1521239],[7.1103041,6.1514993],[7.1099444,6.1513178],[7.1097091,6.1512182],[7.1093211,6.1511837],[7.1090909,6.1511753],[7.1088204,6.150893],[7.1085433,6.1507487],[7.108288,6.1503806],[7.1079823,6.1497386],[7.10779,6.1493146],[7.1076347,6.1490644],[7.1073385,6.1486197],[7.1070857,6.1477821],[7.1079112,6.1474894],[7.1077306,6.1472058],[7.107507,6.1468861],[7.1073234,6.1466528],[7.1072566,6.1462015],[7.1073836,6.145974],[7.1074487,6.1455008],[7.1073986,6.1454012],[7.1072541,6.1450682],[7.1066098,6.1443946],[7.1062956,6.1440319],[7.1055835,6.143491],[7.1050392,6.1431749],[7.1043879,6.1427568],[7.1036749,6.1420524],[7.1032167,6.1418074],[7.1026262,6.1415771],[7.1020894,6.1414581],[7.1015206,6.1412099],[7.1013042,6.1411147],[7.1009959,6.141112],[7.1006003,6.1412597],[7.1001658,6.1409868],[7.0999104,6.1401847],[7.0991932,6.1386978],[7.0973454,6.1352754],[7.0962712,6.1332817],[7.0952773,6.1311872],[7.095057,6.1274902],[7.0949196,6.1242633],[7.0940152,6.1211145],[7.0900521,6.1180782],[7.0892504,6.1174316],[7.088234,6.1161301],[7.0875799,6.1152281],[7.0868916,6.1137348],[7.0866774,6.1129425],[7.0864607,6.1121472],[7.0855748,6.1121008],[7.0843484,6.1119375],[7.0839845,6.1118455],[7.0838403,6.1121149],[7.0838611,6.1123813],[7.0837646,6.1127053],[7.0789565,6.115501],[7.0767001,6.1168787],[7.0648059,6.1179827],[7.0622599,6.1284117],[7.0598542,6.1328754],[7.0592177,6.131563],[7.058477,6.1306795],[7.0577824,6.1299014],[7.0572804,6.1294198],[7.0571166,6.1292808],[7.0568112,6.129117],[7.0564297,6.1287789],[7.0560839,6.1283632],[7.0558486,6.1278501],[7.0555092,6.1263108],[7.0553451,6.125529],[7.0547618,6.1260952],[7.0545933,6.1264305],[7.0543319,6.127122],[7.053824,6.1273041],[7.0533382,6.1278677],[7.0529674,6.1286629],[7.0526787,6.1294446],[7.0525471,6.1298448],[7.0521238,6.1305026],[7.0519052,6.1308211],[7.051754,6.1310535],[7.0516264,6.1311838],[7.0516047,6.1314237],[7.0515668,6.1316332],[7.0513822,6.1317861],[7.0510007,6.1317841],[7.050365,6.1316995],[7.0497552,6.1315362],[7.0486729,6.1311732],[7.0484622,6.1310989],[7.0480588,6.1313579],[7.047767,6.131281],[7.0465871,6.130552],[7.0455927,6.1300644],[7.0451317,6.130527],[7.0416047,6.1321949],[7.0414448,6.1322195],[7.0410928,6.1326159],[7.0391145,6.1358728],[7.0383327,6.1364697],[7.0368119,6.1373572],[7.0351312,6.1383728],[7.0348312,6.138627],[7.034658,6.1385703],[7.0347208,6.1376416],[7.0348088,6.1363557],[7.033991,6.1365624],[7.0337422,6.1366582],[7.0334371,6.1371012],[7.0331846,6.1374551],[7.0329279,6.1373865],[7.0326428,6.1373379],[7.0323645,6.1372344],[7.0321835,6.1372029],[7.0312901,6.1370971],[7.0312331,6.1372709],[7.0313397,6.1377719],[7.0311943,6.1379357],[7.0310102,6.1381285],[7.030923,6.1385428],[7.031049,6.1389089],[7.0310393,6.139381],[7.0309811,6.1391016],[7.0306904,6.138774],[7.0305256,6.1384271],[7.030516,6.1379357],[7.0306516,6.1371649],[7.0306517,6.1371634],[7.0299595,6.1373706],[7.029923,6.1376193],[7.0298273,6.1377611],[7.0296941,6.1378115],[7.0293882,6.1379404],[7.0290719,6.1380082],[7.0286779,6.1379516],[7.0279902,6.137966],[7.0277329,6.138023],[7.027421,6.1381058],[7.0271477,6.1380264],[7.0267826,6.1378492],[7.0264606,6.1376086],[7.0260616,6.1371934],[7.0257697,6.1370476],[7.0251849,6.1368398],[7.0240961,6.1366244],[7.0231174,6.1367089],[7.0230738,6.1359284],[7.0219939,6.1357674],[7.0212217,6.135693],[7.0206567,6.1356163],[7.02056,6.1356612],[7.0203466,6.1360542],[7.0202893,6.1363777],[7.0202279,6.1368222],[7.0201045,6.1374276],[7.0199683,6.1376967],[7.0190474,6.137721],[7.0181916,6.1386208],[7.0177682,6.1388788],[7.0175664,6.139096],[7.0173382,6.1395114],[7.0172025,6.1394508],[7.0162483,6.1393988],[7.0156334,6.1392716],[7.0148425,6.1388154],[7.0141054,6.1394351],[7.0138919,6.1396146],[7.0136992,6.1397766],[7.0136875,6.1400825],[7.0133795,6.1403298],[7.0127448,6.1405665],[7.0124412,6.1407771],[7.0125582,6.1409614],[7.0131492,6.1417282],[7.0131614,6.142214],[7.0131362,6.1424498],[7.0132509,6.1427686],[7.0136917,6.1437864],[7.0136976,6.1440759],[7.0139209,6.1443825],[7.0141331,6.1448747],[7.0132364,6.1449413],[7.0130489,6.1452282],[7.0123244,6.1502664],[7.0124531,6.1512745],[7.0126618,6.1519677],[7.0127156,6.1521146],[7.0126048,6.1522695],[7.012737,6.1528992],[7.0126643,6.1530789],[7.0128576,6.1533496],[7.0134945,6.1543644],[7.0142748,6.1554873],[7.0144126,6.1558445],[7.0143327,6.1563997],[7.014145,6.1569354],[7.0140681,6.1576039],[7.0139923,6.1579719],[7.0143897,6.1577094],[7.0149693,6.1571573],[7.0151971,6.157027],[7.0152716,6.1570342],[7.0148947,6.1578937],[7.0148217,6.1594117],[7.0145811,6.1599863],[7.0142186,6.1605468],[7.0134981,6.1608411],[7.012467,6.161273],[7.0116899,6.1617422],[7.0115119,6.1620525],[7.0107431,6.1635884],[7.0114833,6.1638559],[7.011906,6.1639873],[7.0122575,6.1640124],[7.0129074,6.163958],[7.0136704,6.1639547],[7.0139575,6.1640524],[7.0142564,6.1642745],[7.0146669,6.1647599],[7.0149885,6.1649759],[7.0154238,6.1650217],[7.0160286,6.1651498],[7.0162886,6.1651731],[7.0161924,6.1653206],[7.0159769,6.1655847],[7.0158669,6.1661651],[7.0161995,6.1661631],[7.0163341,6.1662578],[7.0169075,6.1668808],[7.0170236,6.1670506],[7.017088,6.1672198],[7.0169695,6.1674314],[7.0162669,6.1673271],[7.0160111,6.1674471],[7.0162254,6.167903],[7.0162871,6.1679789],[7.0162064,6.1681666],[7.0161921,6.1683643],[7.0161661,6.1688021],[7.0166105,6.1691593],[7.0164703,6.1692862],[7.0166534,6.16959],[7.0170361,6.1701644],[7.0167491,6.1704822],[7.0161472,6.1710848],[7.015574,6.1715733],[7.015319,6.1718573],[7.0156761,6.1717627],[7.0163031,6.1715196],[7.0168347,6.1712765],[7.0170384,6.1711853],[7.0175671,6.172001],[7.0175491,6.1722572],[7.0175027,6.1723582],[7.0171769,6.1724742],[7.01701,6.1727712],[7.0167225,6.1732882],[7.0165037,6.1736102],[7.0164832,6.173723],[7.0166852,6.1738145],[7.0167259,6.1738985],[7.0165139,6.1740485],[7.0167313,6.1742832],[7.0173188,6.1745385],[7.0175677,6.1738958],[7.0178688,6.1731507],[7.0181663,6.1731874],[7.0185329,6.1731836],[7.0192951,6.1734919],[7.0195795,6.173389],[7.020034,6.1734421],[7.0202143,6.1739364],[7.0201722,6.1747084],[7.0202103,6.1750708],[7.0205049,6.1756744],[7.0216261,6.1756348],[7.0216785,6.1755501],[7.0218385,6.1749724],[7.0219626,6.174582],[7.0219203,6.1743473],[7.0228416,6.1742134],[7.0235631,6.1741758],[7.023462,6.1747324],[7.0240189,6.1748579],[7.0244085,6.1750095],[7.0244915,6.1756417],[7.024759,6.1758996],[7.0254807,6.1748575],[7.0256516,6.1747325],[7.0259712,6.1746146],[7.0276728,6.1737961],[7.0285253,6.1732738],[7.0294759,6.1724195],[7.0295234,6.1720663],[7.0298675,6.1720561],[7.0300927,6.1723355],[7.0305662,6.1726101],[7.0312563,6.1723528],[7.0319264,6.1721708],[7.0342878,6.1724469],[7.0352447,6.1727529],[7.0355475,6.1727529],[7.0361302,6.1727528],[7.0370783,6.1728653],[7.0374524,6.1729513],[7.0380121,6.172996],[7.0387851,6.1728993],[7.039564,6.172658],[7.040223,6.1724381],[7.0407794,6.1722802],[7.0404341,6.1739875],[7.0404925,6.174375],[7.0405253,6.1748064],[7.0400117,6.1748625],[7.0399217,6.1752371],[7.0398466,6.1755446],[7.0398412,6.1759025],[7.0399497,6.1761676],[7.0400028,6.1765447],[7.0399881,6.1770946],[7.0400356,6.1776007],[7.0400022,6.1780964],[7.0398437,6.178426],[7.0397703,6.1787671],[7.0396062,6.1790794],[7.0393573,6.180263],[7.0391334,6.1812347],[7.0390696,6.1816434],[7.0392206,6.1817393],[7.0391736,6.1820595],[7.0394648,6.1827223],[7.0396119,6.1837781],[7.0381757,6.183698],[7.037959,6.1840628],[7.0379403,6.1843793],[7.0379389,6.1853345],[7.0379095,6.1860063],[7.0375737,6.1866179],[7.0369747,6.1869758],[7.0336641,6.188148],[7.0333318,6.1894013],[7.033617,6.1903027],[7.0337146,6.1908344],[7.0335603,6.1908715],[7.0335699,6.1910787],[7.0334571,6.1911482],[7.0333678,6.1919559],[7.0332011,6.1923153],[7.0328266,6.1920895],[7.0325696,6.1927947],[7.0322633,6.1935578],[7.0321174,6.1939792],[7.0321024,6.194219],[7.0321669,6.1943932],[7.0323289,6.194684],[7.0313431,6.1949747],[7.0303366,6.1952918],[7.0305484,6.1962183],[7.0302125,6.1963327],[7.0290674,6.196957],[7.0286932,6.1972607],[7.0283982,6.1973355],[7.0277321,6.1979287],[7.0278293,6.1981421],[7.0282618,6.1987736],[7.0284724,6.1989886],[7.0288179,6.1994435],[7.0291791,6.200048],[7.0295683,6.2006381],[7.0298996,6.2013706],[7.0302249,6.2021833],[7.0302281,6.2023376],[7.026113,6.2016073],[7.0220426,6.2009156],[7.0218803,6.2029678],[7.0238636,6.2068598],[7.0251959,6.2087135],[7.0246822,6.2094378],[7.0257092,6.2126719],[7.0260725,6.2144437],[7.0266055,6.216787],[7.026976,6.2190194],[7.0306391,6.2173299],[7.0330161,6.2163229],[7.0336658,6.218159],[7.0342312,6.2195893],[7.0346713,6.2209632],[7.0361048,6.223944],[7.0354206,6.2248082],[7.03436,6.2256663],[7.0340788,6.2251092],[7.0334817,6.2254191],[7.0326401,6.2233872],[7.0307454,6.2241921],[7.0294008,6.2265333],[7.0284011,6.2279132],[7.0275644,6.2292452],[7.0294575,6.2358717],[7.0308909,6.2358753],[7.0321932,6.2361468],[7.0335368,6.2358433],[7.0355377,6.2366856],[7.0374085,6.2385826],[7.0402039,6.2416812],[7.0453728,6.2452482],[7.0471443,6.2473576],[7.0496615,6.247984],[7.0529649,6.2455424],[7.0561802,6.2446064],[7.0587107,6.2477324],[7.0602997,6.2512944],[7.0619709,6.2537951],[7.0625509,6.2565072],[7.0706699,6.2596295],[7.079116,6.2634632],[7.0804057,6.265371],[7.0805755,6.2665389],[7.0813987,6.266723],[7.0820976,6.2670944],[7.0825654,6.2670763],[7.0833225,6.2676153],[7.0837231,6.2682484],[7.0838777,6.2688004],[7.0842975,6.2690697],[7.0850239,6.2690866],[7.0855414,6.2697501],[7.0857371,6.2698955],[7.0858996,6.2696792],[7.0863489,6.2694864],[7.0864968,6.2698349],[7.086548,6.2700867],[7.0866853,6.2709515],[7.0874602,6.2710986],[7.0877314,6.2708243],[7.0879806,6.2707675],[7.0887661,6.2704945],[7.089337,6.270362],[7.0892698,6.2699458],[7.089436,6.2698379],[7.0906412,6.2689952],[7.0916554,6.2687224],[7.0932759,6.2691134],[7.0943388,6.2690987],[7.0950895,6.2685233],[7.0962286,6.2628464],[7.0971227,6.2608633],[7.0992928,6.260762],[7.1002116,6.2608778],[7.1011193,6.2609472],[7.101786,6.2588086],[7.1026288,6.2574497],[7.1034417,6.256835],[7.1044137,6.2560295],[7.1031016,6.253723],[7.1069987,6.247535],[7.1177785,6.2363541],[7.1213832,6.2301646],[7.1228086,6.2256427],[7.1237832,6.2254774],[7.1252085,6.2223885],[7.1291514,6.2226738],[7.1286152,6.2213551],[7.1288494,6.218682],[7.1293506,6.2163574],[7.1312395,6.2166437],[7.1348335,6.2158118],[7.1352161,6.2153316],[7.1353313,6.213173],[7.1356272,6.211178],[7.1369186,6.2104531],[7.1386966,6.211104],[7.1507267,6.1783025],[7.1501099,6.1764103]],[[7.1166883,6.1768101],[7.1167194,6.1768059],[7.1167655,6.1768315],[7.116802,6.1768795],[7.1167763,6.17692],[7.1167559,6.1769435],[7.1166979,6.1769328],[7.1166636,6.1769104],[7.1166883,6.1768101]],[[7.0585014,6.2135005],[7.0585175,6.2137964],[7.0582895,6.2138151],[7.0582653,6.2135111],[7.0585014,6.2135005]]]}},{"type":"Feature","properties":{"kind":"water","id":"water:awka-south","localUnitId":"awka-south","name":"Mapped water in Awka South"},"geometry":{"type":"MultiPolygon","coordinates":[[[[7.0306517,6.1371634],[7.0306516,6.1371649],[7.030516,6.1379357],[7.0305256,6.1384271],[7.0306904,6.138774],[7.0309811,6.1391016],[7.0310393,6.139381],[7.031049,6.1389089],[7.030923,6.1385428],[7.0310102,6.1381285],[7.0311943,6.1379357],[7.0313397,6.1377719],[7.0312331,6.1372709],[7.0312901,6.1370971],[7.0309912,6.1370617],[7.0306517,6.1371634]]],[[[7.1167763,6.17692],[7.116802,6.1768795],[7.1167655,6.1768315],[7.1167194,6.1768059],[7.1166883,6.1768101],[7.1166636,6.1769104],[7.1166979,6.1769328],[7.1167559,6.1769435],[7.1167763,6.17692]]],[[[7.0585014,6.2135005],[7.0582653,6.2135111],[7.0582895,6.2138151],[7.0585175,6.2137964],[7.0585014,6.2135005]]]]}},{"type":"Feature","properties":{"kind":"road","id":"road-180189341-0","name":"A232-1","osmWay":180189341,"major":true,"bridge":false},"geometry":{"type":"LineString","coordinates":[[7.0228149,6.2010468],[7.0220374,6.2009815]]}},{"type":"Feature","properties":{"kind":"road","id":"road-180189341-1","name":"A232-1","osmWay":180189341,"major":true,"bridge":false},"geometry":{"type":"LineString","coordinates":[[7.0408444,6.2065584],[7.0391962,6.2050976],[7.0383003,6.2045643],[7.0366161,6.2038683],[7.0254679,6.2014977]]}},{"type":"Feature","properties":{"kind":"road","id":"road-267321747-0","name":"Unnamed mapped secondary","osmWay":267321747,"major":false,"bridge":false},"geometry":{"type":"LineString","coordinates":[[7.0524428,6.1972915],[7.0507407,6.1988536],[7.0478461,6.2035371],[7.0457069,6.2050449],[7.0416583,6.2087277],[7.0401455,6.2094209],[7.0394755,6.2101296]]}},{"type":"Feature","properties":{"kind":"road","id":"road-267321749-0","name":"A232","osmWay":267321749,"major":true,"bridge":false},"geometry":{"type":"LineString","coordinates":[[7.0523997,6.1971705],[7.0539857,6.1961644],[7.0555125,6.1944198]]}},{"type":"Feature","properties":{"kind":"road","id":"road-267321761-0","name":"A232","osmWay":267321761,"major":true,"bridge":false},"geometry":{"type":"LineString","coordinates":[[7.0328254,6.1920929],[7.0353826,6.1936461],[7.0376605,6.194355],[7.0445322,6.1976936],[7.0499584,6.1978296],[7.0523997,6.1971705]]}},{"type":"Feature","properties":{"kind":"road","id":"road-267321762-0","name":"A232","osmWay":267321762,"major":true,"bridge":false},"geometry":{"type":"LineString","coordinates":[[7.0694745,6.2074254],[7.0693881,6.2073398],[7.0694786,6.2072439],[7.0695702,6.2073436],[7.0694745,6.2074254]]}},{"type":"Feature","properties":{"kind":"road","id":"road-267321764-0","name":"A232","osmWay":267321764,"major":true,"bridge":false},"geometry":{"type":"LineString","coordinates":[[7.0695631,6.2073708],[7.0704397,6.2089382],[7.0712645,6.2111435],[7.0726874,6.2139046],[7.0763259,6.2193468],[7.0766878,6.2197276],[7.0778097,6.2204432],[7.0782375,6.2206371],[7.078776,6.2206844],[7.0805585,6.2204384],[7.0823765,6.2208853],[7.0840687,6.2207257],[7.0849475,6.2203796],[7.0873661,6.2186773],[7.0878811,6.218564],[7.0886637,6.2186179]]}},{"type":"Feature","properties":{"kind":"road","id":"road-267321766-0","name":"A232","osmWay":267321766,"major":true,"bridge":false},"geometry":{"type":"LineString","coordinates":[[7.0886374,6.2187289],[7.0880434,6.2186193],[7.0873614,6.2187393],[7.0849995,6.2204227],[7.0839902,6.2207924],[7.0823316,6.2209433],[7.0805552,6.2204898],[7.0790964,6.2207276],[7.0783407,6.2207199],[7.0776053,6.220396],[7.0766477,6.2197907],[7.0762709,6.2193881],[7.0725075,6.2137157],[7.071033,6.2107416],[7.0704325,6.209046],[7.0694745,6.2074254]]}},{"type":"Feature","properties":{"kind":"road","id":"road-267321767-0","name":"Awka-Onitsha","osmWay":267321767,"major":true,"bridge":false},"geometry":{"type":"LineString","coordinates":[[7.0693912,6.2073107],[7.067618,6.203893],[7.0670242,6.2016676],[7.0656864,6.1997039],[7.0651075,6.1994069],[7.0633464,6.1989324],[7.0627368,6.1988262],[7.0613627,6.1989257],[7.0606999,6.1987774],[7.0601984,6.1984468],[7.0578506,6.1961005],[7.055613,6.1945619]]}},{"type":"Feature","properties":{"kind":"road","id":"road-267321774-0","name":"Awka-Onitsha","osmWay":267321774,"major":true,"bridge":false},"geometry":{"type":"LineString","coordinates":[[7.0557002,6.1944443],[7.0565852,6.1951902],[7.0578662,6.196025],[7.0602882,6.1984454],[7.0606624,6.1986867],[7.0614162,6.1988547],[7.062483,6.1987322],[7.0631454,6.1988083],[7.0652004,6.1993534],[7.0656621,6.1995882],[7.0670315,6.2015463],[7.0673136,6.2022547],[7.0676777,6.2038802],[7.0695169,6.207252]]}},{"type":"Feature","properties":{"kind":"road","id":"road-267321778-0","name":"A232","osmWay":267321778,"major":true,"bridge":false},"geometry":{"type":"LineString","coordinates":[[7.0555784,6.1945596],[7.0552424,6.1947478],[7.0538369,6.1963897],[7.0523997,6.1971705]]}},{"type":"Feature","properties":{"kind":"road","id":"road-267321779-0","name":"Unnamed mapped primary","osmWay":267321779,"major":true,"bridge":false},"geometry":{"type":"LineString","coordinates":[[7.0555461,6.1945453],[7.0555125,6.1944198],[7.0556531,6.1943778],[7.0556826,6.1945221],[7.0555461,6.1945453]]}},{"type":"Feature","properties":{"kind":"road","id":"road-267407718-0","name":"A232-1","osmWay":267407718,"major":true,"bridge":false},"geometry":{"type":"LineString","coordinates":[[7.0302265,6.2022605],[7.0372331,6.2038565],[7.039263,6.2049208],[7.0404366,6.2058797],[7.0409434,6.2064771]]}},{"type":"Feature","properties":{"kind":"road","id":"road-267537287-0","name":"A232-1","osmWay":267537287,"major":true,"bridge":false},"geometry":{"type":"LineString","coordinates":[[7.1175425,6.2365989],[7.1089515,6.231453],[7.1080986,6.2309997],[7.1062776,6.2303749]]}},{"type":"Feature","properties":{"kind":"road","id":"road-267537314-0","name":"Ifite Road","osmWay":267537314,"major":false,"bridge":false},"geometry":{"type":"LineString","coordinates":[[7.0813522,6.2287309],[7.0815295,6.2289238],[7.0852771,6.2292124],[7.0861508,6.2322215],[7.0863479,6.2351944],[7.0867114,6.2360477],[7.0865317,6.2369755],[7.0860583,6.2379448],[7.0861441,6.2388086],[7.0902117,6.2445092],[7.0906596,6.2448318],[7.0951161,6.2464169],[7.0961796,6.2469369],[7.0973195,6.248094],[7.1020737,6.2520828],[7.1025243,6.2526134],[7.1031124,6.2537058]]}},{"type":"Feature","properties":{"kind":"road","id":"road-267537314-1","name":"Ifite Road","osmWay":267537314,"major":false,"bridge":false},"geometry":{"type":"LineString","coordinates":[[7.1033927,6.2542348],[7.10441,6.2560326]]}},{"type":"Feature","properties":{"kind":"road","id":"road-332243488-0","name":"Unnamed mapped secondary","osmWay":332243488,"major":false,"bridge":false},"geometry":{"type":"LineString","coordinates":[[7.0343063,6.1387645],[7.0345423,6.1385855]]}},{"type":"Feature","properties":{"kind":"road","id":"road-332243521-0","name":"F229","osmWay":332243521,"major":true,"bridge":false},"geometry":{"type":"LineString","coordinates":[[7.0555589,6.1943738],[7.0557555,6.1941869]]}},{"type":"Feature","properties":{"kind":"road","id":"road-332243525-0","name":"F229","osmWay":332243525,"major":true,"bridge":false},"geometry":{"type":"LineString","coordinates":[[7.034723,6.1389034],[7.0366614,6.1516551],[7.0372931,6.153662],[7.037273,6.1541788],[7.0368975,6.1551351],[7.036912,6.1555879],[7.0375691,6.1567378],[7.0391845,6.1588711],[7.0393153,6.1594154],[7.0392015,6.1606415],[7.039359,6.1611859],[7.0400524,6.1624143],[7.0418454,6.1650503],[7.0428169,6.1669795],[7.042583,6.1677576],[7.041349,6.1700703],[7.0407328,6.1725106]]}},{"type":"Feature","properties":{"kind":"road","id":"road-332243525-1","name":"F229","osmWay":332243525,"major":true,"bridge":false},"geometry":{"type":"LineString","coordinates":[[7.040454,6.1738892],[7.0404558,6.1741312]]}},{"type":"Feature","properties":{"kind":"road","id":"road-332243525-2","name":"F229","osmWay":332243525,"major":true,"bridge":false},"geometry":{"type":"LineString","coordinates":[[7.0405179,6.1747095],[7.0408855,6.1764045],[7.0412057,6.177103],[7.0434624,6.1794362],[7.0444847,6.1803109],[7.044973,6.1813576],[7.0462141,6.1829742],[7.0465373,6.1839235],[7.046717,6.1852901],[7.0474533,6.1866874],[7.0493187,6.1872781],[7.0505485,6.1879687],[7.0523403,6.1876941],[7.0534319,6.1878421],[7.0541266,6.1882807],[7.0562321,6.1902006],[7.0565205,6.1911366],[7.0565084,6.1929019],[7.0563636,6.1934405],[7.0557555,6.1941869]]}},{"type":"Feature","properties":{"kind":"road","id":"road-332243542-0","name":"F229","osmWay":332243542,"major":true,"bridge":false},"geometry":{"type":"LineString","coordinates":[[7.0557555,6.1941869],[7.0556949,6.1944264]]}},{"type":"Feature","properties":{"kind":"road","id":"road-332243578-0","name":"F229","osmWay":332243578,"major":true,"bridge":false},"geometry":{"type":"LineString","coordinates":[[7.0346431,6.1381789],[7.0346524,6.1385678]]}},{"type":"Feature","properties":{"kind":"road","id":"road-332243580-0","name":"Unnamed mapped secondary","osmWay":332243580,"major":false,"bridge":false},"geometry":{"type":"LineString","coordinates":[[7.034572,6.1386934],[7.0343063,6.1387645]]}},{"type":"Feature","properties":{"kind":"road","id":"road-332243588-0","name":"F229","osmWay":332243588,"major":true,"bridge":false},"geometry":{"type":"LineString","coordinates":[[7.0347177,6.138951],[7.0346026,6.1387011]]}},{"type":"Feature","properties":{"kind":"road","id":"road-332252310-0","name":"Unnamed mapped secondary","osmWay":332252310,"major":false,"bridge":false},"geometry":{"type":"LineString","coordinates":[[7.0590538,6.1927465],[7.0568549,6.1954651]]}},{"type":"Feature","properties":{"kind":"road","id":"road-332252315-0","name":"Unnamed mapped secondary","osmWay":332252315,"major":false,"bridge":false},"geometry":{"type":"LineString","coordinates":[[7.0566958,6.1953497],[7.0590538,6.1927465]]}},{"type":"Feature","properties":{"kind":"road","id":"road-332252316-0","name":"Unnamed mapped secondary","osmWay":332252316,"major":false,"bridge":false},"geometry":{"type":"LineString","coordinates":[[7.0153638,6.1718454],[7.0184553,6.1705293],[7.0230604,6.1674915],[7.0244356,6.1670247],[7.0268318,6.1665681],[7.0308161,6.1663794],[7.0316905,6.1664817],[7.0332634,6.1668952],[7.039543,6.1669693],[7.0406665,6.1667053],[7.0423477,6.165967],[7.0441689,6.1653956],[7.0465842,6.164877],[7.047085,6.1645814],[7.0476571,6.1639629],[7.0517635,6.1579262],[7.0524207,6.1575342],[7.0528311,6.1575048],[7.0536572,6.1578648],[7.0552882,6.1602164],[7.0573318,6.1623303],[7.0598786,6.1636863],[7.062605,6.167305],[7.0641265,6.1695563],[7.0670414,6.171431]]}},{"type":"Feature","properties":{"kind":"road","id":"road-332252322-0","name":"Unnamed mapped secondary","osmWay":332252322,"major":false,"bridge":false},"geometry":{"type":"LineString","coordinates":[[7.0672426,6.171621],[7.0670414,6.171431]]}},{"type":"Feature","properties":{"kind":"road","id":"road-332252333-0","name":"Unnamed mapped secondary","osmWay":332252333,"major":false,"bridge":false},"geometry":{"type":"LineString","coordinates":[[7.0670414,6.171431],[7.0672232,6.1714943]]}},{"type":"Feature","properties":{"kind":"road","id":"road-332252342-0","name":"Unnamed mapped tertiary","osmWay":332252342,"major":false,"bridge":false},"geometry":{"type":"LineString","coordinates":[[7.0373065,6.1537807],[7.0388192,6.1542887],[7.0428479,6.1549327],[7.0449749,6.1562941],[7.0458506,6.1560848],[7.0508234,6.1575808],[7.051954,6.1577662]]}},{"type":"Feature","properties":{"kind":"road","id":"road-332252344-0","name":"Unnamed mapped secondary","osmWay":332252344,"major":false,"bridge":false},"geometry":{"type":"LineString","coordinates":[[7.0590538,6.1927465],[7.0621826,6.1885594],[7.0626453,6.1877501],[7.0640936,6.1835675],[7.0637932,6.1798716],[7.0640769,6.1785623],[7.065591,6.174667],[7.0676893,6.1723759]]}},{"type":"Feature","properties":{"kind":"road","id":"road-332252348-0","name":"Unnamed mapped secondary","osmWay":332252348,"major":false,"bridge":false},"geometry":{"type":"LineString","coordinates":[[7.0676141,6.171987],[7.0683047,6.1717703],[7.0706061,6.1716224],[7.0731676,6.1712237],[7.0781257,6.168585],[7.080659,6.1666716],[7.0822388,6.164777],[7.0848767,6.1635543],[7.0853555,6.1632129],[7.0860569,6.1624089],[7.0870051,6.1607009],[7.0881249,6.1595769],[7.0883971,6.1594089],[7.0898737,6.1591702],[7.0909238,6.1577048],[7.0925425,6.1565915],[7.0951652,6.1551448],[7.0960119,6.1540247],[7.0977996,6.1523287],[7.0991647,6.1497662],[7.1003141,6.1425841],[7.1001355,6.1411039],[7.0997722,6.1399442],[7.0973601,6.1353026]]}},{"type":"Feature","properties":{"kind":"road","id":"road-332252348-1","name":"Unnamed mapped secondary","osmWay":332252348,"major":false,"bridge":false},"geometry":{"type":"LineString","coordinates":[[7.0941948,6.1217399],[7.0934502,6.1206816]]}},{"type":"Feature","properties":{"kind":"road","id":"road-332252348-2","name":"Unnamed mapped secondary","osmWay":332252348,"major":false,"bridge":false},"geometry":{"type":"LineString","coordinates":[[7.0952209,6.1302408],[7.0950876,6.1280038]]}},{"type":"Feature","properties":{"kind":"road","id":"road-332252348-3","name":"Unnamed mapped secondary","osmWay":332252348,"major":false,"bridge":false},"geometry":{"type":"LineString","coordinates":[[7.0961968,6.1331249],[7.0957137,6.1321069]]}},{"type":"Feature","properties":{"kind":"road","id":"road-332252355-0","name":"Unnamed mapped tertiary","osmWay":332252355,"major":false,"bridge":false},"geometry":{"type":"LineString","coordinates":[[7.0372931,6.153662],[7.0342568,6.1529274],[7.0324677,6.1518713],[7.0308536,6.1513853],[7.0302807,6.1503397],[7.0290175,6.1494029],[7.0263369,6.1494466],[7.024738,6.1485344],[7.0230683,6.1483943]]}},{"type":"Feature","properties":{"kind":"road","id":"road-332252361-0","name":"Unnamed mapped secondary","osmWay":332252361,"major":false,"bridge":false},"geometry":{"type":"LineString","coordinates":[[7.06785,6.1722272],[7.0676893,6.1723759]]}},{"type":"Feature","properties":{"kind":"road","id":"road-332252366-0","name":"Unnamed mapped tertiary","osmWay":332252366,"major":false,"bridge":false},"geometry":{"type":"LineString","coordinates":[[7.0639059,6.169269],[7.0626221,6.1705371],[7.0610654,6.1710663],[7.0588486,6.171557],[7.0569362,6.172355],[7.055072,6.1727263],[7.0540669,6.1733443],[7.052697,6.173697],[7.0521015,6.1742743],[7.0513639,6.1755063],[7.0510662,6.1774463],[7.0502508,6.1787063],[7.050228,6.1795209],[7.0494876,6.180885],[7.0498753,6.1817489],[7.0503098,6.1836128],[7.0523147,6.1853408],[7.0537497,6.1861914],[7.0543291,6.1869461],[7.0545275,6.1874901],[7.0544418,6.1885567]]}},{"type":"Feature","properties":{"kind":"road","id":"road-332252367-0","name":"Unnamed mapped secondary","osmWay":332252367,"major":false,"bridge":false},"geometry":{"type":"LineString","coordinates":[[7.0116891,6.1617436],[7.0116917,6.1617411]]}},{"type":"Feature","properties":{"kind":"road","id":"road-332252367-1","name":"Unnamed mapped secondary","osmWay":332252367,"major":false,"bridge":false},"geometry":{"type":"LineString","coordinates":[[7.0139044,6.1606752],[7.0143512,6.1604607],[7.0146617,6.1597937]]}},{"type":"Feature","properties":{"kind":"road","id":"road-332252367-2","name":"Unnamed mapped secondary","osmWay":332252367,"major":false,"bridge":false},"geometry":{"type":"LineString","coordinates":[[7.014827,6.1593012],[7.0148746,6.1583117]]}},{"type":"Feature","properties":{"kind":"road","id":"road-332252367-3","name":"Unnamed mapped secondary","osmWay":332252367,"major":false,"bridge":false},"geometry":{"type":"LineString","coordinates":[[7.0148868,6.1580578],[7.0149134,6.1578509]]}},{"type":"Feature","properties":{"kind":"road","id":"road-332252367-4","name":"Unnamed mapped secondary","osmWay":332252367,"major":false,"bridge":false},"geometry":{"type":"LineString","coordinates":[[7.015271,6.1570341],[7.0157739,6.1557288],[7.0174608,6.1547773],[7.018244,6.1541715],[7.0204731,6.151635],[7.0220927,6.1492529],[7.0228769,6.1486808],[7.0230683,6.1483943]]}},{"type":"Feature","properties":{"kind":"road","id":"road-332252368-0","name":"Unnamed mapped tertiary","osmWay":332252368,"major":false,"bridge":false},"geometry":{"type":"LineString","coordinates":[[7.0518809,6.1577175],[7.0525695,6.1567435],[7.0537135,6.1564008],[7.054612,6.1556802],[7.0551042,6.1546861],[7.0552391,6.1533264],[7.05579,6.1519056],[7.0569515,6.1502658],[7.0572617,6.1501337],[7.0589291,6.1509686],[7.0596063,6.1509553],[7.0599778,6.1507513],[7.0607865,6.1494386],[7.0612492,6.1475178],[7.0616059,6.1466938],[7.062137,6.1459751],[7.0632488,6.1448697],[7.0647119,6.144047],[7.0682651,6.1429113],[7.0685931,6.1426575],[7.0700552,6.1408268],[7.0714349,6.1419082],[7.0721719,6.1411756]]}},{"type":"Feature","properties":{"kind":"road","id":"road-332391571-0","name":"Unnamed mapped tertiary","osmWay":332391571,"major":false,"bridge":false},"geometry":{"type":"LineString","coordinates":[[7.0705873,6.2253502],[7.0753388,6.2213853],[7.0766477,6.2197907]]}},{"type":"Feature","properties":{"kind":"road","id":"road-332391573-0","name":"Unnamed mapped tertiary","osmWay":332391573,"major":false,"bridge":false},"geometry":{"type":"LineString","coordinates":[[7.0704612,6.2254619],[7.065133,6.2297351],[7.0629698,6.2317389]]}},{"type":"Feature","properties":{"kind":"road","id":"road-332391577-0","name":"Unnamed mapped secondary","osmWay":332391577,"major":false,"bridge":false},"geometry":{"type":"LineString","coordinates":[[7.0559453,6.2445822],[7.056371,6.2440737],[7.0573291,6.2424375],[7.0582612,6.2403818],[7.0588513,6.2385913],[7.0595165,6.2370582],[7.0600803,6.2363317]]}},{"type":"Feature","properties":{"kind":"road","id":"road-332391581-0","name":"Unnamed mapped secondary","osmWay":332391581,"major":false,"bridge":false},"geometry":{"type":"LineString","coordinates":[[7.0664895,6.2211018],[7.0673673,6.2193495],[7.0674913,6.2164991],[7.0681076,6.2143139],[7.0682645,6.2113381],[7.0694096,6.2073935]]}},{"type":"Feature","properties":{"kind":"road","id":"road-346845631-0","name":"Unnamed mapped secondary","osmWay":346845631,"major":false,"bridge":false},"geometry":{"type":"LineString","coordinates":[[7.0230123,6.1482223],[7.0230846,6.1481547],[7.0231605,6.1482311],[7.0230818,6.1483022],[7.0230123,6.1482223]]}},{"type":"Feature","properties":{"kind":"road","id":"road-346845642-0","name":"Unnamed mapped tertiary","osmWay":346845642,"major":false,"bridge":false},"geometry":{"type":"LineString","coordinates":[[7.0229506,6.1480754],[7.0230846,6.1481547]]}},{"type":"Feature","properties":{"kind":"road","id":"road-371882129-0","name":"Nnamdi Azikiwe Avenue","osmWay":371882129,"major":true,"bridge":false},"geometry":{"type":"LineString","coordinates":[[7.0887849,6.2186658],[7.0914384,6.2202243],[7.0933612,6.2219479],[7.0948673,6.2226891],[7.0966988,6.2231642],[7.106234,6.229075]]}},{"type":"Feature","properties":{"kind":"road","id":"road-372023980-0","name":"Unnamed mapped tertiary","osmWay":372023980,"major":false,"bridge":false},"geometry":{"type":"LineString","coordinates":[[7.086899,6.1914385],[7.0923735,6.1897933],[7.0933244,6.1892967],[7.0992306,6.1875941],[7.1041077,6.1868756],[7.105228,6.1861394],[7.1056283,6.1848041],[7.1068955,6.184147],[7.1078383,6.1832983],[7.1081134,6.1832058],[7.109242,6.1833742],[7.1114387,6.1841515],[7.1156411,6.1844633],[7.1191211,6.1829406],[7.122758,6.1809489]]}},{"type":"Feature","properties":{"kind":"road","id":"road-372816189-0","name":"A232","osmWay":372816189,"major":true,"bridge":false},"geometry":{"type":"LineString","coordinates":[[7.088688,6.2187664],[7.088628,6.2186715],[7.0887198,6.2186087],[7.0887835,6.2187151],[7.088688,6.2187664]]}},{"type":"Feature","properties":{"kind":"road","id":"road-372816190-0","name":"Unnamed mapped secondary","osmWay":372816190,"major":false,"bridge":false},"geometry":{"type":"LineString","coordinates":[[7.0886687,6.2186142],[7.0887896,6.2183833]]}},{"type":"Feature","properties":{"kind":"road","id":"road-372816192-0","name":"Nnamdi Azikiwe Avenue","osmWay":372816192,"major":true,"bridge":false},"geometry":{"type":"LineString","coordinates":[[7.1061321,6.2291527],[7.1059194,6.2288899],[7.0967326,6.2232693],[7.0962313,6.2230476],[7.0949069,6.2227678],[7.0932023,6.2219265],[7.0912244,6.220155],[7.0887307,6.2187652]]}},{"type":"Feature","properties":{"kind":"road","id":"road-372816193-0","name":"Unnamed mapped secondary","osmWay":372816193,"major":false,"bridge":false},"geometry":{"type":"LineString","coordinates":[[7.0638521,6.1218899],[7.0646413,6.12258],[7.066514,6.1237169],[7.0671887,6.1240375],[7.0682652,6.1242693],[7.0727943,6.1248144],[7.0734368,6.1246269],[7.0754076,6.1235739],[7.0766166,6.1232631],[7.0774376,6.1234502],[7.0779643,6.1240335],[7.0784605,6.1279325],[7.0780984,6.1292037],[7.0779378,6.1312378],[7.078071,6.1319424],[7.078682,6.1331431],[7.0786799,6.1342582],[7.0777195,6.1358179],[7.0761918,6.1370366],[7.0756929,6.1378619],[7.0745851,6.1380247],[7.0731555,6.1385553],[7.0723187,6.1394034],[7.0719957,6.1399987],[7.0720104,6.1407749],[7.0725935,6.1428669],[7.0726199,6.1439372],[7.069096,6.1563548],[7.0684952,6.1573668],[7.0673056,6.1583975],[7.0672051,6.1586295],[7.0672015,6.15901],[7.0676409,6.1604829],[7.0668094,6.1635233],[7.0672232,6.1714943],[7.0682914,6.172699],[7.0696781,6.173943],[7.0727907,6.176231],[7.0741775,6.1777536],[7.0753804,6.1793389],[7.0777134,6.1808759],[7.0783967,6.1818386],[7.0793831,6.1840442],[7.0801144,6.185],[7.0828544,6.1867134],[7.0852067,6.1887734],[7.0859899,6.1897973],[7.0886305,6.1947831],[7.0887251,6.1955278],[7.0885541,6.1979865]]}},{"type":"Feature","properties":{"kind":"road","id":"road-372840775-0","name":"Unnamed mapped tertiary","osmWay":372840775,"major":false,"bridge":false},"geometry":{"type":"LineString","coordinates":[[7.1415747,6.2032565],[7.1408677,6.2021066],[7.1403437,6.2008933],[7.1397416,6.196524],[7.1372751,6.1902651],[7.1364377,6.188554],[7.1345535,6.1863947],[7.1337395,6.1856757],[7.1316701,6.1846592],[7.1287191,6.1840166],[7.1276791,6.1833475],[7.1261454,6.1816976],[7.1256854,6.1813665],[7.1224403,6.1809024],[7.121353,6.1803382],[7.1206925,6.179801],[7.1199361,6.1780696],[7.117152,6.174841],[7.1150675,6.1729131],[7.1100318,6.1668703],[7.1049872,6.1587369],[7.1044314,6.1581875],[7.1016392,6.1564275],[7.1014407,6.1557528],[7.1010773,6.1530655],[7.1019959,6.1497499],[7.1016597,6.1487211],[7.1000542,6.1491228],[7.0991647,6.1497662]]}},{"type":"Feature","properties":{"kind":"road","id":"road-372842239-0","name":"Unnamed mapped tertiary","osmWay":372842239,"major":false,"bridge":false},"geometry":{"type":"LineString","coordinates":[[7.0247277,6.1758694],[7.0254846,6.1747883],[7.0280837,6.173505],[7.0294718,6.1724161]]}},{"type":"Feature","properties":{"kind":"road","id":"road-372842240-0","name":"Unnamed mapped tertiary","osmWay":372842240,"major":false,"bridge":false},"geometry":{"type":"LineString","coordinates":[[7.0294941,6.1722841],[7.0294543,6.1720583],[7.0285664,6.1713703],[7.0279656,6.1711063],[7.0260774,6.1710063],[7.023764,6.1711797],[7.021936,6.170917],[7.0210093,6.170557],[7.0190146,6.1701773]]}},{"type":"Feature","properties":{"kind":"road","id":"road-372842240-1","name":"Unnamed mapped tertiary","osmWay":372842240,"major":false,"bridge":false},"geometry":{"type":"LineString","coordinates":[[7.0294718,6.1724161],[7.029479,6.1723968]]}},{"type":"Feature","properties":{"kind":"road","id":"road-372842606-0","name":"Unnamed mapped tertiary","osmWay":372842606,"major":false,"bridge":false},"geometry":{"type":"LineString","coordinates":[[7.062951,6.2184335],[7.0642985,6.2175616],[7.0651103,6.217243],[7.0708976,6.2152808],[7.0731882,6.2147204]]}},{"type":"Feature","properties":{"kind":"road","id":"road-372846548-0","name":"Unnamed mapped tertiary","osmWay":372846548,"major":false,"bridge":false},"geometry":{"type":"LineString","coordinates":[[7.0845039,6.220593],[7.0845321,6.2194641],[7.0837824,6.2182895],[7.0834351,6.2168443],[7.082503,6.2157791],[7.0819706,6.2138606],[7.0817506,6.2125327],[7.0813791,6.2120687],[7.0798637,6.2109888],[7.0784636,6.2105582],[7.0771574,6.2109648],[7.0763715,6.2110581],[7.0744832,6.2104289],[7.0740876,6.2100869],[7.0734934,6.2106248],[7.0728216,6.2116341],[7.0718063,6.2122461]]}},{"type":"Feature","properties":{"kind":"road","id":"road-372846551-0","name":"Unnamed mapped tertiary","osmWay":372846551,"major":false,"bridge":false},"geometry":{"type":"LineString","coordinates":[[7.0728081,6.2140899],[7.0739005,6.2134746],[7.0765168,6.2127882],[7.078658,6.2124314],[7.0803934,6.2123994],[7.0828135,6.2118241],[7.0832701,6.2119047],[7.0838649,6.2122281],[7.0842437,6.21303],[7.0844771,6.213266],[7.085153,6.2136166],[7.0862333,6.2137433],[7.0866457,6.2142112],[7.0874275,6.2147605],[7.0871566,6.2155005],[7.0869491,6.2171157],[7.0863533,6.2176869],[7.0861602,6.2181109],[7.086014,6.2196361]]}},{"type":"Feature","properties":{"kind":"road","id":"road-440103327-0","name":"Unnamed mapped tertiary","osmWay":440103327,"major":false,"bridge":false},"geometry":{"type":"LineString","coordinates":[[7.0602125,6.2126068],[7.0603225,6.2146432],[7.0601254,6.2174443]]}},{"type":"Feature","properties":{"kind":"road","id":"road-440105324-0","name":"Unnamed mapped tertiary","osmWay":440105324,"major":false,"bridge":false},"geometry":{"type":"LineString","coordinates":[[7.0523364,6.2176834],[7.0520277,6.2180058]]}},{"type":"Feature","properties":{"kind":"road","id":"road-440105325-0","name":"Unnamed mapped tertiary","osmWay":440105325,"major":false,"bridge":false},"geometry":{"type":"LineString","coordinates":[[7.0520277,6.2180058],[7.0521175,6.2176327]]}},{"type":"Feature","properties":{"kind":"road","id":"road-440105326-0","name":"Unnamed mapped tertiary","osmWay":440105326,"major":false,"bridge":false},"geometry":{"type":"LineString","coordinates":[[7.0520277,6.2180058],[7.0518252,6.2187295],[7.0519486,6.2194574],[7.0518084,6.2207012],[7.0501514,6.2251621]]}},{"type":"Feature","properties":{"kind":"road","id":"road-449111141-0","name":"Unnamed mapped secondary","osmWay":449111141,"major":false,"bridge":false},"geometry":{"type":"LineString","coordinates":[[7.0887896,6.2183833],[7.0887808,6.2186548]]}},{"type":"Feature","properties":{"kind":"road","id":"road-490540088-0","name":"Unnamed mapped tertiary","osmWay":490540088,"major":false,"bridge":false},"geometry":{"type":"LineString","coordinates":[[7.015017,6.1389161],[7.0154821,6.1391843]]}},{"type":"Feature","properties":{"kind":"road","id":"road-490540088-1","name":"Unnamed mapped tertiary","osmWay":490540088,"major":false,"bridge":false},"geometry":{"type":"LineString","coordinates":[[7.0156507,6.1392752],[7.0162277,6.1393945]]}},{"type":"Feature","properties":{"kind":"road","id":"road-490540088-2","name":"Unnamed mapped tertiary","osmWay":490540088,"major":false,"bridge":false},"geometry":{"type":"LineString","coordinates":[[7.0170984,6.1394451],[7.0172488,6.1394715]]}},{"type":"Feature","properties":{"kind":"road","id":"road-490540088-3","name":"Unnamed mapped tertiary","osmWay":490540088,"major":false,"bridge":false},"geometry":{"type":"LineString","coordinates":[[7.0173465,6.1394962],[7.0177545,6.1398294],[7.0180468,6.1404108],[7.0179422,6.1412802],[7.0180938,6.1421895],[7.0186932,6.1438083],[7.0191157,6.144571],[7.0194322,6.1447136],[7.0219065,6.144411],[7.022745,6.1449424]]}},{"type":"Feature","properties":{"kind":"road","id":"road-491462370-0","name":"Unnamed mapped tertiary","osmWay":491462370,"major":false,"bridge":false},"geometry":{"type":"LineString","coordinates":[[7.0517263,6.2208913],[7.0561885,6.2228081],[7.058189,6.2234245]]}},{"type":"Feature","properties":{"kind":"road","id":"road-491463920-0","name":"Unnamed mapped tertiary","osmWay":491463920,"major":false,"bridge":false},"geometry":{"type":"LineString","coordinates":[[7.0645858,6.2255075],[7.0674051,6.2257048],[7.0706811,6.2262595],[7.0714409,6.2265379],[7.0732969,6.2275437],[7.0735622,6.227167]]}},{"type":"Feature","properties":{"kind":"road","id":"road-491463921-0","name":"Unnamed mapped tertiary","osmWay":491463921,"major":false,"bridge":false},"geometry":{"type":"LineString","coordinates":[[7.0606337,6.2227555],[7.0601307,6.2241073]]}},{"type":"Feature","properties":{"kind":"road","id":"road-491463923-0","name":"Unnamed mapped tertiary","osmWay":491463923,"major":false,"bridge":false},"geometry":{"type":"LineString","coordinates":[[7.0606224,6.2226376],[7.0605944,6.2222611]]}},{"type":"Feature","properties":{"kind":"road","id":"road-491463924-0","name":"Unnamed mapped tertiary","osmWay":491463924,"major":false,"bridge":false},"geometry":{"type":"LineString","coordinates":[[7.0605944,6.2222611],[7.060718,6.222612]]}},{"type":"Feature","properties":{"kind":"road","id":"road-491463926-0","name":"Unnamed mapped tertiary","osmWay":491463926,"major":false,"bridge":false},"geometry":{"type":"LineString","coordinates":[[7.0606922,6.2226067],[7.0607728,6.2226954],[7.0606827,6.222775],[7.0606035,6.2226857],[7.0606922,6.2226067]]}},{"type":"Feature","properties":{"kind":"road","id":"road-491465350-0","name":"Unnamed mapped tertiary","osmWay":491465350,"major":false,"bridge":false},"geometry":{"type":"LineString","coordinates":[[7.0485597,6.1870461],[7.0485137,6.187592],[7.048738,6.1896913],[7.0492718,6.1913566],[7.0492396,6.1922299],[7.0495641,6.1936485],[7.0499866,6.1943898],[7.0509073,6.1952743],[7.0515007,6.1963044],[7.0523997,6.1971705]]}},{"type":"Feature","properties":{"kind":"road","id":"road-492185498-0","name":"Unnamed mapped trunk_link","osmWay":492185498,"major":false,"bridge":false},"geometry":{"type":"LineString","coordinates":[[7.0309905,6.2026104],[7.0310516,6.2024284]]}},{"type":"Feature","properties":{"kind":"road","id":"road-514052921-0","name":"Old Enugu Road","osmWay":514052921,"major":true,"bridge":false},"geometry":{"type":"LineString","coordinates":[[7.1065865,6.2292449],[7.1179191,6.2361126]]}},{"type":"Feature","properties":{"kind":"road","id":"road-518046731-0","name":"Nnamdi Azikiwe Ave","osmWay":518046731,"major":true,"bridge":false},"geometry":{"type":"LineString","coordinates":[[7.1061349,6.2291813],[7.1061777,6.2290834],[7.1062971,6.2291258],[7.1062472,6.2292393],[7.1061349,6.2291813]]}},{"type":"Feature","properties":{"kind":"road","id":"road-518046732-0","name":"Unnamed mapped primary","osmWay":518046732,"major":true,"bridge":false},"geometry":{"type":"LineString","coordinates":[[7.1062902,6.2292052],[7.1061429,6.2301256]]}},{"type":"Feature","properties":{"kind":"road","id":"road-518046733-0","name":"Esther Obuakor Road","osmWay":518046733,"major":false,"bridge":false},"geometry":{"type":"LineString","coordinates":[[7.1012731,6.2513782],[7.1024146,6.2496686],[7.1032032,6.247077],[7.1046999,6.2390714],[7.1060324,6.230312]]}},{"type":"Feature","properties":{"kind":"road","id":"road-518046734-0","name":"A232","osmWay":518046734,"major":true,"bridge":false},"geometry":{"type":"LineString","coordinates":[[7.1065865,6.2292449],[7.1062716,6.2292257]]}},{"type":"Feature","properties":{"kind":"road","id":"road-518046735-0","name":"Unnamed mapped primary_link","osmWay":518046735,"major":false,"bridge":false},"geometry":{"type":"LineString","coordinates":[[7.1064691,6.229244],[7.1062476,6.2294814]]}},{"type":"Feature","properties":{"kind":"road","id":"road-518046737-0","name":"A232","osmWay":518046737,"major":true,"bridge":false},"geometry":{"type":"LineString","coordinates":[[7.106261,6.229085],[7.1065865,6.2292449]]}},{"type":"Feature","properties":{"kind":"road","id":"road-518046738-0","name":"Esther Obuakor Road","osmWay":518046738,"major":false,"bridge":false},"geometry":{"type":"LineString","coordinates":[[7.1061184,6.2303341],[7.1047346,6.2393336],[7.1033239,6.2469838],[7.1024986,6.2497198],[7.1013355,6.2514342]]}},{"type":"Feature","properties":{"kind":"road","id":"road-518046739-0","name":"Nnamdi Azikiwe Ave","osmWay":518046739,"major":true,"bridge":false},"geometry":{"type":"LineString","coordinates":[[7.1060612,6.2301081],[7.1061671,6.2292279]]}},{"type":"Feature","properties":{"kind":"road","id":"road-518046741-0","name":"Unnamed mapped trunk_link","osmWay":518046741,"major":false,"bridge":false},"geometry":{"type":"LineString","coordinates":[[7.105652,6.2300204],[7.1059457,6.2299183],[7.1061406,6.2296712]]}},{"type":"Feature","properties":{"kind":"road","id":"road-518046742-0","name":"Unnamed mapped trunk_link","osmWay":518046742,"major":false,"bridge":false},"geometry":{"type":"LineString","coordinates":[[7.1062776,6.2303749],[7.1060849,6.2305384]]}},{"type":"Feature","properties":{"kind":"road","id":"road-518046743-0","name":"Unnamed mapped trunk_link","osmWay":518046743,"major":false,"bridge":false},"geometry":{"type":"LineString","coordinates":[[7.1059959,6.2305478],[7.1058026,6.2302531]]}},{"type":"Feature","properties":{"kind":"road","id":"road-520135621-0","name":"Unnamed mapped trunk_link","osmWay":520135621,"major":false,"bridge":false},"geometry":{"type":"LineString","coordinates":[[7.094189,6.2297193],[7.0939401,6.2294525]]}},{"type":"Feature","properties":{"kind":"road","id":"road-520135622-0","name":"Unnamed mapped trunk_link","osmWay":520135622,"major":false,"bridge":false},"geometry":{"type":"LineString","coordinates":[[7.0945207,6.2294846],[7.094267,6.229716]]}},{"type":"Feature","properties":{"kind":"road","id":"road-549259887-0","name":"Unnamed mapped tertiary","osmWay":549259887,"major":false,"bridge":false},"geometry":{"type":"LineString","coordinates":[[7.1294257,6.2163688],[7.129755,6.2164187]]}},{"type":"Feature","properties":{"kind":"road","id":"road-549259887-1","name":"Unnamed mapped tertiary","osmWay":549259887,"major":false,"bridge":false},"geometry":{"type":"LineString","coordinates":[[7.1311352,6.2166279],[7.1314134,6.2166034]]}},{"type":"Feature","properties":{"kind":"road","id":"road-549259887-2","name":"Unnamed mapped tertiary","osmWay":549259887,"major":false,"bridge":false},"geometry":{"type":"LineString","coordinates":[[7.134817,6.2158156],[7.1348662,6.2157708]]}},{"type":"Feature","properties":{"kind":"road","id":"road-549259887-3","name":"Unnamed mapped tertiary","osmWay":549259887,"major":false,"bridge":false},"geometry":{"type":"LineString","coordinates":[[7.1349999,6.215603],[7.1352258,6.2145579],[7.1353661,6.2129381]]}},{"type":"Feature","properties":{"kind":"road","id":"road-549259887-4","name":"Unnamed mapped tertiary","osmWay":549259887,"major":false,"bridge":false},"geometry":{"type":"LineString","coordinates":[[7.1354999,6.2120366],[7.1355777,6.2115114]]}},{"type":"Feature","properties":{"kind":"road","id":"road-549259887-5","name":"Unnamed mapped tertiary","osmWay":549259887,"major":false,"bridge":false},"geometry":{"type":"LineString","coordinates":[[7.1357875,6.211088],[7.1360707,6.2107782],[7.1374212,6.2101569],[7.1381669,6.2093423],[7.1389085,6.208885],[7.1396086,6.2080677],[7.139856,6.2079426]]}},{"type":"Feature","properties":{"kind":"road","id":"road-552314354-0","name":"Unnamed mapped trunk_link","osmWay":552314354,"major":false,"bridge":false},"geometry":{"type":"LineString","coordinates":[[7.0287604,6.2021608],[7.0287816,6.2020809]]}},{"type":"Feature","properties":{"kind":"road","id":"road-552314359-0","name":"Unnamed mapped secondary","osmWay":552314359,"major":false,"bridge":false},"geometry":{"type":"LineString","coordinates":[[7.0290568,6.2180597],[7.0352492,6.2151245],[7.0361021,6.2146125],[7.0380239,6.2125634],[7.0386958,6.2116048],[7.0394053,6.2102249]]}},{"type":"Feature","properties":{"kind":"road","id":"road-561393723-0","name":"Unnamed mapped secondary","osmWay":561393723,"major":false,"bridge":false},"geometry":{"type":"LineString","coordinates":[[7.0663065,6.2212599],[7.0664895,6.2211018]]}},{"type":"Feature","properties":{"kind":"road","id":"road-561393724-0","name":"Unnamed mapped secondary","osmWay":561393724,"major":false,"bridge":false},"geometry":{"type":"LineString","coordinates":[[7.0664895,6.2211018],[7.0664187,6.2214065]]}},{"type":"Feature","properties":{"kind":"road","id":"road-561399960-0","name":"Unnamed mapped tertiary","osmWay":561399960,"major":false,"bridge":false},"geometry":{"type":"LineString","coordinates":[[7.0766477,6.2197907],[7.0766878,6.2197276]]}},{"type":"Feature","properties":{"kind":"road","id":"road-561661570-0","name":"Unnamed mapped tertiary","osmWay":561661570,"major":false,"bridge":true},"geometry":{"type":"LineString","coordinates":[[7.0605615,6.222083],[7.0605944,6.2222611]]}},{"type":"Feature","properties":{"kind":"road","id":"road-561661572-0","name":"Unnamed mapped tertiary","osmWay":561661572,"major":false,"bridge":false},"geometry":{"type":"LineString","coordinates":[[7.0597665,6.2239506],[7.0625023,6.2250762],[7.0641775,6.2254702]]}},{"type":"Feature","properties":{"kind":"road","id":"road-562353621-0","name":"Unnamed mapped tertiary","osmWay":562353621,"major":false,"bridge":false},"geometry":{"type":"LineString","coordinates":[[7.084516,6.2206444],[7.0845039,6.220593]]}},{"type":"Feature","properties":{"kind":"road","id":"road-563491233-0","name":"Unnamed mapped tertiary","osmWay":563491233,"major":false,"bridge":false},"geometry":{"type":"LineString","coordinates":[[7.0229506,6.1480754],[7.02282,6.1474494],[7.022745,6.1449424]]}},{"type":"Feature","properties":{"kind":"road","id":"road-563544639-0","name":"Unnamed mapped primary","osmWay":563544639,"major":true,"bridge":false},"geometry":{"type":"LineString","coordinates":[[7.1061429,6.2301256],[7.1061184,6.2303341]]}},{"type":"Feature","properties":{"kind":"road","id":"road-563544640-0","name":"Nnamdi Azikiwe Ave","osmWay":563544640,"major":true,"bridge":false},"geometry":{"type":"LineString","coordinates":[[7.1060324,6.230312],[7.1060612,6.2301081]]}},{"type":"Feature","properties":{"kind":"road","id":"road-564604830-0","name":"A232","osmWay":564604830,"major":false,"bridge":false},"geometry":{"type":"LineString","coordinates":[[7.0523997,6.1971705],[7.0524428,6.1972915]]}},{"type":"Feature","properties":{"kind":"road","id":"road-565179582-0","name":"Unnamed mapped secondary","osmWay":565179582,"major":false,"bridge":false},"geometry":{"type":"LineString","coordinates":[[7.0232627,6.1480678],[7.0231516,6.1481933]]}},{"type":"Feature","properties":{"kind":"road","id":"road-565179584-0","name":"Unnamed mapped tertiary","osmWay":565179584,"major":false,"bridge":false},"geometry":{"type":"LineString","coordinates":[[7.0230123,6.1482223],[7.0229506,6.1480754]]}},{"type":"Feature","properties":{"kind":"road","id":"road-565179585-0","name":"Unnamed mapped secondary","osmWay":565179585,"major":false,"bridge":false},"geometry":{"type":"LineString","coordinates":[[7.0232627,6.1480678],[7.0245954,6.1461924],[7.0289319,6.1447179],[7.0312835,6.1431816],[7.0316108,6.1427789],[7.0322894,6.1414428],[7.0343063,6.1387645]]}},{"type":"Feature","properties":{"kind":"road","id":"road-565190414-0","name":"Unnamed mapped secondary","osmWay":565190414,"major":false,"bridge":false},"geometry":{"type":"LineString","coordinates":[[7.0230818,6.1483022],[7.0230683,6.1483943]]}},{"type":"Feature","properties":{"kind":"road","id":"road-565201019-0","name":"F229","osmWay":565201019,"major":true,"bridge":false},"geometry":{"type":"LineString","coordinates":[[7.034572,6.1386934],[7.0345423,6.1385855],[7.034632,6.1385563],[7.0346709,6.1386633],[7.034572,6.1386934]]}},{"type":"Feature","properties":{"kind":"road","id":"road-565201020-0","name":"F229","osmWay":565201020,"major":true,"bridge":false},"geometry":{"type":"LineString","coordinates":[[7.0345644,6.1385635],[7.0346431,6.1381789]]}},{"type":"Feature","properties":{"kind":"road","id":"road-565201021-0","name":"F229","osmWay":565201021,"major":true,"bridge":false},"geometry":{"type":"LineString","coordinates":[[7.0346596,6.1386783],[7.034723,6.1389034]]}},{"type":"Feature","properties":{"kind":"road","id":"road-565201022-0","name":"Unnamed mapped secondary","osmWay":565201022,"major":false,"bridge":false},"geometry":{"type":"LineString","coordinates":[[7.0348225,6.1386681],[7.0346709,6.1386633]]}},{"type":"Feature","properties":{"kind":"road","id":"road-565201023-0","name":"Unnamed mapped secondary","osmWay":565201023,"major":false,"bridge":false},"geometry":{"type":"LineString","coordinates":[[7.0346721,6.1385916],[7.034843,6.138631]]}},{"type":"Feature","properties":{"kind":"road","id":"road-565297756-0","name":"Agiliga Road","osmWay":565297756,"major":false,"bridge":false},"geometry":{"type":"LineString","coordinates":[[7.0957306,6.1550169],[7.0961969,6.1563512],[7.0972879,6.1574992]]}},{"type":"Feature","properties":{"kind":"road","id":"road-570922072-0","name":"Agiliga Road","osmWay":570922072,"major":false,"bridge":false},"geometry":{"type":"LineString","coordinates":[[7.0955426,6.1547262],[7.0957306,6.1550169]]}},{"type":"Feature","properties":{"kind":"road","id":"road-606250377-0","name":"Unnamed mapped tertiary","osmWay":606250377,"major":false,"bridge":false},"geometry":{"type":"LineString","coordinates":[[7.086014,6.2196361],[7.0860462,6.2196894]]}},{"type":"Feature","properties":{"kind":"road","id":"road-608370838-0","name":"F229","osmWay":608370838,"major":true,"bridge":false},"geometry":{"type":"LineString","coordinates":[[7.0348014,6.1363576],[7.0346431,6.1381789]]}},{"type":"Feature","properties":{"kind":"road","id":"road-957855222-0","name":"A232-1","osmWay":957855222,"major":true,"bridge":true},"geometry":{"type":"LineString","coordinates":[[7.059604,6.2175314],[7.0602379,6.2176015]]}},{"type":"Feature","properties":{"kind":"road","id":"road-957855223-0","name":"A232-1","osmWay":957855223,"major":true,"bridge":false},"geometry":{"type":"LineString","coordinates":[[7.0434102,6.209466],[7.0479976,6.214927],[7.0491456,6.2159362],[7.050476,6.2167615],[7.0522784,6.2174294],[7.0538395,6.2176908],[7.059604,6.2175314]]}},{"type":"Feature","properties":{"kind":"road","id":"road-957855224-0","name":"A232-1","osmWay":957855224,"major":true,"bridge":true},"geometry":{"type":"LineString","coordinates":[[7.0601897,6.2177802],[7.0595848,6.2177092]]}},{"type":"Feature","properties":{"kind":"road","id":"road-957855225-0","name":"A232-1","osmWay":957855225,"major":true,"bridge":false},"geometry":{"type":"LineString","coordinates":[[7.0595848,6.2177092],[7.0584756,6.2176608],[7.0541467,6.2179322],[7.0521175,6.2176327],[7.0505345,6.2170351],[7.0490973,6.2161642],[7.0478689,6.2150923],[7.0433072,6.2095649]]}},{"type":"Feature","properties":{"kind":"road","id":"road-957855226-0","name":"Unnamed mapped trunk_link","osmWay":957855226,"major":false,"bridge":false},"geometry":{"type":"LineString","coordinates":[[7.062432,6.2184269],[7.059746,6.2178369],[7.0565288,6.2178185]]}},{"type":"Feature","properties":{"kind":"road","id":"road-957855227-0","name":"Unnamed mapped trunk_link","osmWay":957855227,"major":false,"bridge":false},"geometry":{"type":"LineString","coordinates":[[7.0565422,6.2176307],[7.0570797,6.2174683],[7.0584798,6.2173776],[7.0598987,6.217423],[7.0616233,6.2177909],[7.062379,6.2181749]]}},{"type":"Feature","properties":{"kind":"road","id":"road-1092972710-0","name":"Unnamed mapped secondary","osmWay":1092972710,"major":false,"bridge":false},"geometry":{"type":"LineString","coordinates":[[7.0349353,6.1385388],[7.034723,6.1389034]]}},{"type":"Feature","properties":{"kind":"road","id":"road-1092972710-1","name":"Unnamed mapped secondary","osmWay":1092972710,"major":false,"bridge":false},"geometry":{"type":"LineString","coordinates":[[7.0352761,6.1382853],[7.0349625,6.1385157]]}},{"type":"Feature","properties":{"kind":"road","id":"road-1092972710-2","name":"Unnamed mapped secondary","osmWay":1092972710,"major":false,"bridge":false},"geometry":{"type":"LineString","coordinates":[[7.0403559,6.1338291],[7.0389051,6.1361225],[7.0353778,6.1382238]]}},{"type":"Feature","properties":{"kind":"road","id":"road-1092972710-3","name":"Unnamed mapped secondary","osmWay":1092972710,"major":false,"bridge":false},"geometry":{"type":"LineString","coordinates":[[7.0411351,6.1325682],[7.0407578,6.1331674]]}},{"type":"Feature","properties":{"kind":"road","id":"road-1092972710-4","name":"Unnamed mapped secondary","osmWay":1092972710,"major":false,"bridge":false},"geometry":{"type":"LineString","coordinates":[[7.0450636,6.1305592],[7.0412239,6.1324682]]}},{"type":"Feature","properties":{"kind":"road","id":"road-1092972710-5","name":"Unnamed mapped secondary","osmWay":1092972710,"major":false,"bridge":false},"geometry":{"type":"LineString","coordinates":[[7.0455186,6.1301387],[7.0451958,6.1304627]]}},{"type":"Feature","properties":{"kind":"road","id":"road-1124476240-0","name":"Unnamed mapped tertiary","osmWay":1124476240,"major":false,"bridge":true},"geometry":{"type":"LineString","coordinates":[[7.058189,6.2234245],[7.0583726,6.2234708]]}},{"type":"Feature","properties":{"kind":"road","id":"road-1127616121-0","name":"Unnamed mapped tertiary","osmWay":1127616121,"major":false,"bridge":false},"geometry":{"type":"LineString","coordinates":[[7.1224099,6.1810758],[7.1220805,6.1807843]]}},{"type":"Feature","properties":{"kind":"road","id":"road-1127616122-0","name":"Unnamed mapped tertiary","osmWay":1127616122,"major":false,"bridge":false},"geometry":{"type":"LineString","coordinates":[[7.1221227,6.1812226],[7.1222098,6.1810126],[7.1220805,6.1807843]]}},{"type":"Feature","properties":{"kind":"road","id":"road-1127616163-0","name":"Unnamed mapped tertiary","osmWay":1127616163,"major":false,"bridge":false},"geometry":{"type":"LineString","coordinates":[[7.1385071,6.1825597],[7.1379106,6.1827255],[7.1374054,6.1830699],[7.1362302,6.1855344],[7.1349539,6.186832]]}},{"type":"Feature","properties":{"kind":"road","id":"road-1127616164-0","name":"Unnamed mapped tertiary","osmWay":1127616164,"major":false,"bridge":false},"geometry":{"type":"LineString","coordinates":[[7.1349642,6.1867376],[7.1348434,6.1867117]]}},{"type":"Feature","properties":{"kind":"road","id":"road-1127616165-0","name":"Unnamed mapped tertiary","osmWay":1127616165,"major":false,"bridge":false},"geometry":{"type":"LineString","coordinates":[[7.1383834,6.1826537],[7.1385569,6.1827281]]}},{"type":"Feature","properties":{"kind":"road","id":"road-1129397281-0","name":"Unnamed mapped secondary","osmWay":1129397281,"major":false,"bridge":false},"geometry":{"type":"LineString","coordinates":[[7.0885481,6.1981564],[7.0884052,6.1995716],[7.0880465,6.2003035],[7.0845052,6.2039658],[7.0835011,6.2052903],[7.0832224,6.2061854],[7.0830805,6.2074589],[7.0833112,6.2085148],[7.0839194,6.2091741],[7.0845699,6.2094824],[7.0870749,6.2101749],[7.0876194,6.2105049],[7.0882778,6.2112995],[7.088596,6.2120487],[7.0886706,6.2125926],[7.0887896,6.2183833]]}},{"type":"Feature","properties":{"kind":"road","id":"road-1129397282-0","name":"Unnamed mapped secondary","osmWay":1129397282,"major":false,"bridge":true},"geometry":{"type":"LineString","coordinates":[[7.0885541,6.1979865],[7.0885481,6.1981564]]}},{"type":"Feature","properties":{"kind":"road","id":"road-1186092973-0","name":"Unnamed mapped trunk_link","osmWay":1186092973,"major":false,"bridge":false},"geometry":{"type":"LineString","coordinates":[[7.043819,6.2101711],[7.0427287,6.209063],[7.0403294,6.2060195]]}},{"type":"Feature","properties":{"kind":"road","id":"road-1186092974-0","name":"Unnamed mapped trunk_link","osmWay":1186092974,"major":false,"bridge":false},"geometry":{"type":"LineString","coordinates":[[7.0404366,6.2058797],[7.0411848,6.2065613],[7.0435493,6.2094208],[7.0439399,6.2100821]]}},{"type":"Feature","properties":{"kind":"road","id":"road-1186092975-0","name":"A232-1","osmWay":1186092975,"major":true,"bridge":true},"geometry":{"type":"LineString","coordinates":[[7.0433072,6.2095649],[7.0408444,6.2065584]]}},{"type":"Feature","properties":{"kind":"road","id":"road-1186092976-0","name":"A232-1","osmWay":1186092976,"major":true,"bridge":true},"geometry":{"type":"LineString","coordinates":[[7.0409434,6.2064771],[7.0434102,6.209466]]}},{"type":"Feature","properties":{"kind":"road","id":"road-1186092992-0","name":"A232-1","osmWay":1186092992,"major":true,"bridge":false},"geometry":{"type":"LineString","coordinates":[[7.0777104,6.2283684],[7.0747517,6.2276304],[7.0729177,6.2268806],[7.071307,6.2260052],[7.0695424,6.2248024],[7.0681719,6.223657],[7.0653717,6.2204787],[7.0644517,6.2196268],[7.0634218,6.2189215],[7.0621356,6.2182935],[7.0601897,6.2177802]]}},{"type":"Feature","properties":{"kind":"road","id":"road-1186092993-0","name":"A232-1","osmWay":1186092993,"major":true,"bridge":false},"geometry":{"type":"LineString","coordinates":[[7.0602379,6.2176015],[7.062379,6.2181749],[7.0643672,6.2193255],[7.065534,6.2203547],[7.0682511,6.2234517],[7.0700522,6.2249809],[7.0714134,6.2258835],[7.0733044,6.2268874],[7.0748694,6.2275046],[7.0777328,6.2282469]]}},{"type":"Feature","properties":{"kind":"road","id":"road-1186092994-0","name":"A232-1","osmWay":1186092994,"major":true,"bridge":true},"geometry":{"type":"LineString","coordinates":[[7.0828377,6.2287826],[7.0777104,6.2283684]]}},{"type":"Feature","properties":{"kind":"road","id":"road-1186092995-0","name":"A232-1","osmWay":1186092995,"major":true,"bridge":true},"geometry":{"type":"LineString","coordinates":[[7.0777328,6.2282469],[7.0828436,6.2286561]]}},{"type":"Feature","properties":{"kind":"road","id":"road-1186092996-0","name":"Unnamed mapped trunk_link","osmWay":1186092996,"major":false,"bridge":false},"geometry":{"type":"LineString","coordinates":[[7.0769016,6.2280806],[7.0829269,6.228525],[7.0837794,6.2287092]]}},{"type":"Feature","properties":{"kind":"road","id":"road-1186092997-0","name":"Unnamed mapped trunk_link","osmWay":1186092997,"major":false,"bridge":false},"geometry":{"type":"LineString","coordinates":[[7.0837044,6.2288696],[7.078999,6.2286694],[7.0776472,6.2284818],[7.0768779,6.2282242]]}},{"type":"Feature","properties":{"kind":"road","id":"road-1186093007-0","name":"Unnamed mapped trunk_link","osmWay":1186093007,"major":false,"bridge":false},"geometry":{"type":"LineString","coordinates":[[7.0805243,6.2287598],[7.0803983,6.2289272]]}},{"type":"Feature","properties":{"kind":"road","id":"road-1186093010-0","name":"Ifite Road","osmWay":1186093010,"major":false,"bridge":false},"geometry":{"type":"LineString","coordinates":[[7.0792735,6.2206966],[7.0796176,6.2225452],[7.0799789,6.2268475],[7.0801611,6.2271024],[7.0812626,6.2272765],[7.0813507,6.2284411]]}},{"type":"Feature","properties":{"kind":"road","id":"road-1186093011-0","name":"Unnamed mapped trunk_link","osmWay":1186093011,"major":false,"bridge":false},"geometry":{"type":"LineString","coordinates":[[7.0813522,6.2287309],[7.081276,6.2288101]]}},{"type":"Feature","properties":{"kind":"road","id":"road-1186093012-0","name":"Unnamed mapped trunk_link","osmWay":1186093012,"major":false,"bridge":false},"geometry":{"type":"LineString","coordinates":[[7.0815368,6.228828],[7.0814703,6.2289072]]}},{"type":"Feature","properties":{"kind":"road","id":"road-1186309870-0","name":"Unnamed mapped secondary","osmWay":1186309870,"major":false,"bridge":false},"geometry":{"type":"LineString","coordinates":[[7.0526001,6.1971502],[7.0524428,6.1972915]]}},{"type":"Feature","properties":{"kind":"road","id":"road-1186480225-0","name":"Unnamed mapped secondary","osmWay":1186480225,"major":false,"bridge":true},"geometry":{"type":"LineString","coordinates":[[7.0558032,6.2447162],[7.0559453,6.2445822]]}},{"type":"Feature","properties":{"kind":"road","id":"road-1186967780-0","name":"Unnamed mapped secondary","osmWay":1186967780,"major":false,"bridge":true},"geometry":{"type":"LineString","coordinates":[[7.0394053,6.2102249],[7.0394755,6.2101296]]}},{"type":"Feature","properties":{"kind":"road","id":"road-1186979423-0","name":"Unnamed mapped tertiary","osmWay":1186979423,"major":false,"bridge":false},"geometry":{"type":"LineString","coordinates":[[7.0583726,6.2234708],[7.0590589,6.2235884],[7.0597665,6.2239506]]}},{"type":"Feature","properties":{"kind":"road","id":"road-1186979424-0","name":"Unnamed mapped tertiary","osmWay":1186979424,"major":false,"bridge":false},"geometry":{"type":"LineString","coordinates":[[7.0597665,6.2239506],[7.0583726,6.2234708]]}},{"type":"Feature","properties":{"kind":"road","id":"road-1186982776-0","name":"Unnamed mapped tertiary","osmWay":1186982776,"major":false,"bridge":false},"geometry":{"type":"LineString","coordinates":[[7.0601893,6.2123821],[7.0630214,6.2115511],[7.0649003,6.2105331],[7.0659873,6.2097816],[7.0670139,6.2104455],[7.0683315,6.2110241]]}},{"type":"Feature","properties":{"kind":"road","id":"road-1186982777-0","name":"Unnamed mapped tertiary","osmWay":1186982777,"major":false,"bridge":false},"geometry":{"type":"LineString","coordinates":[[7.0601893,6.2123821],[7.0602125,6.2126068]]}},{"type":"Feature","properties":{"kind":"road","id":"road-1186982779-0","name":"Unnamed mapped tertiary","osmWay":1186982779,"major":false,"bridge":false},"geometry":{"type":"LineString","coordinates":[[7.0594968,6.2219091],[7.0604871,6.2218083],[7.0605615,6.222083]]}},{"type":"Feature","properties":{"kind":"road","id":"road-1186982780-0","name":"Unnamed mapped tertiary","osmWay":1186982780,"major":false,"bridge":false},"geometry":{"type":"LineString","coordinates":[[7.0595042,6.2202191],[7.0594968,6.2219091]]}},{"type":"Feature","properties":{"kind":"road","id":"road-1186982781-0","name":"Unnamed mapped tertiary","osmWay":1186982781,"major":false,"bridge":false},"geometry":{"type":"LineString","coordinates":[[7.0589814,6.2201271],[7.0595042,6.2202191]]}},{"type":"Feature","properties":{"kind":"road","id":"road-1187684742-0","name":"Unnamed mapped tertiary","osmWay":1187684742,"major":false,"bridge":false},"geometry":{"type":"LineString","coordinates":[[7.059746,6.2178369],[7.059431,6.218352],[7.0589814,6.2201271]]}},{"type":"Feature","properties":{"kind":"road","id":"road-1187684743-0","name":"Unnamed mapped tertiary","osmWay":1187684743,"major":false,"bridge":false},"geometry":{"type":"LineString","coordinates":[[7.0601254,6.2174443],[7.0600736,6.217631],[7.0599152,6.2176683]]}},{"type":"Feature","properties":{"kind":"road","id":"road-1187684744-0","name":"Unnamed mapped tertiary","osmWay":1187684744,"major":false,"bridge":false},"geometry":{"type":"LineString","coordinates":[[7.0599152,6.2176683],[7.0601254,6.2174443]]}},{"type":"Feature","properties":{"kind":"road","id":"road-1187684745-0","name":"Unnamed mapped tertiary","osmWay":1187684745,"major":false,"bridge":false},"geometry":{"type":"LineString","coordinates":[[7.059746,6.2178369],[7.0599152,6.2176683]]}},{"type":"Feature","properties":{"kind":"road","id":"road-1187684746-0","name":"Unnamed mapped tertiary","osmWay":1187684746,"major":false,"bridge":false},"geometry":{"type":"LineString","coordinates":[[7.0599152,6.2176683],[7.059746,6.2178369]]}},{"type":"Feature","properties":{"kind":"road","id":"road-1187684747-0","name":"Ifite Road","osmWay":1187684747,"major":false,"bridge":false},"geometry":{"type":"LineString","coordinates":[[7.0813507,6.2284411],[7.0813522,6.2287309]]}},{"type":"Feature","properties":{"kind":"road","id":"road-1353295859-0","name":"Unnamed mapped secondary","osmWay":1353295859,"major":false,"bridge":false},"geometry":{"type":"LineString","coordinates":[[7.06439,6.2255808],[7.0643062,6.2254855],[7.0644101,6.2254189],[7.0644779,6.2255089],[7.06439,6.2255808]]}},{"type":"Feature","properties":{"kind":"road","id":"road-1353295861-0","name":"Unnamed mapped tertiary","osmWay":1353295861,"major":false,"bridge":false},"geometry":{"type":"LineString","coordinates":[[7.0627414,6.2317775],[7.0629698,6.2317389]]}},{"type":"Feature","properties":{"kind":"road","id":"road-1353295862-0","name":"Unnamed mapped secondary","osmWay":1353295862,"major":false,"bridge":false},"geometry":{"type":"LineString","coordinates":[[7.0663232,6.2215792],[7.064966,6.224028],[7.0644477,6.2254289]]}},{"type":"Feature","properties":{"kind":"road","id":"road-1353295863-0","name":"Unnamed mapped secondary","osmWay":1353295863,"major":false,"bridge":false},"geometry":{"type":"LineString","coordinates":[[7.0644249,6.2255755],[7.0628255,6.2318188]]}},{"type":"Feature","properties":{"kind":"road","id":"road-1353295865-0","name":"Unnamed mapped secondary","osmWay":1353295865,"major":false,"bridge":false},"geometry":{"type":"LineString","coordinates":[[7.0626863,6.2318095],[7.0643364,6.2255675]]}},{"type":"Feature","properties":{"kind":"road","id":"road-1353295866-0","name":"Unnamed mapped secondary","osmWay":1353295866,"major":false,"bridge":false},"geometry":{"type":"LineString","coordinates":[[7.0643659,6.2254235],[7.0649445,6.2239537],[7.0662795,6.2215204]]}},{"type":"Feature","properties":{"kind":"road","id":"road-1353296915-0","name":"Unnamed mapped tertiary","osmWay":1353296915,"major":false,"bridge":false},"geometry":{"type":"LineString","coordinates":[[7.0645858,6.2255075],[7.0644705,6.2255362]]}},{"type":"Feature","properties":{"kind":"road","id":"road-1353296916-0","name":"Unnamed mapped tertiary","osmWay":1353296916,"major":false,"bridge":false},"geometry":{"type":"LineString","coordinates":[[7.0643102,6.2255295],[7.0641775,6.2254702]]}},{"type":"Feature","properties":{"kind":"road","id":"road-1353296918-0","name":"Unnamed mapped secondary","osmWay":1353296918,"major":false,"bridge":false},"geometry":{"type":"LineString","coordinates":[[7.0627105,6.2317881],[7.0628252,6.2318179],[7.0627952,6.2319318],[7.0626806,6.2319021],[7.0627105,6.2317881]]}},{"type":"Feature","properties":{"kind":"road","id":"road-1353296919-0","name":"Unnamed mapped tertiary","osmWay":1353296919,"major":false,"bridge":false},"geometry":{"type":"LineString","coordinates":[[7.0644752,6.2254689],[7.0645858,6.2255075]]}},{"type":"Feature","properties":{"kind":"road","id":"road-1353296920-0","name":"Unnamed mapped tertiary","osmWay":1353296920,"major":false,"bridge":false},"geometry":{"type":"LineString","coordinates":[[7.0641775,6.2254702],[7.0643243,6.2254469]]}},{"type":"Feature","properties":{"kind":"road","id":"road-1353302212-0","name":"Unnamed mapped secondary","osmWay":1353302212,"major":false,"bridge":false},"geometry":{"type":"LineString","coordinates":[[7.0624762,6.2322987],[7.0626717,6.2318404]]}},{"type":"Feature","properties":{"kind":"road","id":"road-1353302213-0","name":"Unnamed mapped tertiary","osmWay":1353302213,"major":false,"bridge":false},"geometry":{"type":"LineString","coordinates":[[7.0629698,6.2317389],[7.0628339,6.231881]]}},{"type":"Feature","properties":{"kind":"road","id":"road-1353302214-0","name":"Unnamed mapped secondary","osmWay":1353302214,"major":false,"bridge":false},"geometry":{"type":"LineString","coordinates":[[7.0628197,6.2319103],[7.0616958,6.2335226],[7.0602173,6.2363409]]}},{"type":"Feature","properties":{"kind":"road","id":"road-1425787160-0","name":"A232-1","osmWay":1425787160,"major":true,"bridge":false},"geometry":{"type":"LineString","coordinates":[[7.0828436,6.2286561],[7.1045034,6.2298768],[7.1061429,6.2301256]]}},{"type":"Feature","properties":{"kind":"road","id":"road-1425787161-0","name":"A232-1","osmWay":1425787161,"major":true,"bridge":false},"geometry":{"type":"LineString","coordinates":[[7.1062776,6.2303749],[7.104045,6.2300288],[7.0828377,6.2287826]]}},{"type":"Feature","properties":{"kind":"road","id":"road-1425787162-0","name":"Unnamed mapped trunk","osmWay":1425787162,"major":true,"bridge":false},"geometry":{"type":"LineString","coordinates":[[7.1061429,6.2301256],[7.1062776,6.2303749]]}},{"type":"Feature","properties":{"kind":"road","id":"road-1434016510-0","name":"Unnamed mapped secondary","osmWay":1434016510,"major":false,"bridge":false},"geometry":{"type":"LineString","coordinates":[[7.0602173,6.2363409],[7.0600803,6.2363317]]}},{"type":"Feature","properties":{"kind":"road","id":"road-1434016511-0","name":"Unnamed mapped secondary","osmWay":1434016511,"major":false,"bridge":false},"geometry":{"type":"LineString","coordinates":[[7.0600803,6.2363317],[7.0602173,6.2363409]]}},{"type":"Feature","properties":{"kind":"road","id":"road-1434016512-0","name":"Unnamed mapped secondary","osmWay":1434016512,"major":false,"bridge":false},"geometry":{"type":"LineString","coordinates":[[7.0600993,6.236289],[7.0615885,6.233592],[7.0624762,6.2322987]]}}]}
