{"type":"FeatureCollection","metadata":{"source":"Geofabrik Nigeria OSM extract, OpenStreetMap contributors, ODbL 1.0; geoBoundaries gbOpen GRID3 2022, CC BY 4.0","surfaceFormatVersion":1,"pbfUrl":"https://download.geofabrik.de/africa/nigeria-261003.osm.pbf","pbfDate":"2026-10-03","pbfSha256":"6dfa568106792fb8a9bba0b12a91e1edfb789d38c452087b2c48bc58326880b5","pbfBytes":709273731,"boundaryRelease":"9469f09","adm1Sha256":"64fa218ac3d453cc1e66412ff461c5dfa1a4a1ade0da93b239a9891b587d28f9","adm2Sha256":"bef7f2cfa45e012f4772eaa61c7b99e5188aeba4d5c6badae7e9f9aae8c02fcd","cityId":"gombe","stateId":"gombe","stateSourceName":"Gombe","localUnits":[["gombe","Gombe"]],"coordinatePrecisionDegrees":1e-07,"transportSimplificationDegrees":8e-05,"locationIndex":"sparse_file_array","waterObjects":[["way",787151950]]},"features":[{"type":"Feature","properties":{"kind":"state","id":"state:gombe","localUnitId":"gombe","name":"Gombe"},"geometry":{"type":"Polygon","coordinates":[[[11.5756423,10.5798083],[11.572779,10.5725882],[11.5998363,10.5342096],[11.6323665,10.5208149],[11.6376777,10.5186279],[11.6551555,10.5034297],[11.662757,10.4968198],[11.6621227,10.4958501],[11.6595053,10.4933755],[11.6568403,10.4897111],[11.6610834,10.4862921],[11.6569272,10.4732069],[11.6566781,10.4681943],[11.6564729,10.4606077],[11.6552082,10.4564426],[11.6494845,10.4543502],[11.6364318,10.4493591],[11.619695,10.4422439],[11.6025106,10.4272551],[11.6007481,10.4222114],[11.5981541,10.4176202],[11.5990713,10.4127726],[11.5989255,10.4063804],[11.597733,10.4011621],[11.5970039,10.3950116],[11.5924621,10.3914312],[11.5898247,10.3906171],[11.5869134,10.3897185],[11.5854217,10.3892581],[11.5830522,10.3883639],[11.5786181,10.3866906],[11.5740639,10.3853075],[11.5699378,10.385135],[11.5687019,10.3846488],[11.5685555,10.3835223],[11.5674487,10.3820707],[11.5657184,10.3812197],[11.5629028,10.3756532],[11.5608803,10.3705373],[11.5524332,10.3685148],[11.5491019,10.3597108],[11.5479122,10.3528104],[11.5446086,10.3434334],[11.5434839,10.3420716],[11.5442626,10.3385821],[11.5439165,10.3343265],[11.5447194,10.3323215],[11.5453809,10.3306696],[11.5461659,10.3287091],[11.5463236,10.3274059],[11.5407749,10.3272817],[11.5407064,10.3272797],[11.5396898,10.3272569],[11.535726,10.3271035],[11.5346158,10.3260883],[11.5345349,10.3254017],[11.5341189,10.323911],[11.533202,10.3222518],[11.5325591,10.321274],[11.5318907,10.3202574],[11.5313559,10.3193513],[11.5307023,10.3187959],[11.5303458,10.318036],[11.5302885,10.3177061],[11.530278,10.3176455],[11.5301571,10.3169487],[11.5301378,10.3168375],[11.5299892,10.315493],[11.5296535,10.3146979],[11.5293356,10.3136223],[11.529811,10.3140315],[11.5307023,10.314353],[11.5333168,10.3149961],[11.5333571,10.3150078],[11.5351699,10.3155373],[11.5352182,10.3155514],[11.5370899,10.3161653],[11.5389845,10.3165674],[11.5423783,10.3174806],[11.5447768,10.3181249],[11.5442626,10.3149204],[11.5459767,10.3078372],[11.5463346,10.3028275],[11.5464763,10.3007767],[11.5496265,10.2964494],[11.5514759,10.2901107],[11.5565477,10.2962792],[11.5612196,10.2973858],[11.5642476,10.2967048],[11.5678813,10.2932999],[11.5699576,10.2886181],[11.571861,10.2899801],[11.5751486,10.2921082],[11.5785227,10.2897247],[11.5814642,10.2866602],[11.5866551,10.2858941],[11.5897697,10.2825742],[11.5926247,10.2753384],[11.594528,10.2704861],[11.5950471,10.2639311],[11.5954797,10.2604407],[11.59721,10.2570354],[11.5994594,10.2549071],[11.6039582,10.2525233],[11.6085435,10.2509058],[11.6123763,10.2490909],[11.6141066,10.2448341],[11.6131549,10.2410029],[11.6139335,10.2370866],[11.6157504,10.2341919],[11.6179133,10.2316377],[11.6179133,10.2300201],[11.616702,10.2285727],[11.6140201,10.2284875],[11.6117707,10.2279767],[11.6099538,10.2241453],[11.6119437,10.2199734],[11.6164425,10.2167379],[11.6212008,10.2127362],[11.6231042,10.2096709],[11.6285547,10.2084789],[11.6308041,10.2080532],[11.6337456,10.2081383],[11.6366006,10.2062651],[11.6384174,10.2041364],[11.6395421,10.2031147],[11.6423106,10.2037958],[11.6462903,10.2033701],[11.6481071,10.2011563],[11.650874,10.2006369],[11.6546823,10.2002196],[11.6564991,10.2009008],[11.6585315,10.20011],[11.6602193,10.1994533],[11.6672702,10.1980489],[11.6710485,10.1972963],[11.686826,10.1899245],[11.6956926,10.1878066],[11.710892,10.1732686],[11.7257907,10.1501594],[11.7275277,10.1461619],[11.7314011,10.1431456],[11.736041,10.1178043],[11.7501072,10.1041129],[11.7516611,10.1019017],[11.7514893,10.1007615],[11.7520376,10.0991611],[11.7537654,10.096751],[11.7537276,10.095599],[11.7543553,10.0932546],[11.7546475,10.0916363],[11.7554154,10.0882416],[11.7562344,10.08341],[11.76065,10.0789574],[11.7646043,10.076872],[11.7667301,10.0768786],[11.7728191,10.069067],[11.7802588,10.0595226],[11.7824331,10.0538709],[11.7833749,10.051773],[11.784484,10.0489608],[11.7851205,10.0457789],[11.7899341,10.0393047],[11.8017624,10.035845],[11.8135407,10.0352502],[11.8208203,10.0351693],[11.8242483,10.0351312],[11.8319816,10.0345363],[11.8357254,10.0338945],[11.8357763,10.0338858],[11.8354581,10.0285262],[11.8296285,10.0163909],[11.8253454,9.9948568],[11.8248015,9.9817749],[11.8226695,9.9698967],[11.8237297,9.9557679],[11.8332355,9.9490446],[11.8331843,9.9490419],[11.8335862,9.9430742],[11.8347283,9.929654],[11.8293031,9.9153773],[11.8193094,9.9028137],[11.816454,9.8913923],[11.8090335,9.8763758],[11.8058206,9.8652513],[11.8038105,9.8551779],[11.8015799,9.8459257],[11.8011608,9.8406847],[11.8034379,9.83234],[11.8263544,9.8228813],[11.8444089,9.8192828],[11.8518033,9.8140487],[11.8519641,9.813113],[11.8534785,9.8043024],[11.8542399,9.7997339],[11.8545445,9.7934902],[11.8531933,9.7898092],[11.8508635,9.7863817],[11.8473749,9.782958],[11.8403988,9.7761087],[11.8357534,9.772687],[11.8247347,9.7538347],[11.8171632,9.7408803],[11.7961595,9.7309391],[11.7760874,9.707141],[11.765813,9.712197],[11.756588,9.7186747],[11.7556334,9.7168055],[11.7498093,9.7088099],[11.7486544,9.7076758],[11.7463217,9.7053852],[11.7381926,9.6996832],[11.7359293,9.6996888],[11.735878,9.6996889],[11.7312279,9.6951227],[11.7265768,9.6905565],[11.7244234,9.6890459],[11.7185049,9.6847763],[11.7165155,9.683507],[11.7116194,9.6800976],[11.7068653,9.6767874],[11.7008553,9.6738148],[11.6990395,9.671814],[11.6963835,9.6688862],[11.688261,9.6643286],[11.6836262,9.6631947],[11.6778173,9.6586313],[11.6720152,9.6552124],[11.6638813,9.648366],[11.6603823,9.6426535],[11.6545696,9.6369457],[11.6452885,9.63239],[11.636014,9.6289787],[11.6344697,9.6274628],[11.6136128,9.6563297],[11.5983025,9.649286],[11.586154,9.6338193],[11.5817247,9.6197603],[11.5763591,9.6152866],[11.5670522,9.6107906],[11.5629872,9.6051189],[11.5627848,9.6051192],[11.5456257,9.6051588],[11.5273365,9.608235],[11.5273228,9.6082373],[11.5165287,9.6075757],[11.5155439,9.6075153],[11.5062847,9.6075363],[11.5017066,9.6075467],[11.5016556,9.6075468],[11.4912227,9.6041385],[11.4843297,9.6041545],[11.4842787,9.6041546],[11.4738445,9.6007462],[11.4680481,9.5984707],[11.4610777,9.5927658],[11.452939,9.5847759],[11.4478836,9.5791321],[11.4444656,9.5761528],[11.4428596,9.5697346],[11.4418936,9.5604315],[11.4339466,9.5521269],[11.4295988,9.5496254],[11.4276419,9.5485001],[11.4201536,9.5460062],[11.4056845,9.5445099],[11.3934717,9.5459671],[11.3812971,9.5456848],[11.3738518,9.5468025],[11.3679142,9.5476942],[11.3534193,9.5473576],[11.3464384,9.5483561],[11.3377295,9.5487347],[11.3290329,9.5485325],[11.3203249,9.5489101],[11.3107931,9.5486811],[11.3080446,9.5486734],[11.2982931,9.548399],[11.2930756,9.5482779],[11.289086,9.548156],[11.2780142,9.5478178],[11.2745113,9.5484276],[11.2692814,9.5488863],[11.2546663,9.554347],[11.2440615,9.5622215],[11.2278224,9.5690801],[11.2270899,9.5693684],[11.2224522,9.5692616],[11.2103491,9.5655003],[11.1988392,9.5611725],[11.1919422,9.5581131],[11.1821346,9.5555649],[11.1711674,9.55299],[11.1619418,9.5511416],[11.161859,9.551125],[11.1613474,9.5510225],[11.1509123,9.5507803],[11.1444235,9.5457538],[11.136235,9.5406808],[11.1339863,9.5392877],[11.1314504,9.5377487],[11.1280236,9.5356749],[11.1248239,9.5333355],[11.1239049,9.5326636],[11.1142382,9.5255958],[11.0945108,9.5330966],[11.0835775,9.5466914],[11.0764081,9.5513718],[11.0708561,9.5512428],[11.0621357,9.5522003],[11.0479828,9.5503296],[11.0355263,9.5486832],[11.0273981,9.5490742],[11.0204287,9.5494928],[11.008193,9.5521088],[10.9923821,9.5592833],[10.9847116,9.565485],[10.9799528,9.5711756],[10.9781408,9.5746136],[10.9775,9.578269],[10.9755068,9.5896339],[10.9748936,9.5928907],[10.9743202,9.5959367],[10.9691343,9.6153535],[10.9693164,9.6154984],[10.9780078,9.622412],[10.9822213,9.6257636],[10.98817,9.6302251],[10.9898945,9.6405537],[10.9850205,9.6418285],[10.9640515,9.6625001],[10.9569131,9.6685974],[10.9564899,9.6709254],[10.9563183,9.6718692],[10.9605414,9.6754384],[10.9600655,9.6792456],[10.9603035,9.6847183],[10.9607793,9.6957828],[10.957805,9.7032781],[10.9567045,9.711389],[10.9618201,9.7167954],[10.96439,9.723791],[10.9663887,9.7310722],[10.9662459,9.7382106],[10.9646755,9.7454917],[10.9655321,9.7523446],[10.971669,9.7608803],[10.9726208,9.762822],[10.9746766,9.7669337],[10.9785218,9.769751],[10.9786741,9.7721875],[10.9816294,9.7747791],[10.9776008,9.8101824],[10.9773173,9.8126734],[10.9702402,9.8117111],[10.9657279,9.8140516],[10.9612307,9.8234029],[10.9592319,9.8281142],[10.9577329,9.8344674],[10.9580898,9.839036],[10.9586609,9.8426052],[10.9578756,9.8453177],[10.9583039,9.84853],[10.9590892,9.8521706],[10.957947,9.8540979],[10.9550203,9.8561681],[10.9525932,9.8608794],[10.9448838,9.8704448],[10.9455262,9.8726577],[10.9454548,9.8759414],[10.9451693,9.8785112],[10.9452509,9.8791403],[10.9454198,9.880443],[10.9439239,9.8817771],[10.9184558,9.8996999],[10.9053688,9.9144525],[10.8944637,9.9264842],[10.89062,9.930725],[10.8835479,9.935212],[10.8774072,9.9391081],[10.8751783,9.9405222],[10.8658819,9.9498568],[10.8635125,9.9515595],[10.8577232,9.9557199],[10.8413572,9.9628401],[10.8249903,9.9699602],[10.8121719,9.9793386],[10.8028994,9.9909773],[10.7947769,10.0002966],[10.7884455,10.0061254],[10.787178,10.0067364],[10.7752619,10.0124798],[10.7635088,10.0197477],[10.7629173,10.0201231],[10.7511644,10.0275812],[10.7400036,10.0342827],[10.7276716,10.0415373],[10.7244273,10.0441835],[10.7174759,10.0498533],[10.7169402,10.063492],[10.7157292,10.0646508],[10.7156077,10.0648562],[10.7115442,10.0762105],[10.7127728,10.0786206],[10.7134044,10.0888332],[10.7159028,10.0945439],[10.7211979,10.0951475],[10.7250922,10.102786],[10.7260569,10.1046783],[10.7264771,10.1055024],[10.7334711,10.114576],[10.7383888,10.1209559],[10.7492146,10.119913],[10.7746061,10.1376069],[10.7867414,10.1347515],[10.8003043,10.1347515],[10.8074427,10.1379638],[10.8186407,10.1573362],[10.8172264,10.1694851],[10.8180076,10.1729142],[10.8198833,10.1811476],[10.8237963,10.188199],[10.8302908,10.1969223],[10.8356295,10.2040939],[10.8356875,10.2042678],[10.8393269,10.2151699],[10.8511667,10.2242355],[10.8571596,10.2356815],[10.8569492,10.2362577],[10.855281,10.2408248],[10.8628708,10.26827],[10.8558752,10.2765506],[10.8473092,10.2864015],[10.8301195,10.3034157],[10.8220889,10.3097807],[10.8191896,10.3129517],[10.82225,10.3207636],[10.8234397,10.3311143],[10.8221905,10.3430116],[10.8282581,10.3509828],[10.8338642,10.3650084],[10.8340298,10.3807373],[10.834034,10.3811359],[10.8348421,10.3920043],[10.8350725,10.3951025],[10.8354034,10.3995514],[10.8041358,10.4244696],[10.8135115,10.4377343],[10.8102564,10.4477737],[10.800434,10.4506633],[10.7926048,10.4406563],[10.7907392,10.4351458],[10.7424915,10.4735961],[10.7301849,10.4874063],[10.7215617,10.4900903],[10.7054472,10.4803828],[10.701444,10.4874064],[10.6894301,10.4930529],[10.681792,10.4932314],[10.6748321,10.4933028],[10.6696183,10.4930553],[10.6655237,10.49089],[10.661893,10.4913927],[10.6123916,10.5566208],[10.5933559,10.5713735],[10.569973,10.5867537],[10.5581912,10.6006147],[10.566147,10.6181085],[10.5694783,10.6278642],[10.5625778,10.64226],[10.5379504,10.6493984],[10.5285718,10.6496711],[10.5253033,10.6627448],[10.4972257,10.6870153],[10.4942811,10.688328],[10.4968352,10.6909138],[10.4999548,10.6976285],[10.5001033,10.7068243],[10.4996646,10.7120264],[10.5026287,10.7132466],[10.5053689,10.7144785],[10.5069376,10.7165103],[10.506491,10.7177714],[10.5089341,10.7192426],[10.5109306,10.7198732],[10.5119541,10.7213061],[10.5122141,10.7234462],[10.5142819,10.7255479],[10.5164923,10.7252677],[10.5185602,10.7254779],[10.5202715,10.7269491],[10.5211271,10.7296113],[10.5214123,10.7325537],[10.522981,10.7336746],[10.5266768,10.7369667],[10.5267155,10.737043],[10.5325949,10.7487031],[10.5358624,10.7547782],[10.5687404,10.8107894],[10.5764996,10.8071265],[10.586874,10.8181672],[10.5955353,10.8269236],[10.6098121,10.8487956],[10.6199548,10.851306],[10.6247137,10.8587418],[10.6364623,10.8675161],[10.6426599,10.8759927],[10.6520051,10.881438],[10.6466594,10.893217],[10.6634995,10.913358],[10.6772225,10.9308715],[10.6746011,10.9386146],[10.6627038,10.9463479],[10.6571121,10.9517017],[10.6410887,10.9608162],[10.6426709,10.9770346],[10.6596952,10.9848838],[10.6647396,10.9944017],[10.6624553,11.0106962],[10.6646714,11.028261],[10.6694507,11.0398203],[10.6790123,11.0457755],[10.6898719,11.047219],[10.7079121,11.0847983],[10.7383692,11.1009787],[10.7669227,11.0681421],[10.7724045,11.0603407],[10.786754,11.0638194],[10.7871063,11.0640792],[10.7890436,11.0728356],[10.7991325,11.084257],[10.8204525,11.0840667],[10.8533842,11.0850185],[10.8642345,11.0884449],[10.8821281,11.0859702],[10.9103009,11.0882545],[10.9219127,11.0920617],[10.9295657,11.0907351],[10.9292672,11.09448],[10.9373806,11.0961528],[10.9589047,11.1128004],[10.9893331,11.1363348],[11.0085317,11.1490932],[10.981716,11.17882],[11.0774435,11.2867177],[11.0918664,11.2260974],[11.1337863,11.2077738],[11.1651277,11.2011534],[11.1818959,11.1990211],[11.198166,11.1799281],[11.2008758,11.1750904],[11.2237558,11.1648305],[11.2485632,11.1835739],[11.2754502,11.1723213],[11.3097457,11.1690764],[11.3114452,11.1689156],[11.3193819,11.1862312],[11.3415572,11.1637591],[11.347949,11.1527213],[11.3548763,11.1441517],[11.3571352,11.134843],[11.3599965,11.127455],[11.3650214,11.1223827],[11.3686801,11.1185228],[11.3732114,11.1139513],[11.3734685,11.1117402],[11.3744051,11.110678],[11.3749533,11.1101412],[11.3746449,11.1094559],[11.3727004,11.1061087],[11.3741626,11.1050346],[11.3743375,11.104306],[11.3745469,11.1037692],[11.3742328,11.1027794],[11.3743184,11.1017229],[11.3738235,11.1015197],[11.3730621,11.1008249],[11.3725862,11.0998826],[11.3715012,11.0989917],[11.3711963,11.0984317],[11.3750146,11.0967712],[11.3781049,11.0943743],[11.3830364,11.0924051],[11.3867292,11.0908432],[11.3907535,11.0902717],[11.3911402,11.0901644],[11.3943548,11.0919743],[11.4001389,11.0890875],[11.4024563,11.0879307],[11.4071913,11.0833998],[11.4121199,11.0802097],[11.4172525,11.0737724],[11.4207973,11.0708084],[11.4274654,11.0640841],[11.4348536,11.0559082],[11.4432592,11.0505943],[11.4485617,11.0466566],[11.4521828,11.0422049],[11.4568968,11.0364094],[11.4705458,11.0216455],[11.4734156,11.0175359],[11.4793563,11.0080872],[11.4825411,11.0027819],[11.4884834,10.9959593],[11.4949703,10.9908895],[11.5045739,10.9790063],[11.5084942,10.9741716],[11.5085267,10.974134],[11.5092602,10.9732399],[11.5109836,10.9710982],[11.5131205,10.9683379],[11.5149925,10.9659198],[11.5170269,10.9623985],[11.519599,10.9568434],[11.5213421,10.9532841],[11.5273066,10.9423361],[11.5303621,10.9348669],[11.5304526,10.9341847],[11.5310516,10.9296618],[11.5315056,10.9232721],[11.5318737,10.9180803],[11.531004,10.9041405],[11.529788,10.8979206],[11.5289049,10.8934011],[11.5273771,10.8915854],[11.5277872,10.8869133],[11.5281286,10.8830299],[11.5284176,10.8797379],[11.5286741,10.8768234],[11.5313902,10.8710699],[11.5364885,10.8636637],[11.5390749,10.8509626],[11.538146,10.83992],[11.5365885,10.8372397],[11.5362962,10.8367432],[11.5344105,10.83354],[11.5364399,10.8287745],[11.5361776,10.8230534],[11.534791,10.8161316],[11.5340767,10.8125639],[11.5321782,10.807074],[11.5321127,10.8068846],[11.5326777,10.8041353],[11.5302963,10.7991352],[11.528739,10.7903976],[11.5285091,10.7825022],[11.5284798,10.781492],[11.5284014,10.7787905],[11.5269623,10.7734833],[11.5265179,10.757864],[11.5198269,10.7449484],[11.5185642,10.7399015],[11.5166149,10.7321129],[11.5168571,10.7205172],[11.5154686,10.7036638],[11.5150709,10.6949539],[11.5164604,10.6839657],[11.5180923,10.678103],[11.5227194,10.6614799],[11.5241852,10.6600065],[11.5226609,10.6485285],[11.521451,10.6394176],[11.5170294,10.6214369],[11.5134201,10.6073294],[11.5123978,10.5998373],[11.5133734,10.5949774],[11.5127211,10.5852709],[11.5165138,10.5702782],[11.52185,10.5690049],[11.5218735,10.5689993],[11.5275898,10.5676346],[11.5327358,10.5712347],[11.5372763,10.5759802],[11.5449944,10.5824413],[11.5515289,10.5879116],[11.5613117,10.5916185],[11.572895,10.5924673],[11.5833073,10.5938692],[11.5756423,10.5798083]]]}},{"type":"Feature","properties":{"kind":"administrative","id":"administrative:gombe","localUnitId":"gombe","name":"Gombe"},"geometry":{"type":"MultiPolygon","coordinates":[[[[11.1957437,10.2786055],[11.1958844,10.2784416],[11.1971799,10.2784389],[11.1971702,10.277833],[11.1962305,10.2777574],[11.1962026,10.2773101],[11.1960262,10.2768847],[11.1957296,10.2765113],[11.195235,10.2757081],[11.1947622,10.2747866],[11.1945335,10.2744352],[11.1942617,10.2742753],[11.1937437,10.2736786],[11.1928756,10.2728748],[11.1925174,10.2724399],[11.191745,10.2718516],[11.190948,10.2713177],[11.1902888,10.2708367],[11.1899636,10.2699087],[11.1879308,10.269157],[11.186551,10.2687915],[11.1857241,10.2687621],[11.1850143,10.2690045],[11.183896,10.268481],[11.1826945,10.2670083],[11.1826468,10.2664103],[11.182046,10.2660615],[11.1814397,10.2659766],[11.1808469,10.2665428],[11.1800379,10.2666678],[11.1793032,10.2662368],[11.1788515,10.2658636],[11.1787465,10.2654705],[11.1790418,10.2650312],[11.1790894,10.2647928],[11.1786242,10.264636],[11.1777971,10.2646164],[11.1774559,10.2646106],[11.1772107,10.2644067],[11.1770753,10.2641917],[11.1770837,10.2636754],[11.1767015,10.2635875],[11.1762504,10.2636261],[11.1759813,10.2638372],[11.1756988,10.2641089],[11.1754313,10.2640969],[11.1753015,10.2637203],[11.1749816,10.2634227],[11.1743034,10.2635173],[11.1740183,10.2636917],[11.1737196,10.2636591],[11.1733563,10.2636787],[11.1730609,10.2637605],[11.1725487,10.2641897],[11.1721826,10.2644612],[11.171818,10.2645297],[11.1709522,10.2640274],[11.170505,10.2641048],[11.1701947,10.2640518],[11.1699573,10.2634923],[11.1696925,10.2635523],[11.1692136,10.2637834],[11.1688443,10.2636145],[11.1683231,10.26393],[11.1676863,10.2641291],[11.1671744,10.2644804],[11.1668426,10.264533],[11.1662623,10.2646385],[11.1657292,10.2647199],[11.1654486,10.265003],[11.1653039,10.2654615],[11.1649361,10.265662],[11.1646361,10.2660544],[11.1638939,10.2662712],[11.1635509,10.2664293],[11.1637407,10.2668855],[11.1634547,10.2671207],[11.1629494,10.2668605],[11.1626425,10.2667972],[11.1620049,10.2674388],[11.1621246,10.2678906],[11.1618972,10.2685158],[11.1615795,10.2688688],[11.1613826,10.2688064],[11.1611142,10.2684579],[11.1606824,10.268658],[11.1602565,10.2685126],[11.1601182,10.2687681],[11.1602015,10.2699097],[11.1599086,10.2701165],[11.1596831,10.2702466],[11.1594888,10.2703884],[11.1593094,10.2702945],[11.1590554,10.2700074],[11.158719,10.269844],[11.1581032,10.2697656],[11.1578304,10.2699264],[11.1570241,10.2714021],[11.1558624,10.2732002],[11.1552837,10.2741305],[11.1543141,10.2755878],[11.154139,10.2760587],[11.1501172,10.276219],[11.1496825,10.2762312],[11.149714,10.2775818],[11.1471305,10.2776784],[11.1468517,10.2778209],[11.1466012,10.2783537],[11.1463867,10.2784674],[11.1407561,10.279031],[11.135193,10.2795113],[11.1307238,10.2794472],[11.1243048,10.2796537],[11.1241273,10.2807164],[11.1236615,10.281808],[11.1228184,10.2826427],[11.121016,10.2842178],[11.120599,10.2847311],[11.1201741,10.2860076],[11.1201361,10.287371],[11.1199434,10.2899944],[11.1209956,10.2970446],[11.1215835,10.3013762],[11.1215865,10.304642],[11.1215064,10.3078048],[11.1213243,10.3095561],[11.1213484,10.3109507],[11.1213889,10.3122077],[11.1209052,10.3213347],[11.1211051,10.325015],[11.1220439,10.3272401],[11.123608,10.3293168],[11.1274207,10.3320943],[11.1292631,10.3284515],[11.1376767,10.3176003],[11.1390422,10.3162594],[11.1411273,10.3144898],[11.1444168,10.3117566],[11.1460533,10.3153699],[11.1523215,10.3130919],[11.1551385,10.311862],[11.1571503,10.3113859],[11.1576428,10.3115769],[11.1600985,10.316979],[11.1609932,10.3163413],[11.1616115,10.3161591],[11.1622809,10.3159466],[11.16279,10.3159054],[11.1632778,10.3157615],[11.1636751,10.3155236],[11.1640664,10.3151989],[11.1644129,10.3150573],[11.1652864,10.314872],[11.1660007,10.314707],[11.1662616,10.3146012],[11.1667655,10.3144432],[11.1671008,10.3141607],[11.1673741,10.3139473],[11.16763,10.3137865],[11.1686329,10.3134286],[11.1687361,10.3134311],[11.1692007,10.3132497],[11.1693844,10.3131334],[11.1700389,10.3129908],[11.1703526,10.312841],[11.1707405,10.3127152],[11.1711785,10.3125417],[11.1716982,10.3123716],[11.1725711,10.3120225],[11.1727844,10.311922],[11.1730728,10.3118774],[11.1732913,10.3117659],[11.1735529,10.3115989],[11.1738754,10.3114682],[11.1743849,10.3113255],[11.1749958,10.3111719],[11.1755469,10.3112],[11.1757711,10.3108824],[11.176507,10.3108767],[11.177769,10.3107111],[11.1780769,10.3109282],[11.1782678,10.3114489],[11.1787217,10.3114871],[11.1794073,10.3115936],[11.179556,10.3117563],[11.1795004,10.3122464],[11.1795997,10.3125687],[11.1800819,10.3127601],[11.180673,10.3131043],[11.1810748,10.3129017],[11.1814017,10.3126732],[11.181899,10.3128866],[11.1825436,10.3129855],[11.1826022,10.3133177],[11.1822601,10.3140643],[11.1824744,10.3142156],[11.1832347,10.3137364],[11.1837154,10.3136189],[11.1844698,10.313858],[11.1850017,10.3131856],[11.1853011,10.3129733],[11.1861042,10.3126249],[11.186121,10.3119143],[11.1866572,10.3117121],[11.1866279,10.311064],[11.1872227,10.310917],[11.1877869,10.3106765],[11.1881093,10.3107169],[11.1883531,10.3110645],[11.1891706,10.3105348],[11.1897647,10.3097326],[11.1900033,10.3089483],[11.1898823,10.3083623],[11.1898514,10.3078145],[11.1898491,10.3070082],[11.1894765,10.306744],[11.18918,10.3063651],[11.189262,10.305839],[11.189378,10.3053857],[11.1894285,10.3044284],[11.1897972,10.3042219],[11.1903131,10.3041628],[11.190492,10.3037968],[11.1905758,10.3033452],[11.1907686,10.303216],[11.1910187,10.3032274],[11.1918888,10.3035305],[11.1926034,10.3039171],[11.193095,10.3044933],[11.1935772,10.3043142],[11.1939668,10.304179],[11.1948067,10.3027241],[11.1952589,10.3018283],[11.1952409,10.3016337],[11.1956061,10.3016483],[11.1957397,10.3011197],[11.195829,10.3001938],[11.1960729,10.2992591],[11.1962115,10.2983201],[11.195341,10.2977444],[11.1952305,10.2974052],[11.1956013,10.2964034],[11.1957143,10.2959342],[11.1958399,10.2955365],[11.1959752,10.2930998],[11.1987066,10.2897043],[11.1931181,10.2816648],[11.1957437,10.2786055]]],[[[11.273934,10.3403283],[11.2615055,10.3157952],[11.262334,10.3055588],[11.260667,10.300562],[11.25994,10.293212],[11.2595938,10.2926217],[11.2533392,10.2933582],[11.247027,10.293847],[11.2470973,10.2949038],[11.2468831,10.2964742],[11.2464548,10.2976877],[11.2460265,10.2995437],[11.2453127,10.3009714],[11.2446702,10.3021135],[11.2440992,10.3023991],[11.2432426,10.302756],[11.2422432,10.3028274],[11.2416007,10.3029701],[11.2412438,10.3029701],[11.2412974,10.3058183],[11.2412974,10.3062823],[11.2416186,10.3086023],[11.2417257,10.3087808],[11.2432961,10.3093518],[11.2387487,10.3157388],[11.2382348,10.315339],[11.2368071,10.315339],[11.2331522,10.3161385],[11.2316103,10.316367],[11.2309822,10.3160929],[11.2238617,10.3408358],[11.2483834,10.3397438],[11.273934,10.3403283]]]]}},{"type":"Feature","properties":{"kind":"land","id":"gombe","localUnitId":"gombe","name":"Gombe"},"geometry":{"type":"MultiPolygon","coordinates":[[[[11.1958844,10.2784416],[11.1971799,10.2784389],[11.1971702,10.277833],[11.1962305,10.2777574],[11.1962026,10.2773101],[11.1960262,10.2768847],[11.1957296,10.2765113],[11.195235,10.2757081],[11.1947622,10.2747866],[11.1945335,10.2744352],[11.1942617,10.2742753],[11.1937437,10.2736786],[11.1928756,10.2728748],[11.1925174,10.2724399],[11.191745,10.2718516],[11.190948,10.2713177],[11.1902888,10.2708367],[11.1899636,10.2699087],[11.1879308,10.269157],[11.186551,10.2687915],[11.1857241,10.2687621],[11.1850143,10.2690045],[11.183896,10.268481],[11.1826945,10.2670083],[11.1826468,10.2664103],[11.182046,10.2660615],[11.1814397,10.2659766],[11.1808469,10.2665428],[11.1800379,10.2666678],[11.1793032,10.2662368],[11.1788515,10.2658636],[11.1787465,10.2654705],[11.1790418,10.2650312],[11.1790894,10.2647928],[11.1786242,10.264636],[11.1777971,10.2646164],[11.1774559,10.2646106],[11.1772107,10.2644067],[11.1770753,10.2641917],[11.1770837,10.2636754],[11.1767015,10.2635875],[11.1762504,10.2636261],[11.1759813,10.2638372],[11.1756988,10.2641089],[11.1754313,10.2640969],[11.1753015,10.2637203],[11.1749816,10.2634227],[11.1743034,10.2635173],[11.1740183,10.2636917],[11.1737196,10.2636591],[11.1733563,10.2636787],[11.1730609,10.2637605],[11.1725487,10.2641897],[11.1721826,10.2644612],[11.171818,10.2645297],[11.1709522,10.2640274],[11.170505,10.2641048],[11.1701947,10.2640518],[11.1699573,10.2634923],[11.1696925,10.2635523],[11.1692136,10.2637834],[11.1688443,10.2636145],[11.1683231,10.26393],[11.1676863,10.2641291],[11.1671744,10.2644804],[11.1668426,10.264533],[11.1662623,10.2646385],[11.1657292,10.2647199],[11.1654486,10.265003],[11.1653039,10.2654615],[11.1649361,10.265662],[11.1646361,10.2660544],[11.1638939,10.2662712],[11.1635509,10.2664293],[11.1637407,10.2668855],[11.1634547,10.2671207],[11.1629494,10.2668605],[11.1626425,10.2667972],[11.1620049,10.2674388],[11.1621246,10.2678906],[11.1618972,10.2685158],[11.1615795,10.2688688],[11.1613826,10.2688064],[11.1611142,10.2684579],[11.1606824,10.268658],[11.1602565,10.2685126],[11.1601182,10.2687681],[11.1602015,10.2699097],[11.1599086,10.2701165],[11.1596831,10.2702466],[11.1594888,10.2703884],[11.1593094,10.2702945],[11.1590554,10.2700074],[11.158719,10.269844],[11.1581032,10.2697656],[11.1578304,10.2699264],[11.1570241,10.2714021],[11.1558624,10.2732002],[11.1552837,10.2741305],[11.1543141,10.2755878],[11.154139,10.2760587],[11.1501172,10.276219],[11.1496825,10.2762312],[11.149714,10.2775818],[11.1471305,10.2776784],[11.1468517,10.2778209],[11.1466012,10.2783537],[11.1463867,10.2784674],[11.1407561,10.279031],[11.135193,10.2795113],[11.1307238,10.2794472],[11.1243048,10.2796537],[11.1241273,10.2807164],[11.1236615,10.281808],[11.1228184,10.2826427],[11.121016,10.2842178],[11.120599,10.2847311],[11.1201741,10.2860076],[11.1201361,10.287371],[11.1199434,10.2899944],[11.1209956,10.2970446],[11.1215835,10.3013762],[11.1215865,10.304642],[11.1215064,10.3078048],[11.1213243,10.3095561],[11.1213484,10.3109507],[11.1213889,10.3122077],[11.1209052,10.3213347],[11.1211051,10.325015],[11.1220439,10.3272401],[11.123608,10.3293168],[11.1274207,10.3320943],[11.1292631,10.3284515],[11.1376767,10.3176003],[11.1390422,10.3162594],[11.1411273,10.3144898],[11.1444168,10.3117566],[11.1460533,10.3153699],[11.1523215,10.3130919],[11.1551385,10.311862],[11.1571503,10.3113859],[11.1576428,10.3115769],[11.1600985,10.316979],[11.1609932,10.3163413],[11.1616115,10.3161591],[11.1622809,10.3159466],[11.16279,10.3159054],[11.1632778,10.3157615],[11.1636751,10.3155236],[11.1640664,10.3151989],[11.1644129,10.3150573],[11.1652864,10.314872],[11.1660007,10.314707],[11.1662616,10.3146012],[11.1667655,10.3144432],[11.1671008,10.3141607],[11.1673741,10.3139473],[11.16763,10.3137865],[11.1686329,10.3134286],[11.1687361,10.3134311],[11.1692007,10.3132497],[11.1693844,10.3131334],[11.1700389,10.3129908],[11.1703526,10.312841],[11.1707405,10.3127152],[11.1711785,10.3125417],[11.1716982,10.3123716],[11.1725711,10.3120225],[11.1727844,10.311922],[11.1730728,10.3118774],[11.1732913,10.3117659],[11.1735529,10.3115989],[11.1738754,10.3114682],[11.1743849,10.3113255],[11.1749958,10.3111719],[11.1755469,10.3112],[11.1757711,10.3108824],[11.176507,10.3108767],[11.177769,10.3107111],[11.1780769,10.3109282],[11.1782678,10.3114489],[11.1787217,10.3114871],[11.1794073,10.3115936],[11.179556,10.3117563],[11.1795004,10.3122464],[11.1795997,10.3125687],[11.1800819,10.3127601],[11.180673,10.3131043],[11.1810748,10.3129017],[11.1814017,10.3126732],[11.181899,10.3128866],[11.1825436,10.3129855],[11.1826022,10.3133177],[11.1822601,10.3140643],[11.1824744,10.3142156],[11.1832347,10.3137364],[11.1837154,10.3136189],[11.1844698,10.313858],[11.1850017,10.3131856],[11.1853011,10.3129733],[11.1861042,10.3126249],[11.186121,10.3119143],[11.1866572,10.3117121],[11.1866279,10.311064],[11.1872227,10.310917],[11.1877869,10.3106765],[11.1881093,10.3107169],[11.1883531,10.3110645],[11.1891706,10.3105348],[11.1897647,10.3097326],[11.1900033,10.3089483],[11.1898823,10.3083623],[11.1898514,10.3078145],[11.1898491,10.3070082],[11.1894765,10.306744],[11.18918,10.3063651],[11.189262,10.305839],[11.189378,10.3053857],[11.1894285,10.3044284],[11.1897972,10.3042219],[11.1903131,10.3041628],[11.190492,10.3037968],[11.1905758,10.3033452],[11.1907686,10.303216],[11.1910187,10.3032274],[11.1918888,10.3035305],[11.1926034,10.3039171],[11.193095,10.3044933],[11.1935772,10.3043142],[11.1939668,10.304179],[11.1948067,10.3027241],[11.1952589,10.3018283],[11.1952409,10.3016337],[11.1956061,10.3016483],[11.1957397,10.3011197],[11.195829,10.3001938],[11.1960729,10.2992591],[11.1962115,10.2983201],[11.195341,10.2977444],[11.1952305,10.2974052],[11.1956013,10.2964034],[11.1957143,10.2959342],[11.1958399,10.2955365],[11.1959752,10.2930998],[11.1987066,10.2897043],[11.1931181,10.2816648],[11.1957437,10.2786055],[11.1958844,10.2784416]],[[11.1763686,10.3020112],[11.1763021,10.3019838],[11.1763246,10.3019311],[11.176391,10.3019585],[11.1763686,10.3020112]]],[[[11.2615055,10.3157952],[11.262334,10.3055588],[11.260667,10.300562],[11.25994,10.293212],[11.2595938,10.2926217],[11.2533392,10.2933582],[11.247027,10.293847],[11.2470973,10.2949038],[11.2468831,10.2964742],[11.2464548,10.2976877],[11.2460265,10.2995437],[11.2453127,10.3009714],[11.2446702,10.3021135],[11.2440992,10.3023991],[11.2432426,10.302756],[11.2422432,10.3028274],[11.2416007,10.3029701],[11.2412438,10.3029701],[11.2412974,10.3058183],[11.2412974,10.3062823],[11.2416186,10.3086023],[11.2417257,10.3087808],[11.2432961,10.3093518],[11.2387487,10.3157388],[11.2382348,10.315339],[11.2368071,10.315339],[11.2331522,10.3161385],[11.2316103,10.316367],[11.2309822,10.3160929],[11.2238617,10.3408358],[11.2483834,10.3397438],[11.273934,10.3403283],[11.2615055,10.3157952]]]]}},{"type":"Feature","properties":{"kind":"water","id":"water:gombe","localUnitId":"gombe","name":"Mapped water in Gombe"},"geometry":{"type":"Polygon","coordinates":[[[11.1763021,10.3019838],[11.1763686,10.3020112],[11.176391,10.3019585],[11.1763246,10.3019311],[11.1763021,10.3019838]]]}},{"type":"Feature","properties":{"kind":"road","id":"road-185788082-0","name":"Gombe - Biu Road","osmWay":185788082,"major":true,"bridge":false},"geometry":{"type":"LineString","coordinates":[[11.18076,10.2801842],[11.1836749,10.279861],[11.1858143,10.2794562],[11.1872701,10.2789622],[11.1896156,10.27786]]}},{"type":"Feature","properties":{"kind":"road","id":"road-185788084-0","name":"Gombe - Biu Road","osmWay":185788084,"major":true,"bridge":false},"geometry":{"type":"LineString","coordinates":[[11.173178,10.2832703],[11.1751216,10.2823942],[11.177028,10.2811343],[11.17894,10.2804963],[11.1803016,10.2802434]]}},{"type":"Feature","properties":{"kind":"road","id":"road-185788104-0","name":"Gombe - Biu Road","osmWay":185788104,"major":true,"bridge":false},"geometry":{"type":"LineString","coordinates":[[11.1665344,10.2871776],[11.1663698,10.2874198],[11.1660667,10.2873325]]}},{"type":"Feature","properties":{"kind":"road","id":"road-185788105-0","name":"Gombe - Biu Road","osmWay":185788105,"major":true,"bridge":false},"geometry":{"type":"LineString","coordinates":[[11.1807689,10.2802395],[11.1805373,10.2804773],[11.1803016,10.2802434],[11.1803692,10.2800855],[11.180578,10.2800212],[11.1807689,10.2802395]]}},{"type":"Feature","properties":{"kind":"road","id":"road-220229195-0","name":"Pantami Road","osmWay":220229195,"major":false,"bridge":false},"geometry":{"type":"LineString","coordinates":[[11.1682221,10.2640102],[11.168139,10.2678438],[11.1677957,10.2711033],[11.1673379,10.2739683],[11.1673025,10.2750097]]}},{"type":"Feature","properties":{"kind":"road","id":"road-255477472-0","name":"Unnamed mapped secondary","osmWay":255477472,"major":false,"bridge":false},"geometry":{"type":"LineString","coordinates":[[11.1656376,10.2834929],[11.165372,10.2835871],[11.1652489,10.2833157],[11.1655341,10.2831957],[11.1656376,10.2834929]]}},{"type":"Feature","properties":{"kind":"road","id":"road-255477473-0","name":"Pantami Road","osmWay":255477473,"major":false,"bridge":false},"geometry":{"type":"LineString","coordinates":[[11.1653561,10.2832],[11.1659934,10.2805098],[11.1659208,10.2791776],[11.166011,10.2784822]]}},{"type":"Feature","properties":{"kind":"road","id":"road-255477474-0","name":"Pantami Road","osmWay":255477474,"major":false,"bridge":false},"geometry":{"type":"LineString","coordinates":[[11.1660991,10.2785118],[11.1660789,10.2805482],[11.1656093,10.282295],[11.1655341,10.2831957]]}},{"type":"Feature","properties":{"kind":"road","id":"road-255477475-0","name":"Unnamed mapped secondary","osmWay":255477475,"major":false,"bridge":false},"geometry":{"type":"LineString","coordinates":[[11.1607776,10.2816093],[11.1565069,10.2822866],[11.1539062,10.2830368],[11.1533861,10.2835655]]}},{"type":"Feature","properties":{"kind":"road","id":"road-255477476-0","name":"Unnamed mapped secondary","osmWay":255477476,"major":false,"bridge":false},"geometry":{"type":"LineString","coordinates":[[11.153289,10.2835379],[11.1535809,10.2831144],[11.15447,10.2827472],[11.1568562,10.2821122],[11.1602988,10.2815589],[11.1607811,10.2813886]]}},{"type":"Feature","properties":{"kind":"road","id":"road-255477478-0","name":"Unnamed mapped primary_link","osmWay":255477478,"major":false,"bridge":false},"geometry":{"type":"LineString","coordinates":[[11.1527991,10.2834459],[11.1534692,10.2832199]]}},{"type":"Feature","properties":{"kind":"road","id":"road-255477479-0","name":"Unnamed mapped secondary","osmWay":255477479,"major":false,"bridge":false},"geometry":{"type":"LineString","coordinates":[[11.1661955,10.2869362],[11.1661469,10.2861579],[11.1656631,10.2843183]]}},{"type":"Feature","properties":{"kind":"road","id":"road-255477480-0","name":"Unnamed mapped secondary","osmWay":255477480,"major":false,"bridge":false},"geometry":{"type":"LineString","coordinates":[[11.1657291,10.2842934],[11.1663484,10.2869352]]}},{"type":"Feature","properties":{"kind":"road","id":"road-255583188-0","name":"F251","osmWay":255583188,"major":true,"bridge":false},"geometry":{"type":"LineString","coordinates":[[11.1441803,10.3119531],[11.1441468,10.311736],[11.144372,10.3115888],[11.1445803,10.3117396],[11.1445557,10.3119345]]}},{"type":"Feature","properties":{"kind":"road","id":"road-255583188-1","name":"F251","osmWay":255583188,"major":true,"bridge":false},"geometry":{"type":"LineString","coordinates":[[11.1445557,10.3119345],[11.1445178,10.3119797]]}},{"type":"Feature","properties":{"kind":"road","id":"road-255583189-0","name":"Unnamed mapped secondary","osmWay":255583189,"major":false,"bridge":false},"geometry":{"type":"LineString","coordinates":[[11.1664281,10.2873883],[11.1675472,10.2911631]]}},{"type":"Feature","properties":{"kind":"road","id":"road-255583190-0","name":"Unnamed mapped primary_link","osmWay":255583190,"major":false,"bridge":false},"geometry":{"type":"LineString","coordinates":[[11.1411304,10.2860781],[11.1407574,10.2864992]]}},{"type":"Feature","properties":{"kind":"road","id":"road-255583192-0","name":"Unnamed mapped secondary","osmWay":255583192,"major":false,"bridge":false},"geometry":{"type":"LineString","coordinates":[[11.167446,10.2936287],[11.1673186,10.2937695],[11.1671869,10.2936503],[11.1673132,10.2935137],[11.167446,10.2936287]]}},{"type":"Feature","properties":{"kind":"road","id":"road-255591228-0","name":"Unnamed mapped secondary","osmWay":255591228,"major":false,"bridge":false},"geometry":{"type":"LineString","coordinates":[[11.1673832,10.2937514],[11.167542,10.2945877],[11.1685852,10.2944761]]}},{"type":"Feature","properties":{"kind":"road","id":"road-255591229-0","name":"Unnamed mapped secondary","osmWay":255591229,"major":false,"bridge":false},"geometry":{"type":"LineString","coordinates":[[11.1687871,10.2945161],[11.1686574,10.2945944],[11.1685852,10.2944761],[11.1687049,10.2943975],[11.1687871,10.2945161]]}},{"type":"Feature","properties":{"kind":"road","id":"road-255606999-0","name":"Unnamed mapped secondary","osmWay":255606999,"major":false,"bridge":false},"geometry":{"type":"LineString","coordinates":[[11.1673132,10.2935137],[11.1677315,10.2924883],[11.1674988,10.2912925]]}},{"type":"Feature","properties":{"kind":"road","id":"road-255607004-0","name":"Gombe - Biu Road","osmWay":255607004,"major":true,"bridge":false},"geometry":{"type":"LineString","coordinates":[[11.1660667,10.2873325],[11.1622256,10.2882554],[11.15911,10.2883546],[11.1584837,10.2881065],[11.157641,10.2875107],[11.1557431,10.2853494],[11.1548708,10.2845611],[11.1533364,10.2836649]]}},{"type":"Feature","properties":{"kind":"road","id":"road-255607006-0","name":"Gombe - Biu Road","osmWay":255607006,"major":true,"bridge":false},"geometry":{"type":"LineString","coordinates":[[11.1533861,10.2835655],[11.1549348,10.284485],[11.1557142,10.2851771],[11.1576353,10.2873792],[11.1589322,10.2882106],[11.1596719,10.2883162],[11.1615829,10.2882546],[11.1660172,10.2872133]]}},{"type":"Feature","properties":{"kind":"road","id":"road-255607011-0","name":"Unnamed mapped secondary","osmWay":255607011,"major":false,"bridge":false},"geometry":{"type":"LineString","coordinates":[[11.1811006,10.2862674],[11.181208,10.2864765],[11.1809987,10.2865714],[11.1809008,10.2863704],[11.1811006,10.2862674]]}},{"type":"Feature","properties":{"kind":"road","id":"road-255607015-0","name":"Unnamed mapped secondary","osmWay":255607015,"major":false,"bridge":false},"geometry":{"type":"LineString","coordinates":[[11.1686022,10.294556],[11.1674422,10.2946607],[11.1672535,10.2937534]]}},{"type":"Feature","properties":{"kind":"road","id":"road-256103803-0","name":"Gombe - Biu Road","osmWay":256103803,"major":true,"bridge":false},"geometry":{"type":"LineString","coordinates":[[11.1803238,10.2803451],[11.178959,10.2805823],[11.1771872,10.2811696],[11.1751607,10.2824889],[11.1732308,10.2833522]]}},{"type":"Feature","properties":{"kind":"road","id":"road-256104799-0","name":"Unnamed mapped tertiary","osmWay":256104799,"major":false,"bridge":false},"geometry":{"type":"LineString","coordinates":[[11.1587662,10.28415],[11.1585879,10.2819145]]}},{"type":"Feature","properties":{"kind":"road","id":"road-256104801-0","name":"Unnamed mapped tertiary","osmWay":256104801,"major":false,"bridge":false},"geometry":{"type":"LineString","coordinates":[[11.1608445,10.2813405],[11.1608563,10.2809811]]}},{"type":"Feature","properties":{"kind":"road","id":"road-256104802-0","name":"Unnamed mapped tertiary","osmWay":256104802,"major":false,"bridge":false},"geometry":{"type":"LineString","coordinates":[[11.1542961,10.2943896],[11.1538871,10.2966859],[11.1541916,10.2975288],[11.1548004,10.2981594],[11.1555353,10.2985817],[11.1562763,10.2988064],[11.160598,10.2998114]]}},{"type":"Feature","properties":{"kind":"road","id":"road-288906249-0","name":"Unnamed mapped tertiary","osmWay":288906249,"major":false,"bridge":false},"geometry":{"type":"LineString","coordinates":[[11.1210874,10.3178974],[11.120933,10.3218466]]}},{"type":"Feature","properties":{"kind":"road","id":"road-288906249-1","name":"Unnamed mapped tertiary","osmWay":288906249,"major":false,"bridge":false},"geometry":{"type":"LineString","coordinates":[[11.1210789,10.3245334],[11.1213696,10.3256419]]}},{"type":"Feature","properties":{"kind":"road","id":"road-288906249-2","name":"Unnamed mapped tertiary","osmWay":288906249,"major":false,"bridge":false},"geometry":{"type":"LineString","coordinates":[[11.1214788,10.30807],[11.1213559,10.3111825]]}},{"type":"Feature","properties":{"kind":"road","id":"road-288906249-3","name":"Unnamed mapped tertiary","osmWay":288906249,"major":false,"bridge":false},"geometry":{"type":"LineString","coordinates":[[11.1215837,10.3016429],[11.1216531,10.3032519],[11.1215358,10.306642]]}},{"type":"Feature","properties":{"kind":"road","id":"road-288906249-4","name":"Unnamed mapped tertiary","osmWay":288906249,"major":false,"bridge":false},"geometry":{"type":"LineString","coordinates":[[11.1219027,10.3269054],[11.1223034,10.3275847]]}},{"type":"Feature","properties":{"kind":"road","id":"road-288906249-5","name":"Unnamed mapped tertiary","osmWay":288906249,"major":false,"bridge":false},"geometry":{"type":"LineString","coordinates":[[11.1231715,10.3287373],[11.1244919,10.3299607]]}},{"type":"Feature","properties":{"kind":"road","id":"road-288906249-6","name":"Unnamed mapped tertiary","osmWay":288906249,"major":false,"bridge":false},"geometry":{"type":"LineString","coordinates":[[11.1250857,10.3303933],[11.1271231,10.3318122]]}},{"type":"Feature","properties":{"kind":"road","id":"road-288906252-0","name":"Unnamed mapped primary_link","osmWay":288906252,"major":false,"bridge":false},"geometry":{"type":"LineString","coordinates":[[11.1203907,10.2898806],[11.1199689,10.2901653]]}},{"type":"Feature","properties":{"kind":"road","id":"road-288906256-0","name":"F251","osmWay":288906256,"major":true,"bridge":false},"geometry":{"type":"LineString","coordinates":[[11.1199555,10.2898294],[11.1288787,10.2885768],[11.1328764,10.2872069],[11.1357188,10.2864694],[11.1408459,10.2860274]]}},{"type":"Feature","properties":{"kind":"road","id":"road-294603240-0","name":"F251","osmWay":294603240,"major":true,"bridge":false},"geometry":{"type":"LineString","coordinates":[[11.140727,10.2872217],[11.1410031,10.2903637],[11.1410326,10.292219],[11.1409977,10.2941877],[11.1405498,10.2981489],[11.1406195,10.2997824],[11.140936,10.3012154],[11.1419687,10.3040866],[11.1433118,10.3093203]]}},{"type":"Feature","properties":{"kind":"road","id":"road-294603241-0","name":"F251","osmWay":294603241,"major":true,"bridge":false},"geometry":{"type":"LineString","coordinates":[[11.1402018,10.2862028],[11.1358423,10.2865487],[11.1334581,10.2871367],[11.1289771,10.2886561],[11.1199477,10.2899359]]}},{"type":"Feature","properties":{"kind":"road","id":"road-294603242-0","name":"F251","osmWay":294603242,"major":false,"bridge":false},"geometry":{"type":"LineString","coordinates":[[11.1406123,10.2865535],[11.1402018,10.2862028]]}},{"type":"Feature","properties":{"kind":"road","id":"road-294603250-0","name":"Unnamed mapped tertiary","osmWay":294603250,"major":false,"bridge":false},"geometry":{"type":"LineString","coordinates":[[11.1608563,10.2809811],[11.1601252,10.2798832],[11.1596989,10.2795776],[11.1573066,10.2792555],[11.1568474,10.2790266],[11.1554478,10.2777517],[11.1543451,10.2764427],[11.1542092,10.2760699]]}},{"type":"Feature","properties":{"kind":"road","id":"road-294603252-0","name":"Unnamed mapped primary_link","osmWay":294603252,"major":false,"bridge":false},"geometry":{"type":"LineString","coordinates":[[11.138544,10.2861999],[11.1385519,10.286302]]}},{"type":"Feature","properties":{"kind":"road","id":"road-294603253-0","name":"Unnamed mapped primary_link","osmWay":294603253,"major":false,"bridge":false},"geometry":{"type":"LineString","coordinates":[[11.1248284,10.2891669],[11.124845,10.2892567]]}},{"type":"Feature","properties":{"kind":"road","id":"road-294603256-0","name":"Unnamed mapped primary_link","osmWay":294603256,"major":false,"bridge":false},"geometry":{"type":"LineString","coordinates":[[11.1356371,10.2864897],[11.1356617,10.286589]]}},{"type":"Feature","properties":{"kind":"road","id":"road-294603261-0","name":"Unnamed mapped primary_link","osmWay":294603261,"major":false,"bridge":false},"geometry":{"type":"LineString","coordinates":[[11.1290048,10.2885399],[11.1290193,10.2886362]]}},{"type":"Feature","properties":{"kind":"road","id":"road-294603267-0","name":"F251","osmWay":294603267,"major":true,"bridge":false},"geometry":{"type":"LineString","coordinates":[[11.140727,10.2872217],[11.1404216,10.2861762]]}},{"type":"Feature","properties":{"kind":"road","id":"road-294605398-0","name":"Gombe - Biu Road","osmWay":294605398,"major":true,"bridge":false},"geometry":{"type":"LineString","coordinates":[[11.1896641,10.2779554],[11.1873544,10.2790454],[11.1857572,10.2795727],[11.1836895,10.2799749],[11.1807638,10.2802954]]}},{"type":"Feature","properties":{"kind":"road","id":"road-294605399-0","name":"Gombe - Biu Road","osmWay":294605399,"major":true,"bridge":true},"geometry":{"type":"LineString","coordinates":[[11.1896156,10.27786],[11.1896755,10.2778348]]}},{"type":"Feature","properties":{"kind":"road","id":"road-294605404-0","name":"Gombe - Biu Road","osmWay":294605404,"major":true,"bridge":true},"geometry":{"type":"LineString","coordinates":[[11.1897253,10.2779305],[11.1896641,10.2779554]]}},{"type":"Feature","properties":{"kind":"road","id":"road-294605407-0","name":"Gombe - Biu Road","osmWay":294605407,"major":true,"bridge":false},"geometry":{"type":"LineString","coordinates":[[11.1896755,10.2778348],[11.1909963,10.2774405],[11.1922404,10.2773314],[11.1962279,10.2777153]]}},{"type":"Feature","properties":{"kind":"road","id":"road-294605408-0","name":"Gombe - Biu Road","osmWay":294605408,"major":true,"bridge":false},"geometry":{"type":"LineString","coordinates":[[11.1971709,10.2778752],[11.1922126,10.2774323],[11.1910228,10.2775426],[11.1897253,10.2779305]]}},{"type":"Feature","properties":{"kind":"road","id":"road-294605409-0","name":"Gombe - Biu Road","osmWay":294605409,"major":true,"bridge":false},"geometry":{"type":"LineString","coordinates":[[11.1660667,10.2873325],[11.1660172,10.2872133]]}},{"type":"Feature","properties":{"kind":"road","id":"road-294605410-0","name":"Gombe - Biu Road","osmWay":294605410,"major":true,"bridge":false},"geometry":{"type":"LineString","coordinates":[[11.1665023,10.28706],[11.1665344,10.2871776]]}},{"type":"Feature","properties":{"kind":"road","id":"road-294605418-0","name":"Gombe - Biu Road","osmWay":294605418,"major":true,"bridge":false},"geometry":{"type":"LineString","coordinates":[[11.1660172,10.2872133],[11.1661955,10.2869362],[11.1665023,10.28706]]}},{"type":"Feature","properties":{"kind":"road","id":"road-294605419-0","name":"Unnamed mapped tertiary","osmWay":294605419,"major":false,"bridge":false},"geometry":{"type":"LineString","coordinates":[[11.1704558,10.285662],[11.1705581,10.2869564],[11.170449,10.2887696]]}},{"type":"Feature","properties":{"kind":"road","id":"road-294605420-0","name":"Unnamed mapped tertiary","osmWay":294605420,"major":false,"bridge":false},"geometry":{"type":"LineString","coordinates":[[11.1711693,10.2943759],[11.1703473,10.2889223]]}},{"type":"Feature","properties":{"kind":"road","id":"road-294605422-0","name":"Unnamed mapped tertiary","osmWay":294605422,"major":false,"bridge":false},"geometry":{"type":"LineString","coordinates":[[11.1909699,10.2713323],[11.1894112,10.2738082],[11.1892088,10.2748435],[11.1891724,10.2768254]]}},{"type":"Feature","properties":{"kind":"road","id":"road-294605422-1","name":"Unnamed mapped tertiary","osmWay":294605422,"major":false,"bridge":false},"geometry":{"type":"LineString","coordinates":[[11.1925817,10.2725179],[11.1914372,10.2716454]]}},{"type":"Feature","properties":{"kind":"road","id":"road-294605422-2","name":"Unnamed mapped tertiary","osmWay":294605422,"major":false,"bridge":false},"geometry":{"type":"LineString","coordinates":[[11.195176,10.2755932],[11.194416,10.2743661]]}},{"type":"Feature","properties":{"kind":"road","id":"road-294605422-3","name":"Unnamed mapped tertiary","osmWay":294605422,"major":false,"bridge":false},"geometry":{"type":"LineString","coordinates":[[11.1959451,10.2767923],[11.1958946,10.276719]]}},{"type":"Feature","properties":{"kind":"road","id":"road-294605424-0","name":"Unnamed mapped primary_link","osmWay":294605424,"major":false,"bridge":false},"geometry":{"type":"LineString","coordinates":[[11.1829634,10.2799362],[11.1829804,10.2800502]]}},{"type":"Feature","properties":{"kind":"road","id":"road-294605427-0","name":"Unnamed mapped primary_link","osmWay":294605427,"major":false,"bridge":false},"geometry":{"type":"LineString","coordinates":[[11.1583155,10.2879934],[11.1583687,10.2879187]]}},{"type":"Feature","properties":{"kind":"road","id":"road-294605429-0","name":"Unnamed mapped primary_link","osmWay":294605429,"major":false,"bridge":false},"geometry":{"type":"LineString","coordinates":[[11.1636928,10.287811],[11.1637131,10.2878999]]}},{"type":"Feature","properties":{"kind":"road","id":"road-294605431-0","name":"Unnamed mapped tertiary","osmWay":294605431,"major":false,"bridge":true},"geometry":{"type":"LineString","coordinates":[[11.1960412,10.2769209],[11.1959451,10.2767923]]}},{"type":"Feature","properties":{"kind":"road","id":"road-294605433-0","name":"Unnamed mapped primary_link","osmWay":294605433,"major":false,"bridge":false},"geometry":{"type":"LineString","coordinates":[[11.1599054,10.2883941],[11.1599052,10.288305]]}},{"type":"Feature","properties":{"kind":"road","id":"road-294605438-0","name":"Unnamed mapped tertiary","osmWay":294605438,"major":false,"bridge":true},"geometry":{"type":"LineString","coordinates":[[11.1891724,10.2768254],[11.1891746,10.2768984]]}},{"type":"Feature","properties":{"kind":"road","id":"road-294605439-0","name":"Unnamed mapped tertiary","osmWay":294605439,"major":false,"bridge":false},"geometry":{"type":"LineString","coordinates":[[11.1622256,10.2882554],[11.1618424,10.2901172],[11.1616733,10.2921834],[11.161762,10.2923004],[11.1640623,10.2918769],[11.1659052,10.2917737],[11.1666328,10.2909646],[11.1673704,10.2906603]]}},{"type":"Feature","properties":{"kind":"road","id":"road-294605441-0","name":"Sabon Line Street","osmWay":294605441,"major":false,"bridge":false},"geometry":{"type":"LineString","coordinates":[[11.1732275,10.2832345],[11.1726047,10.2818423],[11.1721128,10.2802693],[11.1716893,10.2760156],[11.170764,10.2729913],[11.1713675,10.2710099],[11.1717345,10.268923],[11.1726244,10.2676385],[11.1732379,10.2663051],[11.1737438,10.2636617]]}},{"type":"Feature","properties":{"kind":"road","id":"road-294605443-0","name":"point one kwanan Alheri, Gona Div","osmWay":294605443,"major":false,"bridge":false},"geometry":{"type":"LineString","coordinates":[[11.1891746,10.2768984],[11.1894143,10.2780664]]}},{"type":"Feature","properties":{"kind":"road","id":"road-294605444-0","name":"Unnamed mapped tertiary","osmWay":294605444,"major":false,"bridge":false},"geometry":{"type":"LineString","coordinates":[[11.1962212,10.2776086],[11.1961324,10.2771408]]}},{"type":"Feature","properties":{"kind":"road","id":"road-294605444-1","name":"Unnamed mapped tertiary","osmWay":294605444,"major":false,"bridge":false},"geometry":{"type":"LineString","coordinates":[[11.1962556,10.2778226],[11.1962467,10.2777587]]}},{"type":"Feature","properties":{"kind":"road","id":"road-392730000-0","name":"Unnamed mapped tertiary","osmWay":392730000,"major":false,"bridge":false},"geometry":{"type":"LineString","coordinates":[[11.1707801,10.2854254],[11.1709144,10.2855494],[11.1720793,10.285462],[11.1725613,10.2855502]]}},{"type":"Feature","properties":{"kind":"road","id":"road-392730003-0","name":"KASUWAN MATA ROAD","osmWay":392730003,"major":false,"bridge":false},"geometry":{"type":"LineString","coordinates":[[11.162365,10.3025366],[11.162867,10.3030003],[11.1642594,10.3034346],[11.1703953,10.3033776]]}},{"type":"Feature","properties":{"kind":"road","id":"road-392737910-0","name":"Unnamed mapped secondary","osmWay":392737910,"major":false,"bridge":false},"geometry":{"type":"LineString","coordinates":[[11.1817684,10.2660226],[11.1812282,10.2682199],[11.1809505,10.2708961],[11.1802116,10.2750753],[11.1804644,10.2787832]]}},{"type":"Feature","properties":{"kind":"road","id":"road-393818751-0","name":"Unnamed mapped tertiary","osmWay":393818751,"major":false,"bridge":false},"geometry":{"type":"LineString","coordinates":[[11.1744019,10.3113212],[11.1727752,10.3091576]]}},{"type":"Feature","properties":{"kind":"road","id":"road-393905551-0","name":"Unnamed mapped tertiary","osmWay":393905551,"major":false,"bridge":false},"geometry":{"type":"LineString","coordinates":[[11.1776787,10.2933398],[11.1777129,10.2916545]]}},{"type":"Feature","properties":{"kind":"road","id":"road-394107165-0","name":"Unnamed mapped tertiary","osmWay":394107165,"major":false,"bridge":false},"geometry":{"type":"LineString","coordinates":[[11.1775939,10.2908768],[11.176903,10.2861053],[11.1725613,10.2855502]]}},{"type":"Feature","properties":{"kind":"road","id":"road-394107178-0","name":"Unnamed mapped tertiary","osmWay":394107178,"major":false,"bridge":true},"geometry":{"type":"LineString","coordinates":[[11.1776018,10.2910871],[11.1775939,10.2908768]]}},{"type":"Feature","properties":{"kind":"road","id":"road-432804306-0","name":"Unnamed mapped tertiary","osmWay":432804306,"major":false,"bridge":false},"geometry":{"type":"LineString","coordinates":[[11.1698485,10.3006817],[11.1703277,10.3022944],[11.170511,10.3050303],[11.1713244,10.3070355],[11.1727752,10.3091576]]}},{"type":"Feature","properties":{"kind":"road","id":"road-432804308-0","name":"Unnamed mapped tertiary","osmWay":432804308,"major":false,"bridge":false},"geometry":{"type":"LineString","coordinates":[[11.1727752,10.3091576],[11.1713665,10.3072618],[11.1704402,10.3050941],[11.1702567,10.3024704],[11.1697696,10.3007093]]}},{"type":"Feature","properties":{"kind":"road","id":"road-432804316-0","name":"Shehu Abubakar Road","osmWay":432804316,"major":false,"bridge":false},"geometry":{"type":"LineString","coordinates":[[11.1687783,10.2944523],[11.1718066,10.2942176],[11.1754425,10.2937907],[11.1776787,10.2933398],[11.1791922,10.2932341],[11.1795051,10.2930985],[11.1798577,10.2926919],[11.179785,10.2920763]]}},{"type":"Feature","properties":{"kind":"road","id":"road-432804317-0","name":"Unnamed mapped secondary","osmWay":432804317,"major":false,"bridge":false},"geometry":{"type":"LineString","coordinates":[[11.1798637,10.2920716],[11.1799228,10.292822],[11.1797103,10.2930862],[11.1792497,10.2933267],[11.1778623,10.2934337],[11.1754361,10.2939255],[11.1687757,10.2945467]]}},{"type":"Feature","properties":{"kind":"road","id":"road-432804326-0","name":"Unnamed mapped secondary","osmWay":432804326,"major":false,"bridge":false},"geometry":{"type":"LineString","coordinates":[[11.1807603,10.2817045],[11.1812517,10.2849593],[11.1811346,10.2862814]]}},{"type":"Feature","properties":{"kind":"road","id":"road-432804327-0","name":"Unnamed mapped secondary","osmWay":432804327,"major":false,"bridge":false},"geometry":{"type":"LineString","coordinates":[[11.180992,10.2862736],[11.1811475,10.2849618],[11.1806661,10.2817011]]}},{"type":"Feature","properties":{"kind":"road","id":"road-453269103-0","name":"Dukku road","osmWay":453269103,"major":false,"bridge":false},"geometry":{"type":"LineString","coordinates":[[11.1290723,10.3288288],[11.1277346,10.3314737]]}},{"type":"Feature","properties":{"kind":"road","id":"road-453269103-1","name":"Dukku road","osmWay":453269103,"major":false,"bridge":false},"geometry":{"type":"LineString","coordinates":[[11.1359989,10.3197643],[11.135258,10.3207197]]}},{"type":"Feature","properties":{"kind":"road","id":"road-453269103-2","name":"Dukku road","osmWay":453269103,"major":false,"bridge":false},"geometry":{"type":"LineString","coordinates":[[11.1389124,10.3163869],[11.1378656,10.3174148]]}},{"type":"Feature","properties":{"kind":"road","id":"road-453269103-3","name":"Dukku road","osmWay":453269103,"major":false,"bridge":false},"geometry":{"type":"LineString","coordinates":[[11.1408573,10.314719],[11.1400791,10.3153794]]}},{"type":"Feature","properties":{"kind":"road","id":"road-453269105-0","name":"Unnamed mapped secondary","osmWay":453269105,"major":false,"bridge":false},"geometry":{"type":"LineString","coordinates":[[11.1424661,10.3133774],[11.1441349,10.31183]]}},{"type":"Feature","properties":{"kind":"road","id":"road-453269106-0","name":"F251","osmWay":453269106,"major":true,"bridge":false},"geometry":{"type":"LineString","coordinates":[[11.1433118,10.3093203],[11.1440903,10.3111774],[11.1443958,10.311593]]}},{"type":"Feature","properties":{"kind":"road","id":"road-453269107-0","name":"F251","osmWay":453269107,"major":true,"bridge":false},"geometry":{"type":"LineString","coordinates":[[11.145601,10.314317],[11.1455337,10.3142227]]}},{"type":"Feature","properties":{"kind":"road","id":"road-520295755-0","name":"Unnamed mapped secondary","osmWay":520295755,"major":false,"bridge":false},"geometry":{"type":"LineString","coordinates":[[11.1615536,10.3006384],[11.1601232,10.3013421],[11.1569381,10.3024715],[11.1554947,10.3033341],[11.1536162,10.3046394],[11.1468221,10.3098474],[11.1448129,10.3115042],[11.1445937,10.3118165]]}},{"type":"Feature","properties":{"kind":"road","id":"road-520295760-0","name":"Unnamed mapped secondary","osmWay":520295760,"major":false,"bridge":false},"geometry":{"type":"LineString","coordinates":[[11.1444357,10.3116002],[11.152263,10.3055512],[11.1558726,10.3029944],[11.1575255,10.302139],[11.1609641,10.3009145],[11.161361,10.3004766]]}},{"type":"Feature","properties":{"kind":"road","id":"road-520295764-0","name":"Gombe - Potiskum Road; Ashaka Bajago Road","osmWay":520295764,"major":true,"bridge":false},"geometry":{"type":"LineString","coordinates":[[11.145601,10.314317],[11.1459364,10.3151118]]}},{"type":"Feature","properties":{"kind":"road","id":"road-520295768-0","name":"F251","osmWay":520295768,"major":true,"bridge":false},"geometry":{"type":"LineString","coordinates":[[11.1441649,10.3117056],[11.1433118,10.3093203]]}},{"type":"Feature","properties":{"kind":"road","id":"road-520295770-0","name":"F251","osmWay":520295770,"major":true,"bridge":false},"geometry":{"type":"LineString","coordinates":[[11.1445557,10.3119345],[11.145601,10.314317]]}},{"type":"Feature","properties":{"kind":"road","id":"road-556770258-0","name":"Unnamed mapped tertiary","osmWay":556770258,"major":false,"bridge":false},"geometry":{"type":"LineString","coordinates":[[11.1902345,10.2706818],[11.1901879,10.2705487]]}},{"type":"Feature","properties":{"kind":"road","id":"road-556770258-1","name":"Unnamed mapped tertiary","osmWay":556770258,"major":false,"bridge":false},"geometry":{"type":"LineString","coordinates":[[11.1907216,10.2711525],[11.1905581,10.2710332]]}},{"type":"Feature","properties":{"kind":"road","id":"road-557054927-0","name":"Unnamed mapped tertiary","osmWay":557054927,"major":false,"bridge":false},"geometry":{"type":"LineString","coordinates":[[11.1573501,10.2708486],[11.1574864,10.2705561]]}},{"type":"Feature","properties":{"kind":"road","id":"road-557642166-0","name":"Unnamed mapped tertiary","osmWay":557642166,"major":false,"bridge":false},"geometry":{"type":"LineString","coordinates":[[11.136394,10.2794278],[11.1376344,10.2793005]]}},{"type":"Feature","properties":{"kind":"road","id":"road-557642166-1","name":"Unnamed mapped tertiary","osmWay":557642166,"major":false,"bridge":false},"geometry":{"type":"LineString","coordinates":[[11.1464836,10.278416],[11.1465136,10.2784001]]}},{"type":"Feature","properties":{"kind":"road","id":"road-557642166-2","name":"Unnamed mapped tertiary","osmWay":557642166,"major":false,"bridge":false},"geometry":{"type":"LineString","coordinates":[[11.1466253,10.2783024],[11.1466852,10.2781751]]}},{"type":"Feature","properties":{"kind":"road","id":"road-557642166-3","name":"Unnamed mapped tertiary","osmWay":557642166,"major":false,"bridge":false},"geometry":{"type":"LineString","coordinates":[[11.1468353,10.2778558],[11.1468917,10.2778005]]}},{"type":"Feature","properties":{"kind":"road","id":"road-557642166-4","name":"Unnamed mapped tertiary","osmWay":557642166,"major":false,"bridge":false},"geometry":{"type":"LineString","coordinates":[[11.1470944,10.2776969],[11.1497277,10.2776164]]}},{"type":"Feature","properties":{"kind":"road","id":"road-557701820-0","name":"F251","osmWay":557701820,"major":true,"bridge":false},"geometry":{"type":"LineString","coordinates":[[11.1408578,10.2861317],[11.140727,10.2872217]]}},{"type":"Feature","properties":{"kind":"road","id":"road-557718042-0","name":"Unnamed mapped tertiary","osmWay":557718042,"major":false,"bridge":false},"geometry":{"type":"LineString","coordinates":[[11.1588459,10.2882765],[11.1589322,10.2882106]]}},{"type":"Feature","properties":{"kind":"road","id":"road-557940647-0","name":"Unnamed mapped tertiary","osmWay":557940647,"major":false,"bridge":true},"geometry":{"type":"LineString","coordinates":[[11.158766,10.2842516],[11.1587662,10.28415]]}},{"type":"Feature","properties":{"kind":"road","id":"road-557940648-0","name":"Unnamed mapped tertiary","osmWay":557940648,"major":false,"bridge":false},"geometry":{"type":"LineString","coordinates":[[11.1581863,10.2877845],[11.158766,10.2842516]]}},{"type":"Feature","properties":{"kind":"road","id":"road-557940651-0","name":"Unnamed mapped tertiary","osmWay":557940651,"major":false,"bridge":false},"geometry":{"type":"LineString","coordinates":[[11.1543008,10.2942946],[11.1545254,10.2939898],[11.1554615,10.2937206],[11.155609,10.2933934],[11.1556744,10.2924265],[11.1559099,10.2920892],[11.1572881,10.2916833],[11.1575161,10.2915091],[11.1588459,10.2882765]]}},{"type":"Feature","properties":{"kind":"road","id":"road-557940652-0","name":"Unnamed mapped tertiary","osmWay":557940652,"major":false,"bridge":true},"geometry":{"type":"LineString","coordinates":[[11.1542961,10.2943896],[11.1543008,10.2942946]]}},{"type":"Feature","properties":{"kind":"road","id":"road-559621008-0","name":"Unnamed mapped primary_link","osmWay":559621008,"major":false,"bridge":false},"geometry":{"type":"LineString","coordinates":[[11.1539516,10.2838608],[11.1539118,10.2839534]]}},{"type":"Feature","properties":{"kind":"road","id":"road-559623652-0","name":"Unnamed mapped tertiary","osmWay":559623652,"major":false,"bridge":true},"geometry":{"type":"LineString","coordinates":[[11.1697696,10.3007093],[11.1697172,10.3004691]]}},{"type":"Feature","properties":{"kind":"road","id":"road-559623653-0","name":"Unnamed mapped tertiary","osmWay":559623653,"major":false,"bridge":false},"geometry":{"type":"LineString","coordinates":[[11.1697172,10.3004691],[11.1688246,10.2954684]]}},{"type":"Feature","properties":{"kind":"road","id":"road-559623654-0","name":"Unnamed mapped tertiary","osmWay":559623654,"major":false,"bridge":true},"geometry":{"type":"LineString","coordinates":[[11.1698144,10.3004743],[11.1698485,10.3006817]]}},{"type":"Feature","properties":{"kind":"road","id":"road-559623655-0","name":"Unnamed mapped tertiary","osmWay":559623655,"major":false,"bridge":false},"geometry":{"type":"LineString","coordinates":[[11.1689085,10.2954455],[11.1698144,10.3004743]]}},{"type":"Feature","properties":{"kind":"road","id":"road-559623672-0","name":"Unnamed mapped tertiary","osmWay":559623672,"major":false,"bridge":true},"geometry":{"type":"LineString","coordinates":[[11.1688919,10.2953449],[11.1689085,10.2954455]]}},{"type":"Feature","properties":{"kind":"road","id":"road-559623673-0","name":"GSU ROAD","osmWay":559623673,"major":false,"bridge":false},"geometry":{"type":"LineString","coordinates":[[11.1687542,10.294573],[11.1688919,10.2953449]]}},{"type":"Feature","properties":{"kind":"road","id":"road-559623674-0","name":"Unnamed mapped tertiary","osmWay":559623674,"major":false,"bridge":true},"geometry":{"type":"LineString","coordinates":[[11.1688246,10.2954684],[11.1688098,10.2953869]]}},{"type":"Feature","properties":{"kind":"road","id":"road-559623675-0","name":"Unnamed mapped tertiary","osmWay":559623675,"major":false,"bridge":false},"geometry":{"type":"LineString","coordinates":[[11.1688098,10.2953869],[11.1686574,10.2945944]]}},{"type":"Feature","properties":{"kind":"road","id":"road-559630814-0","name":"Unnamed mapped tertiary","osmWay":559630814,"major":false,"bridge":true},"geometry":{"type":"LineString","coordinates":[[11.1623224,10.3024216],[11.162365,10.3025366]]}},{"type":"Feature","properties":{"kind":"road","id":"road-559630815-0","name":"Unnamed mapped tertiary","osmWay":559630815,"major":false,"bridge":false},"geometry":{"type":"LineString","coordinates":[[11.1620213,10.3013842],[11.1623224,10.3024216]]}},{"type":"Feature","properties":{"kind":"road","id":"road-559678807-0","name":"Unnamed mapped secondary","osmWay":559678807,"major":false,"bridge":false},"geometry":{"type":"LineString","coordinates":[[11.1804159,10.2800496],[11.1803598,10.2788286]]}},{"type":"Feature","properties":{"kind":"road","id":"road-559678811-0","name":"Unnamed mapped secondary","osmWay":559678811,"major":false,"bridge":false},"geometry":{"type":"LineString","coordinates":[[11.1804644,10.2787832],[11.180578,10.2800212]]}},{"type":"Feature","properties":{"kind":"road","id":"road-559678813-0","name":"Unnamed mapped secondary_link","osmWay":559678813,"major":false,"bridge":false},"geometry":{"type":"LineString","coordinates":[[11.1811118,10.2846125],[11.1812109,10.2846122]]}},{"type":"Feature","properties":{"kind":"road","id":"road-559678815-0","name":"Unnamed mapped secondary_link","osmWay":559678815,"major":false,"bridge":false},"geometry":{"type":"LineString","coordinates":[[11.1803142,10.2906903],[11.1801057,10.2908001]]}},{"type":"Feature","properties":{"kind":"road","id":"road-559678817-0","name":"Unnamed mapped secondary_link","osmWay":559678817,"major":false,"bridge":false},"geometry":{"type":"LineString","coordinates":[[11.1801973,10.2904776],[11.1803336,10.2906389]]}},{"type":"Feature","properties":{"kind":"road","id":"road-559678819-0","name":"Unnamed mapped secondary_link","osmWay":559678819,"major":false,"bridge":false},"geometry":{"type":"LineString","coordinates":[[11.1671383,10.2903018],[11.1672364,10.2902864]]}},{"type":"Feature","properties":{"kind":"road","id":"road-559678821-0","name":"Unnamed mapped secondary_link","osmWay":559678821,"major":false,"bridge":false},"geometry":{"type":"LineString","coordinates":[[11.1668292,10.2893397],[11.1669282,10.2893354]]}},{"type":"Feature","properties":{"kind":"road","id":"road-559678822-0","name":"Unnamed mapped secondary_link","osmWay":559678822,"major":false,"bridge":false},"geometry":{"type":"LineString","coordinates":[[11.1666854,10.2888693],[11.1668003,10.2888566]]}},{"type":"Feature","properties":{"kind":"road","id":"road-559683396-0","name":"Unnamed mapped tertiary","osmWay":559683396,"major":false,"bridge":false},"geometry":{"type":"LineString","coordinates":[[11.1776898,10.2915065],[11.1776018,10.2910871]]}},{"type":"Feature","properties":{"kind":"road","id":"road-559683399-0","name":"Unnamed mapped tertiary","osmWay":559683399,"major":false,"bridge":false},"geometry":{"type":"LineString","coordinates":[[11.1777129,10.2916545],[11.1776898,10.2915065]]}},{"type":"Feature","properties":{"kind":"road","id":"road-559683467-0","name":"Unnamed mapped tertiary","osmWay":559683467,"major":false,"bridge":false},"geometry":{"type":"LineString","coordinates":[[11.1708952,10.291868],[11.1712641,10.2943614]]}},{"type":"Feature","properties":{"kind":"road","id":"road-559947648-0","name":"Unnamed mapped secondary","osmWay":559947648,"major":false,"bridge":true},"geometry":{"type":"LineString","coordinates":[[11.179785,10.2920763],[11.1797616,10.2919011]]}},{"type":"Feature","properties":{"kind":"road","id":"road-559947649-0","name":"Unnamed mapped secondary","osmWay":559947649,"major":false,"bridge":true},"geometry":{"type":"LineString","coordinates":[[11.1798437,10.2919016],[11.1798637,10.2920716]]}},{"type":"Feature","properties":{"kind":"road","id":"road-559947650-0","name":"Unnamed mapped secondary","osmWay":559947650,"major":false,"bridge":false},"geometry":{"type":"LineString","coordinates":[[11.1810998,10.2865752],[11.1809925,10.2874652],[11.1798437,10.2919016]]}},{"type":"Feature","properties":{"kind":"road","id":"road-559947651-0","name":"Unnamed mapped secondary","osmWay":559947651,"major":false,"bridge":false},"geometry":{"type":"LineString","coordinates":[[11.1797616,10.2919011],[11.180829,10.2877983],[11.1809987,10.2865714]]}},{"type":"Feature","properties":{"kind":"road","id":"road-559960377-0","name":"Unnamed mapped secondary","osmWay":559960377,"major":false,"bridge":true},"geometry":{"type":"LineString","coordinates":[[11.1806661,10.2817011],[11.1806419,10.2815745]]}},{"type":"Feature","properties":{"kind":"road","id":"road-559960378-0","name":"Unnamed mapped secondary","osmWay":559960378,"major":false,"bridge":false},"geometry":{"type":"LineString","coordinates":[[11.1806419,10.2815745],[11.1804853,10.280472]]}},{"type":"Feature","properties":{"kind":"road","id":"road-559960379-0","name":"Unnamed mapped secondary","osmWay":559960379,"major":false,"bridge":true},"geometry":{"type":"LineString","coordinates":[[11.1807391,10.2815827],[11.1807603,10.2817045]]}},{"type":"Feature","properties":{"kind":"road","id":"road-559960380-0","name":"Unnamed mapped secondary","osmWay":559960380,"major":false,"bridge":false},"geometry":{"type":"LineString","coordinates":[[11.1806385,10.2804536],[11.1807391,10.2815827]]}},{"type":"Feature","properties":{"kind":"road","id":"road-559960393-0","name":"Unnamed mapped secondary","osmWay":559960393,"major":false,"bridge":true},"geometry":{"type":"LineString","coordinates":[[11.165706,10.2842026],[11.1657291,10.2842934]]}},{"type":"Feature","properties":{"kind":"road","id":"road-559960394-0","name":"Unnamed mapped secondary","osmWay":559960394,"major":false,"bridge":false},"geometry":{"type":"LineString","coordinates":[[11.1655777,10.28356],[11.165706,10.2842026]]}},{"type":"Feature","properties":{"kind":"road","id":"road-559960395-0","name":"Unnamed mapped secondary","osmWay":559960395,"major":false,"bridge":true},"geometry":{"type":"LineString","coordinates":[[11.1656631,10.2843183],[11.1656402,10.2842319]]}},{"type":"Feature","properties":{"kind":"road","id":"road-559960396-0","name":"Unnamed mapped secondary","osmWay":559960396,"major":false,"bridge":false},"geometry":{"type":"LineString","coordinates":[[11.1656402,10.2842319],[11.1654229,10.2835998]]}},{"type":"Feature","properties":{"kind":"road","id":"road-559960397-0","name":"Unnamed mapped tertiary_link","osmWay":559960397,"major":false,"bridge":false},"geometry":{"type":"LineString","coordinates":[[11.1704045,10.2858494],[11.1705102,10.2858169]]}},{"type":"Feature","properties":{"kind":"road","id":"road-559960398-0","name":"Pantami Road","osmWay":559960398,"major":false,"bridge":false},"geometry":{"type":"LineString","coordinates":[[11.1661356,10.2783871],[11.1660991,10.2785118]]}},{"type":"Feature","properties":{"kind":"road","id":"road-559960399-0","name":"Pantami Road","osmWay":559960399,"major":false,"bridge":false},"geometry":{"type":"LineString","coordinates":[[11.1673025,10.2750097],[11.1671086,10.2761806],[11.1661356,10.2783871]]}},{"type":"Feature","properties":{"kind":"road","id":"road-559960400-0","name":"Pantami Road","osmWay":559960400,"major":false,"bridge":false},"geometry":{"type":"LineString","coordinates":[[11.1660411,10.2783596],[11.1670206,10.2761552],[11.1673025,10.2750097]]}},{"type":"Feature","properties":{"kind":"road","id":"road-559960401-0","name":"Pantami Road","osmWay":559960401,"major":false,"bridge":false},"geometry":{"type":"LineString","coordinates":[[11.166011,10.2784822],[11.1660411,10.2783596]]}},{"type":"Feature","properties":{"kind":"road","id":"road-559960411-0","name":"Unnamed mapped tertiary","osmWay":559960411,"major":false,"bridge":true},"geometry":{"type":"LineString","coordinates":[[11.170449,10.2887696],[11.1704618,10.2889151]]}},{"type":"Feature","properties":{"kind":"road","id":"road-559960412-0","name":"Unnamed mapped tertiary","osmWay":559960412,"major":false,"bridge":false},"geometry":{"type":"LineString","coordinates":[[11.1704618,10.2889151],[11.1708952,10.291868]]}},{"type":"Feature","properties":{"kind":"road","id":"road-559960413-0","name":"Unnamed mapped tertiary","osmWay":559960413,"major":false,"bridge":true},"geometry":{"type":"LineString","coordinates":[[11.1703473,10.2889223],[11.1703358,10.2887773]]}},{"type":"Feature","properties":{"kind":"road","id":"road-559960414-0","name":"Unnamed mapped tertiary","osmWay":559960414,"major":false,"bridge":false},"geometry":{"type":"LineString","coordinates":[[11.1703358,10.2887773],[11.170444,10.2869633],[11.1703555,10.2857229]]}},{"type":"Feature","properties":{"kind":"road","id":"road-559960422-0","name":"Gombe - Biu Road","osmWay":559960422,"major":true,"bridge":true},"geometry":{"type":"LineString","coordinates":[[11.1730638,10.283353],[11.173178,10.2832703]]}},{"type":"Feature","properties":{"kind":"road","id":"road-559960423-0","name":"Gombe - Biu Road","osmWay":559960423,"major":true,"bridge":true},"geometry":{"type":"LineString","coordinates":[[11.1732308,10.2833522],[11.1731298,10.2834214]]}},{"type":"Feature","properties":{"kind":"road","id":"road-559960424-0","name":"Gombe - Biu Road","osmWay":559960424,"major":true,"bridge":false},"geometry":{"type":"LineString","coordinates":[[11.1731298,10.2834214],[11.1704558,10.285662]]}},{"type":"Feature","properties":{"kind":"road","id":"road-559960425-0","name":"Gombe - Biu Road","osmWay":559960425,"major":true,"bridge":false},"geometry":{"type":"LineString","coordinates":[[11.1665023,10.28706],[11.1685926,10.2863639],[11.1702896,10.2856373]]}},{"type":"Feature","properties":{"kind":"road","id":"road-559960427-0","name":"Unnamed mapped secondary","osmWay":559960427,"major":false,"bridge":true},"geometry":{"type":"LineString","coordinates":[[11.1674988,10.2912925],[11.1674692,10.2912046]]}},{"type":"Feature","properties":{"kind":"road","id":"road-559960428-0","name":"Unnamed mapped secondary","osmWay":559960428,"major":false,"bridge":false},"geometry":{"type":"LineString","coordinates":[[11.1674692,10.2912046],[11.1663052,10.2874355]]}},{"type":"Feature","properties":{"kind":"road","id":"road-559960429-0","name":"Unnamed mapped secondary","osmWay":559960429,"major":false,"bridge":false},"geometry":{"type":"LineString","coordinates":[[11.1675821,10.291258],[11.1677982,10.2919558],[11.167812,10.2924998],[11.1674187,10.2935624]]}},{"type":"Feature","properties":{"kind":"road","id":"road-559974931-0","name":"Unnamed mapped tertiary","osmWay":559974931,"major":false,"bridge":false},"geometry":{"type":"LineString","coordinates":[[11.1585866,10.2818576],[11.158898,10.2794378]]}},{"type":"Feature","properties":{"kind":"road","id":"road-559974932-0","name":"Unnamed mapped tertiary","osmWay":559974932,"major":false,"bridge":false},"geometry":{"type":"LineString","coordinates":[[11.1585879,10.2819145],[11.1585866,10.2818576]]}},{"type":"Feature","properties":{"kind":"road","id":"road-559974934-0","name":"Gombe - Biu Road","osmWay":559974934,"major":true,"bridge":false},"geometry":{"type":"LineString","coordinates":[[11.153289,10.2835379],[11.1533861,10.2835655]]}},{"type":"Feature","properties":{"kind":"road","id":"road-559974935-0","name":"Gombe - Biu Road","osmWay":559974935,"major":true,"bridge":false},"geometry":{"type":"LineString","coordinates":[[11.1408459,10.2860274],[11.1467453,10.2848897],[11.152285,10.2835265],[11.1527991,10.2834459],[11.153289,10.2835379]]}},{"type":"Feature","properties":{"kind":"road","id":"road-559974936-0","name":"Gombe - Biu Road","osmWay":559974936,"major":true,"bridge":false},"geometry":{"type":"LineString","coordinates":[[11.1532514,10.2836371],[11.1523816,10.2836168],[11.1467642,10.2849926],[11.1402018,10.2862028]]}},{"type":"Feature","properties":{"kind":"road","id":"road-559974937-0","name":"Gombe - Biu Road","osmWay":559974937,"major":true,"bridge":false},"geometry":{"type":"LineString","coordinates":[[11.1533364,10.2836649],[11.1532514,10.2836371]]}},{"type":"Feature","properties":{"kind":"road","id":"road-559974938-0","name":"Unnamed mapped secondary","osmWay":559974938,"major":false,"bridge":false},"geometry":{"type":"LineString","coordinates":[[11.1532514,10.2836371],[11.153289,10.2835379]]}},{"type":"Feature","properties":{"kind":"road","id":"road-559974939-0","name":"Unnamed mapped secondary","osmWay":559974939,"major":false,"bridge":false},"geometry":{"type":"LineString","coordinates":[[11.1533861,10.2835655],[11.1533364,10.2836649]]}},{"type":"Feature","properties":{"kind":"road","id":"road-559974941-0","name":"Unnamed mapped tertiary","osmWay":559974941,"major":false,"bridge":false},"geometry":{"type":"LineString","coordinates":[[11.1703555,10.2857229],[11.1702896,10.2856373]]}},{"type":"Feature","properties":{"kind":"road","id":"road-559974942-0","name":"Unnamed mapped tertiary","osmWay":559974942,"major":false,"bridge":false},"geometry":{"type":"LineString","coordinates":[[11.1703725,10.2855852],[11.1704558,10.285662]]}},{"type":"Feature","properties":{"kind":"road","id":"road-559974943-0","name":"Gombe - Biu Road","osmWay":559974943,"major":true,"bridge":false},"geometry":{"type":"LineString","coordinates":[[11.1703555,10.2857229],[11.1665344,10.2871776]]}},{"type":"Feature","properties":{"kind":"road","id":"road-559974944-0","name":"Gombe - Biu Road","osmWay":559974944,"major":true,"bridge":false},"geometry":{"type":"LineString","coordinates":[[11.1704558,10.285662],[11.1703555,10.2857229]]}},{"type":"Feature","properties":{"kind":"road","id":"road-559974945-0","name":"Gombe - Biu Road","osmWay":559974945,"major":true,"bridge":false},"geometry":{"type":"LineString","coordinates":[[11.1703725,10.2855852],[11.1730638,10.283353]]}},{"type":"Feature","properties":{"kind":"road","id":"road-559974946-0","name":"Gombe - Biu Road","osmWay":559974946,"major":true,"bridge":false},"geometry":{"type":"LineString","coordinates":[[11.1702896,10.2856373],[11.1703725,10.2855852]]}},{"type":"Feature","properties":{"kind":"road","id":"road-559974947-0","name":"SABON LINE STREET","osmWay":559974947,"major":false,"bridge":false},"geometry":{"type":"LineString","coordinates":[[11.1732779,10.2833199],[11.1732275,10.2832345]]}},{"type":"Feature","properties":{"kind":"road","id":"road-559974948-0","name":"Unnamed mapped secondary","osmWay":559974948,"major":false,"bridge":true},"geometry":{"type":"LineString","coordinates":[[11.1675472,10.2911631],[11.1675821,10.291258]]}},{"type":"Feature","properties":{"kind":"road","id":"road-592031294-0","name":"Unnamed mapped primary","osmWay":592031294,"major":true,"bridge":false},"geometry":{"type":"LineString","coordinates":[[11.1404216,10.2861762],[11.140407,10.2860829]]}},{"type":"Feature","properties":{"kind":"road","id":"road-592031295-0","name":"F251","osmWay":592031295,"major":true,"bridge":false},"geometry":{"type":"LineString","coordinates":[[11.1408459,10.2860274],[11.1408578,10.2861317]]}},{"type":"Feature","properties":{"kind":"road","id":"road-592718290-0","name":"Unnamed mapped secondary_link","osmWay":592718290,"major":false,"bridge":false},"geometry":{"type":"LineString","coordinates":[[11.1272013,10.3318379],[11.127608,10.3317241]]}},{"type":"Feature","properties":{"kind":"road","id":"road-592718291-0","name":"Unnamed mapped secondary_link","osmWay":592718291,"major":false,"bridge":false},"geometry":{"type":"LineString","coordinates":[[11.1272215,10.3319492],[11.1271913,10.3318936]]}},{"type":"Feature","properties":{"kind":"road","id":"road-595115789-0","name":"Unnamed mapped tertiary","osmWay":595115789,"major":false,"bridge":false},"geometry":{"type":"LineString","coordinates":[[11.1498238,10.2762272],[11.149686,10.2763828]]}},{"type":"Feature","properties":{"kind":"road","id":"road-604127932-0","name":"Unnamed mapped tertiary","osmWay":604127932,"major":false,"bridge":false},"geometry":{"type":"LineString","coordinates":[[11.1274398,10.3320566],[11.1271231,10.3318122]]}},{"type":"Feature","properties":{"kind":"road","id":"road-604127933-0","name":"Unnamed mapped tertiary","osmWay":604127933,"major":false,"bridge":false},"geometry":{"type":"LineString","coordinates":[[11.1271231,10.3318122],[11.1274747,10.3319876]]}},{"type":"Feature","properties":{"kind":"road","id":"road-605482507-0","name":"Unnamed mapped secondary","osmWay":605482507,"major":false,"bridge":false},"geometry":{"type":"LineString","coordinates":[[11.1803598,10.2788286],[11.1800829,10.2751597],[11.1808712,10.2708402],[11.1811501,10.2681337],[11.1816628,10.2660078]]}},{"type":"Feature","properties":{"kind":"road","id":"road-906693801-0","name":"Unnamed mapped tertiary_link","osmWay":906693801,"major":false,"bridge":false},"geometry":{"type":"LineString","coordinates":[[11.171226,10.2940767],[11.1711306,10.2940925]]}},{"type":"Feature","properties":{"kind":"road","id":"road-917753228-0","name":"Unnamed mapped secondary","osmWay":917753228,"major":false,"bridge":false},"geometry":{"type":"LineString","coordinates":[[11.1671869,10.2936503],[11.164929,10.29393],[11.1644419,10.2941049],[11.1643539,10.2942759]]}},{"type":"Feature","properties":{"kind":"road","id":"road-917753229-0","name":"Unnamed mapped secondary","osmWay":917753229,"major":false,"bridge":false},"geometry":{"type":"LineString","coordinates":[[11.164296,10.2942601],[11.1645565,10.2939688],[11.1648881,10.2938402],[11.1672497,10.2935319]]}},{"type":"Feature","properties":{"kind":"road","id":"road-1025621884-0","name":"Unnamed mapped tertiary","osmWay":1025621884,"major":false,"bridge":false},"geometry":{"type":"LineString","coordinates":[[11.160598,10.2998114],[11.16156,10.3001379]]}},{"type":"Feature","properties":{"kind":"road","id":"road-1025621885-0","name":"Unnamed mapped tertiary","osmWay":1025621885,"major":false,"bridge":false},"geometry":{"type":"LineString","coordinates":[[11.161352,10.3003303],[11.1611786,10.3000806],[11.160598,10.2998114]]}},{"type":"Feature","properties":{"kind":"road","id":"road-1025621886-0","name":"Unnamed mapped tertiary","osmWay":1025621886,"major":false,"bridge":false},"geometry":{"type":"LineString","coordinates":[[11.1618592,10.3004289],[11.1620213,10.3013842]]}},{"type":"Feature","properties":{"kind":"road","id":"road-1025621887-0","name":"Unnamed mapped tertiary","osmWay":1025621887,"major":false,"bridge":false},"geometry":{"type":"LineString","coordinates":[[11.1620213,10.3013842],[11.1616661,10.3006357]]}},{"type":"Feature","properties":{"kind":"road","id":"road-1025621888-0","name":"Unnamed mapped secondary","osmWay":1025621888,"major":false,"bridge":false},"geometry":{"type":"LineString","coordinates":[[11.161361,10.3004766],[11.1615234,10.3001468],[11.1618524,10.3003185],[11.161702,10.3006242],[11.161361,10.3004766]]}},{"type":"Feature","properties":{"kind":"road","id":"road-1025621889-0","name":"Unnamed mapped secondary","osmWay":1025621889,"major":false,"bridge":false},"geometry":{"type":"LineString","coordinates":[[11.1643539,10.2942759],[11.1640238,10.2966522],[11.1637929,10.2974958],[11.1634945,10.2980791],[11.1618454,10.3002997]]}},{"type":"Feature","properties":{"kind":"road","id":"road-1025621890-0","name":"Unnamed mapped secondary","osmWay":1025621890,"major":false,"bridge":false},"geometry":{"type":"LineString","coordinates":[[11.1615976,10.3001343],[11.1620301,10.2998664],[11.1635992,10.2977251],[11.1639004,10.2968291],[11.164296,10.2942601]]}},{"type":"Feature","properties":{"kind":"road","id":"road-1084124792-0","name":"Malam Kuri Riyal Road","osmWay":1084124792,"major":false,"bridge":true},"geometry":{"type":"LineString","coordinates":[[11.1682242,10.2639609],[11.1682221,10.2640102]]}},{"type":"Feature","properties":{"kind":"road","id":"road-1319872770-0","name":"Unnamed mapped tertiary","osmWay":1319872770,"major":false,"bridge":false},"geometry":{"type":"LineString","coordinates":[[11.1542092,10.2760699],[11.1541999,10.275895]]}},{"type":"Feature","properties":{"kind":"road","id":"road-1319872770-1","name":"Unnamed mapped tertiary","osmWay":1319872770,"major":false,"bridge":false},"geometry":{"type":"LineString","coordinates":[[11.1542924,10.2756461],[11.1546894,10.2750238]]}},{"type":"Feature","properties":{"kind":"road","id":"road-1319872770-2","name":"Unnamed mapped tertiary","osmWay":1319872770,"major":false,"bridge":false},"geometry":{"type":"LineString","coordinates":[[11.1571453,10.2711802],[11.1573501,10.2708486]]}},{"type":"Feature","properties":{"kind":"road","id":"road-1409752432-0","name":"Unnamed mapped tertiary","osmWay":1409752432,"major":false,"bridge":false},"geometry":{"type":"LineString","coordinates":[[11.1608563,10.2809811],[11.1610623,10.281393]]}},{"type":"Feature","properties":{"kind":"road","id":"road-1409752433-0","name":"Unnamed mapped secondary","osmWay":1409752433,"major":false,"bridge":false},"geometry":{"type":"LineString","coordinates":[[11.1610623,10.281393],[11.1610832,10.2814269]]}},{"type":"Feature","properties":{"kind":"road","id":"road-1409752434-0","name":"Unnamed mapped secondary","osmWay":1409752434,"major":false,"bridge":false},"geometry":{"type":"LineString","coordinates":[[11.1607811,10.2813886],[11.1608445,10.2813405]]}},{"type":"Feature","properties":{"kind":"road","id":"road-1409752435-0","name":"Unnamed mapped secondary","osmWay":1409752435,"major":false,"bridge":false},"geometry":{"type":"LineString","coordinates":[[11.1610299,10.2816413],[11.1607776,10.2816093]]}},{"type":"Feature","properties":{"kind":"road","id":"road-1409752436-0","name":"Unnamed mapped secondary","osmWay":1409752436,"major":false,"bridge":false},"geometry":{"type":"LineString","coordinates":[[11.1607776,10.2816093],[11.1607811,10.2813886]]}},{"type":"Feature","properties":{"kind":"road","id":"road-1409752437-0","name":"Unnamed mapped secondary","osmWay":1409752437,"major":false,"bridge":false},"geometry":{"type":"LineString","coordinates":[[11.1610832,10.2814269],[11.1639806,10.2830928],[11.1652489,10.2833157]]}},{"type":"Feature","properties":{"kind":"road","id":"road-1409752438-0","name":"Unnamed mapped secondary","osmWay":1409752438,"major":false,"bridge":false},"geometry":{"type":"LineString","coordinates":[[11.165258,10.283485],[11.1639659,10.283164],[11.1614797,10.2817832],[11.1610299,10.2816413]]}},{"type":"Feature","properties":{"kind":"road","id":"road-1409752439-0","name":"Unnamed mapped secondary","osmWay":1409752439,"major":false,"bridge":false},"geometry":{"type":"LineString","coordinates":[[11.1608445,10.2813405],[11.1610623,10.281393]]}},{"type":"Feature","properties":{"kind":"road","id":"road-1409752440-0","name":"Unnamed mapped secondary","osmWay":1409752440,"major":false,"bridge":false},"geometry":{"type":"LineString","coordinates":[[11.1610832,10.2814269],[11.1610299,10.2816413]]}},{"type":"Feature","properties":{"kind":"road","id":"road-1451647760-0","name":"Unnamed mapped tertiary","osmWay":1451647760,"major":false,"bridge":false},"geometry":{"type":"LineString","coordinates":[[11.1371552,10.286386],[11.136394,10.2794278]]}},{"type":"Feature","properties":{"kind":"road","id":"road-1451647761-0","name":"Unnamed mapped tertiary","osmWay":1451647761,"major":false,"bridge":false},"geometry":{"type":"LineString","coordinates":[[11.1365349,10.2794133],[11.1373044,10.286377]]}},{"type":"Feature","properties":{"kind":"road","id":"road-1458126009-0","name":"Unnamed mapped tertiary_link","osmWay":1458126009,"major":false,"bridge":false},"geometry":{"type":"LineString","coordinates":[[11.1371253,10.286192],[11.1372682,10.2861799]]}},{"type":"Feature","properties":{"kind":"road","id":"road-1492037002-0","name":"Unnamed mapped tertiary","osmWay":1492037002,"major":false,"bridge":false},"geometry":{"type":"LineString","coordinates":[[11.1497082,10.277334],[11.1497277,10.2776164]]}},{"type":"Feature","properties":{"kind":"road","id":"road-1492037003-0","name":"Unnamed mapped tertiary","osmWay":1492037003,"major":false,"bridge":false},"geometry":{"type":"LineString","coordinates":[[11.1542092,10.2760699],[11.1523285,10.2761309]]}},{"type":"Feature","properties":{"kind":"rail","id":"rail-393872975-0","name":"Unnamed mapped rail","osmWay":393872975,"major":false,"bridge":true},"geometry":{"type":"LineString","coordinates":[[11.186029,10.2926299],[11.1860166,10.2927302]]}},{"type":"Feature","properties":{"kind":"rail","id":"rail-393872995-0","name":"Unnamed mapped rail","osmWay":393872995,"major":false,"bridge":false},"geometry":{"type":"LineString","coordinates":[[11.1860166,10.2927302],[11.1857601,10.2946262],[11.1852459,10.2960136],[11.1800345,10.3037963]]}},{"type":"Feature","properties":{"kind":"rail","id":"rail-393882874-0","name":"Unnamed mapped rail","osmWay":393882874,"major":false,"bridge":false},"geometry":{"type":"LineString","coordinates":[[11.179985,10.303868],[11.1764176,10.3091367],[11.1755771,10.3111572]]}},{"type":"Feature","properties":{"kind":"rail","id":"rail-393882918-0","name":"Unnamed mapped rail","osmWay":393882918,"major":false,"bridge":true},"geometry":{"type":"LineString","coordinates":[[11.1800345,10.3037963],[11.179985,10.303868]]}}]}
