{"type":"FeatureCollection","metadata":{"source":"Geofabrik Nigeria OSM extract, OpenStreetMap contributors, ODbL 1.0; geoBoundaries gbOpen GRID3 2022, CC BY 4.0","surfaceFormatVersion":1,"pbfUrl":"https://download.geofabrik.de/africa/nigeria-261003.osm.pbf","pbfDate":"2026-10-03","pbfSha256":"6dfa568106792fb8a9bba0b12a91e1edfb789d38c452087b2c48bc58326880b5","pbfBytes":709273731,"boundaryRelease":"9469f09","adm1Sha256":"64fa218ac3d453cc1e66412ff461c5dfa1a4a1ade0da93b239a9891b587d28f9","adm2Sha256":"bef7f2cfa45e012f4772eaa61c7b99e5188aeba4d5c6badae7e9f9aae8c02fcd","cityId":"jalingo","stateId":"taraba","stateSourceName":"Taraba","localUnits":[["jalingo","Jalingo"]],"coordinatePrecisionDegrees":1e-07,"transportSimplificationDegrees":8e-05,"locationIndex":"sparse_file_array","waterObjects":[["relation",12657297],["way",479076366],["way",1123360818],["way",1155264682],["way",1226922980],["way",1227601676],["way",1232274202],["way",1304147326]]},"features":[{"type":"Feature","properties":{"kind":"state","id":"state:taraba","localUnitId":"taraba","name":"Taraba"},"geometry":{"type":"Polygon","coordinates":[[[9.5994817,6.5123572],[9.6053533,6.562257],[9.6064787,6.5718207],[9.6091206,6.5872329],[9.6222982,6.6641064],[9.6273945,6.6820636],[9.6313631,6.6960476],[9.6361418,6.7128859],[9.6460295,6.7385941],[9.6486664,6.7992387],[9.6474697,6.8092601],[9.6433926,6.8434038],[9.6414146,6.8664756],[9.6456995,6.8948202],[9.6641569,6.9356894],[9.6823061,6.9724652],[9.6892061,6.9864469],[9.6997528,7.0114956],[9.7006563,7.0130689],[9.7208995,7.0483198],[9.7379856,7.078073],[9.7617159,7.1011443],[9.8232889,7.1715132],[9.8240089,7.1723361],[9.8345556,7.1993628],[9.8352146,7.2171607],[9.8316087,7.227618],[9.8286228,7.2362771],[9.827018,7.2440018],[9.8249588,7.2545981],[9.8282928,7.2573709],[9.8384249,7.2755014],[9.8408175,7.2797828],[9.855979,7.3252664],[9.8652077,7.3628402],[9.8826761,7.4142561],[9.888608,7.4617176],[9.8846531,7.5078602],[9.8838431,7.5097503],[9.8804178,7.5172415],[9.8708105,7.5401602],[9.8457613,7.5744376],[9.8399887,7.5792742],[9.8300752,7.5875982],[9.821372,7.5948725],[9.8163662,7.5978475],[9.8085175,7.6060786],[9.7976999,7.614686],[9.7472134,7.6548581],[9.7369205,7.6673886],[9.7304138,7.6753098],[9.7112828,7.6985996],[9.7017298,7.7102294],[9.6905443,7.7284913],[9.6694298,7.7629638],[9.6430626,7.7998781],[9.6015348,7.8295412],[9.5758514,7.8354421],[9.5672677,7.8374121],[9.5613241,7.8387762],[9.499361,7.8427248],[9.4890236,7.8429062],[9.401508,7.8444418],[9.3866405,7.8447027],[9.3780718,7.8433843],[9.3147898,7.834815],[9.2726021,7.8229494],[9.2684019,7.822541],[9.2251415,7.8183351],[9.1902046,7.8104248],[9.1745347,7.8045873],[9.1565857,7.7979007],[9.1302185,7.788013],[9.1203308,7.7932863],[9.1157169,7.8084474],[9.1242857,7.8269048],[9.1401062,7.8486576],[9.1499939,7.8598638],[9.1620121,7.8687193],[9.1625185,7.8690925],[9.1704292,7.8822761],[9.1721706,7.886631],[9.1746235,7.887176],[9.1782312,7.8885288],[9.181838,7.891685],[9.1831913,7.8957429],[9.1809368,7.9038591],[9.1791258,7.9080834],[9.1852256,7.9108089],[9.1852787,7.9108327],[9.1867914,7.9115086],[9.209754,7.9217687],[9.2203732,7.9265132],[9.2507267,7.944725],[9.2810802,7.9558549],[9.3053627,7.969008],[9.3145857,7.9740548],[9.3191156,7.9765334],[9.3286988,7.9817769],[9.3355179,7.985508],[9.339323,7.990242],[9.3460264,8.0018797],[9.3517132,8.0065937],[9.3596935,8.0125036],[9.3688297,8.0184364],[9.3790503,8.0278435],[9.3870535,8.0326023],[9.396163,8.0396843],[9.4041433,8.0455942],[9.4153767,8.0619249],[9.4140263,8.071104],[9.4034233,8.0801029],[9.398653,8.0869141],[9.3950367,8.0937481],[9.3925562,8.1017542],[9.3922195,8.1178579],[9.3921706,8.1202184],[9.3919096,8.1328115],[9.3869467,8.1488256],[9.3914299,8.155817],[9.4006138,8.1594496],[9.4062767,8.1653137],[9.4118233,8.1769295],[9.4058237,8.1871691],[9.3975334,8.1962128],[9.3904696,8.201828],[9.3843632,8.2047577],[9.3821392,8.2058239],[9.3806033,8.2079296],[9.3801241,8.2085867],[9.3748331,8.2118092],[9.3712492,8.2151079],[9.3642502,8.2182531],[9.3589582,8.2214756],[9.3537493,8.222971],[9.3467484,8.2261162],[9.3414574,8.2293386],[9.3361654,8.2325611],[9.329567,8.23631],[9.3259029,8.2454443],[9.3249378,8.2485611],[9.3234234,8.2534513],[9.3255196,8.2638493],[9.3300304,8.2696915],[9.3356934,8.2755556],[9.3424664,8.2837429],[9.3468571,8.2953367],[9.3501835,8.3023062],[9.3545465,8.3150492],[9.3566237,8.3265972],[9.3599501,8.3335676],[9.3632765,8.3405371],[9.3678303,8.3440781],[9.3769665,8.3500109],[9.3827534,8.3501234],[9.3897171,8.3491097],[9.4014063,8.3435841],[9.4084435,8.339119],[9.4201565,8.3324432],[9.4318237,8.3280687],[9.4435129,8.3225441],[9.4528399,8.3192739],[9.4668665,8.312644],[9.4750366,8.3093519],[9.4832067,8.3060589],[9.4925098,8.3039398],[9.4982967,8.3040524],[9.5040569,8.305316],[9.5122032,8.303174],[9.5180101,8.3021374],[9.52493,8.3034229],[9.5353403,8.303627],[9.5434399,8.3037853],[9.5468864,8.3050032],[9.5536286,8.3041065],[9.5537477,8.3040906],[9.5619736,8.3029966],[9.5666504,8.300787],[9.5840769,8.2976761],[9.5922003,8.2966843],[9.6003704,8.2933912],[9.6096735,8.2912722],[9.615387,8.294836],[9.6175299,8.3029327],[9.6137505,8.3178186],[9.6123304,8.3304491],[9.612113,8.3408022],[9.6119204,8.3500042],[9.6140203,8.3604021],[9.616836,8.3718477],[9.6172554,8.371029],[9.6210582,8.3689127],[9.6250988,8.3669139],[9.6262872,8.3698533],[9.6231973,8.3750265],[9.6211096,8.3814023],[9.620464,8.383374],[9.6224637,8.3831561],[9.6344871,8.3818456],[9.6461334,8.3810226],[9.6527538,8.3841953],[9.6547661,8.3823538],[9.6643801,8.382781],[9.6683149,8.3810253],[9.6799412,8.379611],[9.683876,8.3778553],[9.6935787,8.3763552],[9.695591,8.3745146],[9.7032824,8.374856],[9.7071285,8.3750267],[9.7110624,8.373271],[9.716754,8.3725309],[9.723362,8.3716717],[9.7264729,8.3712673],[9.7281794,8.3710453],[9.7334576,8.3703585],[9.7566547,8.367342],[9.7613239,8.3697109],[9.7649908,8.3737345],[9.7744274,8.3780146],[9.7801399,8.3815546],[9.7841616,8.3824196],[9.7969666,8.3905983],[9.802331,8.3913231],[9.8094244,8.3974476],[9.8160944,8.4012079],[9.8214464,8.402791],[9.8242407,8.405098],[9.8322685,8.4101],[9.832337,8.4101427],[9.8361025,8.4124889],[9.8410625,8.416172],[9.8505307,8.4220714],[9.8560257,8.4254951],[9.8627768,8.4275293],[9.8694468,8.4312897],[9.8793669,8.4386559],[9.8813924,8.4402644],[9.8893748,8.4466032],[9.890914,8.4478254],[9.895792,8.4532356],[9.9056301,8.4623289],[9.9088812,8.4659348],[9.9153852,8.4731483],[9.9202633,8.4785576],[9.9268484,8.4840441],[9.9285394,8.4849975],[9.9335175,8.4878044],[9.9434395,8.4951715],[9.9498637,8.4987949],[9.9501066,8.4989319],[9.9533596,8.5025368],[9.9582357,8.5079479],[9.9631138,8.5133572],[9.9713268,8.520648],[9.9762869,8.5243311],[9.9828768,8.5298176],[9.9927969,8.5371838],[9.997757,8.5408678],[10.0041771,8.5498066],[10.0080156,8.5530024],[10.010767,8.5552931],[10.0140171,8.5588999],[10.0222273,8.5661898],[10.0254765,8.5697966],[10.0320663,8.5752821],[10.0436058,8.5844526],[10.0518274,8.5917425],[10.0518432,8.591766],[10.0614071,8.6060143],[10.0662069,8.6131506],[10.0710859,8.6185598],[10.0759659,8.62397],[10.0782572,8.6265148],[10.0784967,8.6267808],[10.0808363,8.6293793],[10.0857172,8.6347895],[10.0871773,8.6400452],[10.0971756,8.6456861],[10.1036062,8.6546249],[10.1083975,8.6617613],[10.1132774,8.6671705],[10.1164474,8.6725035],[10.1230268,8.6779909],[10.1279869,8.681674],[10.1328659,8.6870832],[10.1377468,8.6924925],[10.1409969,8.6961002],[10.1492071,8.7033892],[10.1524572,8.706996],[10.1590462,8.7124825],[10.1607916,8.7144194],[10.1622963,8.7160892],[10.1655464,8.719696],[10.1704273,8.7251053],[10.1746877,8.7275075],[10.1770964,8.7288656],[10.1803474,8.7324715],[10.18062,8.7330943],[10.1834373,8.7395306],[10.1859136,8.7441911],[10.1881466,8.748394],[10.1947374,8.7538795],[10.2061958,8.7647762],[10.209446,8.768383],[10.2143269,8.7737923],[10.2240763,8.7846117],[10.2290468,8.7882967],[10.2357073,8.7920561],[10.2362786,8.7927697],[10.2455959,8.8044081],[10.2486362,8.8082085],[10.2569275,8.8137712],[10.2618065,8.8191814],[10.2669373,8.8194113],[10.2769365,8.8250523],[10.2868567,8.8324184],[10.2918968,8.8343754],[10.2984858,8.8398619],[10.3050756,8.8453484],[10.3247709,8.8564572],[10.3250761,8.8566294],[10.3298759,8.8637648],[10.3346672,8.8709021],[10.3410969,8.8798409],[10.3509274,8.8889341],[10.3575964,8.8926945],[10.3625565,8.8963776],[10.3691473,8.9018641],[10.3723974,8.9054708],[10.3756456,8.9090767],[10.3805265,8.9144869],[10.3888159,8.9200497],[10.3971968,8.9238873],[10.4004469,8.927494],[10.4069567,8.9347067],[10.4202061,8.9439535],[10.426877,8.9477139],[10.431672,8.9491584],[10.4336262,8.9497471],[10.436343,8.9512787],[10.4402962,8.9535074],[10.4453468,8.9554644],[10.4468469,8.9560469],[10.450386,8.9574213],[10.4638071,8.9632158],[10.468936,8.9634466],[10.479187,8.9639072],[10.489356,8.966095],[10.4979773,8.9647532],[10.5017504,8.966029],[10.5097771,8.9687433],[10.5183964,8.9674015],[10.5302773,8.9696655],[10.5388269,8.9700499],[10.5440273,8.9685545],[10.5559874,8.9690924],[10.566247,8.9695539],[10.5686614,8.9701563],[10.570524,8.9706209],[10.570555,8.9706286],[10.574707,8.9716644],[10.5797462,8.9736214],[10.5882874,8.9740057],[10.5967464,8.9761162],[10.6031656,8.9850559],[10.6062574,8.992115],[10.6095057,8.9957209],[10.6143074,9.0028572],[10.6191759,9.0082674],[10.6227016,9.0139942],[10.6272259,9.0190096],[10.6300659,9.0312481],[10.6298161,9.0364275],[10.632906,9.0434866],[10.634367,9.0487423],[10.6374474,9.0558014],[10.6371975,9.0609808],[10.6400366,9.0732193],[10.6379166,9.0817738],[10.6325474,9.0867233],[10.6272469,9.0899448],[10.6225252,9.0940294],[10.6235504,9.0991144],[10.6252899,9.1030531],[10.6326303,9.1111012],[10.6361198,9.1189775],[10.6357603,9.1266842],[10.6336603,9.1304522],[10.6296396,9.1341343],[10.6256104,9.1378164],[10.6177397,9.1413279],[10.6135397,9.1488638],[10.6151104,9.1566553],[10.6125736,9.1656294],[10.6118507,9.1681871],[10.6120024,9.1702929],[10.6103697,9.1757498],[10.6142368,9.182785],[10.610487,9.189537],[10.5999069,9.195981],[10.5996571,9.2011604],[10.5957193,9.2082548],[10.59723,9.2099152],[10.5968704,9.2176218],[10.5966101,9.2234011],[10.59231,9.2328634],[10.5881996,9.238472],[10.5801497,9.2458363],[10.5798903,9.2516155],[10.5792599,9.2651024],[10.5789099,9.2728081],[10.57864,9.2785873],[10.5783701,9.2843676],[10.5781002,9.2901468],[10.5777502,9.2978535],[10.5794897,9.3017921],[10.57932,9.305645],[10.5808802,9.3134375],[10.5806103,9.3192158],[10.5802603,9.3269224],[10.5780697,9.3326168],[10.5741301,9.3343735],[10.5705981,9.337608],[10.5701103,9.3380547],[10.5679197,9.343749],[10.5598698,9.3511133],[10.5616198,9.355052],[10.5614405,9.3589058],[10.5612602,9.3627586],[10.5665798,9.3726473],[10.5643902,9.3783417],[10.5603704,9.3820238],[10.56001,9.3897305],[10.5602739,9.3901691],[10.56359,9.3956804],[10.5691795,9.3997898],[10.5783501,9.4098492],[10.5799198,9.4176407],[10.5789404,9.4388332],[10.5766602,9.446454],[10.5746498,9.4482946],[10.5725403,9.4520626],[10.5703497,9.457757],[10.5661497,9.465292],[10.5602102,9.4688892],[10.55618,9.4725714],[10.5482197,9.4780092],[10.5462103,9.4798508],[10.5416574,9.4822884],[10.5409638,9.483537],[10.6042274,9.4664816],[10.6178399,9.4628118],[10.7213135,9.4525176],[10.7735429,9.4473215],[10.7776726,9.4504027],[10.9172323,9.5545285],[10.9563447,9.6056869],[10.9691343,9.6153535],[10.9743202,9.5959367],[10.9748936,9.5928907],[10.9755068,9.5896339],[10.9775,9.578269],[10.9781408,9.5746136],[10.9799528,9.5711756],[10.9847116,9.565485],[10.9923821,9.5592833],[11.008193,9.5521088],[11.0204287,9.5494928],[11.0273981,9.5490742],[11.0355263,9.5486832],[11.0479828,9.5503296],[11.0621357,9.5522003],[11.0708561,9.5512428],[11.0764081,9.5513718],[11.0835775,9.5466914],[11.0945108,9.5330966],[11.1142382,9.5255958],[11.1239049,9.5326636],[11.1248239,9.5333355],[11.1280236,9.5356749],[11.1314504,9.5377487],[11.1339863,9.5392877],[11.136235,9.5406808],[11.1444235,9.5457538],[11.1509123,9.5507803],[11.1613474,9.5510225],[11.161859,9.551125],[11.1619418,9.5511416],[11.1711674,9.55299],[11.1821346,9.5555649],[11.1919422,9.5581131],[11.1988392,9.5611725],[11.2103491,9.5655003],[11.2224522,9.5692616],[11.2270899,9.5693684],[11.2278224,9.5690801],[11.2440615,9.5622215],[11.2546663,9.554347],[11.2692814,9.5488863],[11.2745113,9.5484276],[11.2780142,9.5478178],[11.289086,9.548156],[11.2930756,9.5482779],[11.2982931,9.548399],[11.3080446,9.5486734],[11.3107931,9.5486811],[11.3203249,9.5489101],[11.3290329,9.5485325],[11.3377295,9.5487347],[11.3464384,9.5483561],[11.3534193,9.5473576],[11.3679142,9.5476942],[11.3738518,9.5468025],[11.3812971,9.5456848],[11.3934717,9.5459671],[11.4056845,9.5445099],[11.4201536,9.5460062],[11.4276419,9.5485001],[11.4295988,9.5496254],[11.4361563,9.5398264],[11.4343501,9.5310982],[11.4334548,9.5197191],[11.4390627,9.516256],[11.4402323,9.5022027],[11.4402201,9.4937809],[11.4437597,9.4884722],[11.4586438,9.4828224],[11.4699774,9.477334],[11.4791069,9.4656334],[11.4843063,9.464138],[11.4898472,9.4557362],[11.4935169,9.4507112],[11.4944789,9.4482006],[11.4944982,9.4481504],[11.497427,9.4405069],[11.5063066,9.4339848],[11.5117559,9.42731],[11.5155058,9.420558],[11.5170238,9.4187025],[11.5209665,9.4138832],[11.5259256,9.4078159],[11.5200833,9.4039775],[11.5221986,9.4004836],[11.5239932,9.3960877],[11.5243617,9.3908237],[11.5238565,9.3851036],[11.5261422,9.3807804],[11.5302452,9.3784473],[11.5348545,9.3723947],[11.5358829,9.3666434],[11.530128,9.3430408],[11.530694,9.32608],[11.5525718,9.3220848],[11.5526847,9.3220641],[11.5818151,9.3167445],[11.5907278,9.3108132],[11.5932632,9.3036953],[11.5990391,9.3015825],[11.6115759,9.3035667],[11.6249223,9.309078],[11.6396093,9.3067113],[11.647747,9.3053999],[11.6488476,9.2980328],[11.6507359,9.2948885],[11.6536169,9.2900925],[11.6563835,9.2855024],[11.6608076,9.2782097],[11.6633015,9.2730808],[11.6655788,9.2650671],[11.6701555,9.2536144],[11.6754666,9.246559],[11.6754788,9.2465427],[11.6770573,9.2444458],[11.6816502,9.2364264],[11.6874056,9.2295475],[11.6789658,9.2239342],[11.6795166,9.2174906],[11.67774,9.2105555],[11.6820392,9.1992131],[11.6836446,9.1928175],[11.6895667,9.1901917],[11.6963857,9.1803791],[11.6986458,9.173696],[11.7026157,9.1608095],[11.7011566,9.1555529],[11.6997862,9.148571],[11.6984663,9.1438398],[11.696867,9.1380587],[11.6953974,9.132803],[11.6957369,9.1258974],[11.6960659,9.1189919],[11.6963072,9.1138124],[11.6949358,9.1068296],[11.696887,9.1017275],[11.6989269,9.0948992],[11.7008867,9.089797],[11.7028465,9.0846949],[11.7048063,9.0795918],[11.7067566,9.0744905],[11.7103472,9.0711908],[11.7156363,9.0679684],[11.7226372,9.0648232],[11.7296362,9.0616779],[11.735177,9.053277],[11.7362066,9.0530656],[11.7420864,9.0518579],[11.7490072,9.0504389],[11.7525349,9.049715],[11.7583008,9.0428867],[11.7675171,9.0337124],[11.7728124,9.030419],[11.7767496,9.0279703],[11.7859879,9.0233726],[11.7917585,9.019927],[11.7927046,9.0196573],[11.7948738,9.0190389],[11.794934,9.0190217],[11.7998505,9.0176201],[11.8162408,9.0127049],[11.8193226,9.0120201],[11.8252811,9.0106964],[11.8310575,9.0083952],[11.8311082,9.008386],[11.8298514,8.9935137],[11.8437475,8.9788562],[11.8542171,8.9662927],[11.8639253,8.9541098],[11.8715396,8.9470666],[11.8736335,8.9376249],[11.8696062,8.9295702],[11.869516,8.9293898],[11.8624025,8.9151628],[11.8646867,8.9098709],[11.8608796,8.9066348],[11.859648,8.9045821],[11.8555612,8.8977708],[11.8540268,8.8952134],[11.8498389,8.8750737],[11.8506003,8.869934],[11.8433668,8.866698],[11.84508,8.8598451],[11.8406849,8.8449986],[11.8364992,8.8204243],[11.8317023,8.7922616],[11.8312004,8.7694985],[11.8270696,8.7390894],[11.7854729,8.7109554],[11.7691684,8.7120187],[11.7542721,8.7000779],[11.7496665,8.6889904],[11.7431424,8.6776045],[11.7516766,8.6733961],[11.7571259,8.6667213],[11.760457,8.6636581],[11.7614317,8.666501],[11.7658481,8.6622464],[11.7741348,8.6542632],[11.787881,8.6434287],[11.7883201,8.6424738],[11.7888993,8.6412144],[11.7841654,8.6297836],[11.7769339,8.6251292],[11.7675141,8.6206818],[11.7576119,8.6172123],[11.759708,8.6074694],[11.7667631,8.5969072],[11.7900008,8.5727664],[11.7926653,8.5644824],[11.7932393,8.5603509],[11.7941393,8.5539291],[11.7945471,8.5462341],[11.7906542,8.5313711],[11.7859821,8.5222282],[11.780158,8.5142326],[11.766222,8.5039663],[11.7569208,8.4948349],[11.7487869,8.4879885],[11.7414641,8.4814512],[11.7387725,8.4790484],[11.7360029,8.4765759],[11.7301893,8.4708691],[11.7243919,8.4685936],[11.7162743,8.4651794],[11.7090456,8.4653037],[11.6994483,8.4688536],[11.6901738,8.4646073],[11.6794999,8.46258],[11.6702188,8.451773],[11.6617883,8.4497799],[11.6558051,8.4453619],[11.648308,8.4423685],[11.6459221,8.4331227],[11.6429738,8.4268528],[11.638274,8.4138399],[11.63301,8.4113116],[11.6181183,8.4067704],[11.6128945,8.4037211],[11.6297879,8.3865666],[11.6221123,8.3761501],[11.6186237,8.3727255],[11.6151352,8.3693008],[11.6011677,8.3521709],[11.5988264,8.3464556],[11.5953274,8.3407421],[11.5894995,8.3316021],[11.584816,8.3201714],[11.5801382,8.309885],[11.5777969,8.3041687],[11.5731354,8.2973146],[11.5668845,8.2860949],[11.5661325,8.2847452],[11.56145,8.2733145],[11.5544424,8.2595997],[11.5497761,8.2516012],[11.546277,8.2458887],[11.5381279,8.23561],[11.5288153,8.2241898],[11.5229864,8.2150497],[11.514842,8.2059155],[11.510191,8.2013493],[11.5043726,8.1944971],[11.4962339,8.1865072],[11.485775,8.1773777],[11.4776363,8.1693869],[11.4695082,8.1636848],[11.4613686,8.155694],[11.4567184,8.1511278],[11.4552226,8.1498689],[11.448636,8.1442823],[11.4393395,8.1362944],[11.4335317,8.1317301],[11.4265498,8.1237373],[11.4184159,8.1168909],[11.4079522,8.1066179],[11.4009818,8.1009121],[11.3905276,8.092927],[11.3835515,8.0860777],[11.3800649,8.082654],[11.3765706,8.0780849],[11.371909,8.0712309],[11.3626183,8.0643873],[11.3579463,8.0552444],[11.354453,8.0506763],[11.3521222,8.0472488],[11.3497914,8.0438213],[11.3463086,8.0415411],[11.3468608,8.0358191],[11.352064,8.0346632],[11.3543681,8.0323696],[11.3543414,8.0266485],[11.3542901,8.0266656],[11.3508748,8.0278006],[11.347413,8.030097],[11.3473834,8.0300825],[11.3473616,8.030097],[11.342721,8.0278196],[11.3415375,8.0221014],[11.3415213,8.0186682],[11.3461351,8.0152254],[11.350749,8.0117826],[11.3518639,8.0026264],[11.3541517,7.996901],[11.356451,7.993463],[11.3587551,7.9911695],[11.3633528,7.9842935],[11.3656311,7.9762793],[11.3667774,7.9739885],[11.3725224,7.9648218],[11.3828754,7.9510679],[11.3932333,7.9384589],[11.4001093,7.9235687],[11.4035444,7.9155521],[11.4081364,7.9075322],[11.4115667,7.8983707],[11.4207726,7.8869081],[11.4265118,7.8765979],[11.4345655,7.866282],[11.4380226,7.8628416],[11.4437666,7.8536754],[11.446679,7.8504532],[11.4541302,7.8422093],[11.4575825,7.837625],[11.4621849,7.8318939],[11.465641,7.8284535],[11.4725266,7.8158512],[11.4806128,7.8124008],[11.4821901,7.8102388],[11.4898138,7.7997937],[11.4944382,7.7986393],[11.494467,7.7986449],[11.4944896,7.7986393],[11.5002822,7.7997699],[11.5009906,7.8004654],[11.5009836,7.800509],[11.5072069,7.8066192],[11.5141935,7.8157563],[11.5165501,7.8249044],[11.5259047,7.8454776],[11.5282516,7.8523374],[11.5294304,7.8569112],[11.5329447,7.8660569],[11.5352907,7.8729162],[11.5376482,7.8820643],[11.5388269,7.8866382],[11.5411682,7.8923535],[11.5446625,7.8969221],[11.5499725,7.9018621],[11.5515528,7.9033318],[11.5555849,7.9037886],[11.5632219,7.906033],[11.5632733,7.906033],[11.570218,7.9060173],[11.5844467,7.9082681],[11.5904205,7.9080177],[11.5994298,7.8977244],[11.6099319,7.8876073],[11.6196741,7.8737148],[11.632421,7.867192],[11.6464204,7.865797],[11.6506436,7.8573267],[11.6478652,7.8455229],[11.646158,7.8171506],[11.6488011,7.7907676],[11.636128,7.7730301],[11.6320645,7.7644576],[11.6329776,7.7504053],[11.6486901,7.742869],[11.6827219,7.7341471],[11.7265461,7.7191846],[11.7580365,7.7248092],[11.7648381,7.6939011],[11.7694148,7.6824493],[11.7716502,7.6652818],[11.7727441,7.6515493],[11.7691602,7.6275301],[11.766158,7.6149244],[11.7663306,7.61272],[11.7665438,7.6042913],[11.7665729,7.6031408],[11.7683438,7.5983982],[11.7682828,7.5963497],[11.7681292,7.5911822],[11.768058,7.5887918],[11.7679867,7.5881227],[11.7678213,7.5825706],[11.768425,7.5796208],[11.7665877,7.5749992],[11.7665501,7.5749044],[11.7653666,7.5691862],[11.7641668,7.5600357],[11.7629509,7.5474525],[11.7629194,7.5405879],[11.7651758,7.527997],[11.7663012,7.5211291],[11.7674217,7.5131173],[11.7719355,7.4879355],[11.7765331,7.48106],[11.7857447,7.4707413],[11.7914944,7.4627194],[11.7960863,7.4546995],[11.8017416,7.4495406],[11.8047485,7.4467974],[11.8099175,7.4420815],[11.816824,7.4340568],[11.8193989,7.4309796],[11.8526721,7.3912172],[11.8463879,7.3813887],[11.7994394,7.2966633],[11.7644444,7.2838888],[11.7555542,7.2786102],[11.7519436,7.2752771],[11.7497215,7.2705555],[11.7497215,7.2649994],[11.7516651,7.2599993],[11.7555542,7.2572222],[11.7611103,7.2558327],[11.768055,7.2555552],[11.7805538,7.2566662],[11.786665,7.2558327],[11.7913876,7.2536106],[11.7949982,7.2502775],[11.7983037,7.2458177],[11.8161676,7.2217162],[11.8330779,7.1989011],[11.8824997,7.1322222],[11.8641663,7.0847216],[11.8178294,7.0475253],[11.8170496,7.0468993],[11.7627773,7.0033331],[11.7586098,7.0008326],[11.7013874,6.9761105],[11.6943763,6.972693],[11.6461105,6.9491663],[11.6377773,6.9438887],[11.5874996,6.8922214],[11.5859761,6.8897187],[11.5797215,6.8794441],[11.5563889,6.833333],[11.5547218,6.8211107],[11.560833,6.8133326],[11.563272,6.8117066],[11.5649986,6.8105555],[11.5833321,6.7944441],[11.5858326,6.7902775],[11.5891666,6.7799997],[11.5886097,6.7594442],[11.5847206,6.7355547],[11.5808315,6.7186108],[11.5791664,6.7130547],[11.5624981,6.6674995],[11.5620723,6.6665947],[11.558054,6.6580553],[11.5552769,6.6538887],[11.535978,6.6296565],[11.5183315,6.6074991],[11.5147209,6.604166],[11.5105553,6.6016665],[11.5049992,6.6002769],[11.4733315,6.6025],[11.4547215,6.6008329],[11.4449997,6.5969439],[11.4372215,6.5908327],[11.4349995,6.5861111],[11.4150058,6.5161342],[11.4141645,6.5097218],[11.4130554,6.498333],[11.4127769,6.4844437],[11.4063873,6.4772215],[11.3888874,6.4602776],[11.3852768,6.4569435],[11.3769436,6.4516659],[11.3719444,6.4497213],[11.3402767,6.4408331],[11.2730541,6.4333324],[11.266943,6.4330549],[11.2615973,6.4333761],[11.214151,6.4362271],[11.2022209,6.436944],[11.1974983,6.4349995],[11.1919441,6.4338884],[11.1816654,6.4333324],[11.1408329,6.4336109],[11.1291656,6.435833],[11.1244431,6.438055],[11.1169434,6.4441662],[11.1144428,6.4486103],[11.1102772,6.4580555],[11.0952759,6.4980555],[11.092247,6.5085373],[11.091491,6.511692],[11.0883331,6.5249996],[11.0845487,6.5414991],[11.081016,6.5457706],[11.072031,6.5582099],[11.0666296,6.572612],[11.0623213,6.5963914],[11.0597177,6.642548],[11.0643338,6.6630811],[11.0782091,6.6793858],[11.082222,6.6977777],[11.0783329,6.7074995],[11.0758324,6.7116661],[11.0711098,6.7191658],[11.0667857,6.7245382],[11.0568734,6.7368536],[11.0498797,6.7455429],[11.0436096,6.7533331],[11.0260916,6.7714481],[11.019165,6.7786102],[11.0136681,6.7805099],[11.0,6.7808332],[10.9694443,6.7774992],[10.9563885,6.7769442],[10.9433327,6.7780552],[10.9386101,6.7799997],[10.9030552,6.8069439],[10.8827763,6.8277769],[10.8811092,6.8394442],[10.8816662,6.8669443],[10.8791656,6.8777771],[10.8744843,6.8925417],[10.8647213,6.9233332],[10.8627777,6.9283333],[10.854166,6.9469442],[10.8490919,6.9483041],[10.8446186,6.9568701],[10.8420011,6.9582502],[10.8249791,6.9576595],[10.8077736,6.9587672],[10.798366,6.9626268],[10.7950157,6.9617213],[10.7894409,6.9602146],[10.7865462,6.9619031],[10.7840134,6.9657626],[10.7790684,6.96721],[10.769902,6.9619031],[10.7668868,6.9555108],[10.7613387,6.958526],[10.7586257,6.9636266],[10.7539144,6.966125],[10.7474423,6.9694563],[10.7471567,6.9720261],[10.7474423,6.9760236],[10.7433496,6.9798307],[10.7407592,6.9835113],[10.7383798,6.9885558],[10.7360003,6.9893172],[10.7332401,6.9916015],[10.7298137,6.9888413],[10.7254317,6.9892817],[10.7204824,6.9882918],[10.708528,6.9990279],[10.7047209,7.0062615],[10.7003807,7.0134951],[10.6947462,7.0143326],[10.6910247,7.0167978],[10.6876744,7.0160363],[10.6838673,7.0164932],[10.6829535,7.0204526],[10.6788418,7.0268486],[10.6670497,7.0322061],[10.6297207,7.0491657],[10.6199989,7.0536108],[10.6166649,7.0569439],[10.6149998,7.0686102],[10.6094677,7.0638885],[10.5599995,7.0216665],[10.5133324,6.8780546],[10.3687809,6.8760791],[10.3677605,6.8760652],[10.2694445,6.8747215],[10.2377777,6.8780546],[10.2236099,6.8844442],[10.2152767,6.8902769],[10.2049999,6.9005547],[10.1949997,6.9177771],[10.1911106,6.9274998],[10.1897221,6.9330549],[10.188055,6.9516659],[10.1877766,6.9783325],[10.1805553,6.998333],[10.1758327,7.0072222],[10.1672211,7.019166],[10.164999,7.0211105],[10.1362515,6.9971542],[10.1007921,6.9676045],[10.0949993,6.9627771],[10.0535378,6.9277325],[10.030972,6.9086592],[9.8849983,6.7852774],[9.8747215,6.7758331],[9.7955551,6.8016663],[9.7863884,6.7777777],[9.7441654,6.6394444],[9.7316822,6.5976711],[9.7309433,6.5951986],[9.7088451,6.5212507],[9.6555538,6.5258331],[9.6377773,6.5233326],[9.5980138,6.4998821],[9.5994817,6.5123572]]]}},{"type":"Feature","properties":{"kind":"administrative","id":"administrative:jalingo","localUnitId":"jalingo","name":"Jalingo"},"geometry":{"type":"Polygon","coordinates":[[[11.4429399,8.8163528],[11.4408655,8.8179429],[11.4329773,8.8219015],[11.428507,8.8297883],[11.4195347,8.8338922],[11.41453,8.8353776],[11.4085605,8.8421955],[11.3962715,8.8493058],[11.3927346,8.8510062],[11.3906781,8.855224],[11.3888799,8.8569096],[11.3850994,8.8558145],[11.3818377,8.8591409],[11.3784199,8.86581],[11.3773526,8.8716116],[11.3738493,8.8727514],[11.3685894,8.8734328],[11.3641414,8.8769123],[11.3599674,8.8819019],[11.3554126,8.8847239],[11.3543485,8.8867419],[11.3533824,8.8885742],[11.3478153,8.8898859],[11.3436367,8.8886912],[11.3391234,8.8925664],[11.3365092,8.8955664],[11.3351492,8.9054579],[11.3340863,8.9100635],[11.3289937,8.9114046],[11.3271925,8.9119382],[11.3256027,8.9164373],[11.3243301,8.9199865],[11.3161138,8.9205449],[11.3124293,8.9216992],[11.3106348,8.9247496],[11.3034114,8.9241108],[11.2990725,8.9229218],[11.2932549,8.9264302],[11.2919984,8.9310616],[11.2870369,8.9332372],[11.2855324,8.9378284],[11.2732315,8.9354795],[11.2595968,8.9367285],[11.2557669,8.9452066],[11.252017,8.9519587],[11.2500572,8.9570608],[11.2299896,8.9592725],[11.2279506,8.9661008],[11.2259097,8.9729291],[11.2186694,8.9812538],[11.2147498,8.9914581],[11.2256165,9.0026741],[11.2219467,9.007699],[11.2183466,9.0155791],[11.2257387,9.0243741],[11.2251819,9.0265752],[11.2272609,9.0303918],[11.2311904,9.0324204],[11.2301827,9.0360559],[11.2304507,9.0391881],[11.2347614,9.0406465],[11.2358048,9.0451523],[11.2374465,9.050264],[11.2442767,9.0505721],[11.2480827,9.0554644],[11.2561566,9.0548543],[11.2642007,9.0564115],[11.2714556,9.0476981],[11.299,9.0324217],[11.3184164,9.0190967],[11.322985,8.9989189],[11.3298379,8.9954924],[11.3357067,8.9920559],[11.3713357,8.9775989],[11.3894894,8.9703279],[11.3943161,8.9609737],[11.3896384,8.9499786],[11.3928526,8.9181687],[11.3940129,8.9170711],[11.3941237,8.9144228],[11.3957029,8.9138148],[11.3962369,8.9123057],[11.3973454,8.9093703],[11.3989825,8.9081276],[11.4004063,8.9069561],[11.4006616,8.9051353],[11.4033027,8.9042116],[11.4056512,8.9033448],[11.406968,8.9016158],[11.4085199,8.9009095],[11.4097285,8.8994149],[11.4107006,8.8982127],[11.4121779,8.8969414],[11.4145115,8.8966749],[11.4179552,8.8947952],[11.4193557,8.8934155],[11.4209155,8.8926936],[11.423086,8.8922681],[11.4228104,8.8909125],[11.42558,8.8886335],[11.4283605,8.8897086],[11.4308217,8.8861947],[11.4354891,8.8831606],[11.437604,8.879094],[11.4422082,8.8740101],[11.4487564,8.8680995],[11.4549685,8.8644145],[11.4722248,8.8563796],[11.475885,8.8513538],[11.4795547,8.8463279],[11.481506,8.8412258],[11.4808991,8.8338507],[11.4737408,8.8235995],[11.46318,8.8181201],[11.4427721,8.8091434],[11.4429399,8.8163528]]]}},{"type":"Feature","properties":{"kind":"land","id":"jalingo","localUnitId":"jalingo","name":"Jalingo"},"geometry":{"type":"MultiPolygon","coordinates":[[[[11.3081181,8.9245363],[11.3081476,8.9245602],[11.308212,8.9245999],[11.3082951,8.9246158],[11.3084024,8.924645],[11.3084775,8.9246582],[11.308566,8.9246741],[11.308617,8.9246556],[11.3086706,8.9246476],[11.3087645,8.9246423],[11.308853,8.9246476],[11.3089067,8.9246635],[11.3089898,8.9246927],[11.309081,8.9247033],[11.3091668,8.9247006],[11.3092419,8.9246953],[11.3093197,8.9246874],[11.3093761,8.9246503],[11.3093895,8.9246395],[11.3080932,8.9245248],[11.3081181,8.9245363]]],[[[11.4329773,8.8219015],[11.428507,8.8297883],[11.4195347,8.8338922],[11.41453,8.8353776],[11.4085605,8.8421955],[11.3962715,8.8493058],[11.3927346,8.8510062],[11.3906781,8.855224],[11.3888799,8.8569096],[11.3850994,8.8558145],[11.3818377,8.8591409],[11.3784199,8.86581],[11.3773526,8.8716116],[11.3738493,8.8727514],[11.3685894,8.8734328],[11.3641414,8.8769123],[11.3599674,8.8819019],[11.3554126,8.8847239],[11.3543485,8.8867419],[11.3533824,8.8885742],[11.3478153,8.8898859],[11.3436367,8.8886912],[11.3391234,8.8925664],[11.3365092,8.8955664],[11.3351492,8.9054579],[11.3340863,8.9100635],[11.3289937,8.9114046],[11.3271925,8.9119382],[11.3256027,8.9164373],[11.3243301,8.9199865],[11.3193347,8.920326],[11.3193002,8.9208982],[11.3192573,8.9208744],[11.319201,8.9208505],[11.3191098,8.9208267],[11.3190454,8.9208161],[11.3189784,8.9208505],[11.3189247,8.9208744],[11.3188469,8.9208876],[11.3188121,8.920877],[11.3187692,8.9209035],[11.3186941,8.9209433],[11.3186216,8.9209963],[11.3185385,8.9210599],[11.3184231,8.9211102],[11.3183641,8.9211049],[11.3182917,8.9210996],[11.3181388,8.9210943],[11.3180315,8.9210943],[11.3178626,8.9210943],[11.3178143,8.9210758],[11.3177767,8.9210837],[11.3177177,8.9210837],[11.3176346,8.9210943],[11.3175273,8.9210917],[11.3174522,8.9210943],[11.3173744,8.9211076],[11.3172778,8.9211076],[11.3172054,8.9211049],[11.3171437,8.9210943],[11.3170794,8.9210917],[11.3170391,8.9210996],[11.3169774,8.9210996],[11.3168997,8.9211102],[11.3168541,8.9211288],[11.3167977,8.9211155],[11.3167548,8.9211102],[11.3167226,8.9211288],[11.3166475,8.9211076],[11.3166073,8.9211049],[11.3165402,8.9211208],[11.3164705,8.9211129],[11.3163766,8.9211155],[11.3162935,8.9211182],[11.3162506,8.9211394],[11.3161808,8.9211261],[11.3160816,8.921142],[11.3159609,8.9211473],[11.3158563,8.9211473],[11.315808,8.9211288],[11.3157409,8.9211208],[11.3157034,8.9211341],[11.3156363,8.9211499],[11.3155371,8.9211526],[11.3154513,8.9211499],[11.3153815,8.9211552],[11.3153172,8.9211552],[11.3152662,8.9211446],[11.3151562,8.9211579],[11.3150865,8.9211685],[11.3150355,8.9211738],[11.3149953,8.9212135],[11.3149175,8.921248],[11.3148612,8.9212718],[11.3147861,8.9212877],[11.3147271,8.9213036],[11.3146466,8.9213036],[11.3145339,8.9213142],[11.3144696,8.9213063],[11.3144106,8.9213275],[11.3143194,8.9213513],[11.3142416,8.9213858],[11.3141933,8.9214282],[11.3141423,8.9214414],[11.3140753,8.9214626],[11.314027,8.9214865],[11.3139948,8.9215183],[11.3139653,8.921505],[11.3139412,8.9214865],[11.3138661,8.9215077],[11.3137749,8.9215501],[11.3136837,8.921611],[11.3136435,8.921664],[11.3135764,8.9217037],[11.3135362,8.9217143],[11.3134879,8.921762],[11.313453,8.9217885],[11.3133913,8.9218124],[11.3133618,8.9218309],[11.3133243,8.9218733],[11.3132653,8.9219687],[11.313225,8.9219926],[11.3131741,8.9220562],[11.3131258,8.9221092],[11.3130775,8.9221701],[11.3130078,8.9222205],[11.3129353,8.9222681],[11.3128683,8.9223079],[11.3128227,8.9223423],[11.3127771,8.9223635],[11.3127449,8.9223423],[11.3126859,8.9224006],[11.3126457,8.9224324],[11.3125947,8.922496],[11.312525,8.9225702],[11.3124928,8.9226232],[11.3124418,8.9227107],[11.3123989,8.9227266],[11.3123667,8.9227372],[11.3123238,8.9227822],[11.3122782,8.9228431],[11.3122272,8.9228378],[11.3121977,8.9228219],[11.3121682,8.9227769],[11.3121468,8.9227425],[11.3121092,8.9227292],[11.3120663,8.9227319],[11.3120314,8.9227663],[11.3120395,8.9228166],[11.3120127,8.9228696],[11.3119724,8.9229279],[11.3119349,8.9229862],[11.3118947,8.9230154],[11.3118464,8.9230816],[11.3117981,8.9231346],[11.3118169,8.9231585],[11.3118115,8.9232009],[11.3117766,8.9232618],[11.3117659,8.9233121],[11.3117525,8.9233757],[11.3117659,8.9234393],[11.311774,8.9234844],[11.3117525,8.9235241],[11.311731,8.9235718],[11.3116935,8.9236142],[11.3116774,8.9236566],[11.3116398,8.9237017],[11.3116291,8.9236752],[11.3116023,8.9236884],[11.3115782,8.9237255],[11.3115513,8.9238024],[11.3115272,8.9238924],[11.3115111,8.9239454],[11.3114923,8.9240011],[11.3114494,8.924062],[11.3114414,8.9241071],[11.3114279,8.924176],[11.3114092,8.9242263],[11.3113824,8.9242634],[11.3113824,8.9242979],[11.3113555,8.9243614],[11.3113153,8.9244303],[11.3112563,8.9244727],[11.3111973,8.9245098],[11.3111141,8.9245681],[11.3110524,8.9245893],[11.3109881,8.9246158],[11.3108861,8.9246741],[11.3108647,8.924698],[11.3108566,8.9247589],[11.3108486,8.9248066],[11.3108352,8.9248516],[11.3108003,8.9249046],[11.3107654,8.9249391],[11.3107252,8.9249523],[11.3106984,8.9249311],[11.3106635,8.9250027],[11.3106608,8.9250292],[11.3106233,8.9250636],[11.3105831,8.9250848],[11.3105348,8.9250848],[11.3104972,8.9250954],[11.3104597,8.9251034],[11.3104194,8.9251352],[11.3103738,8.9251272],[11.3103577,8.9251564],[11.3103095,8.9251617],[11.3102585,8.9251882],[11.3102022,8.9252253],[11.3101244,8.9252412],[11.3100386,8.9252624],[11.3099661,8.9252889],[11.3098615,8.9253207],[11.3098133,8.9253445],[11.3097569,8.9253683],[11.3097328,8.9253948],[11.3097006,8.9253895],[11.309647,8.9254054],[11.3095933,8.9254213],[11.3095477,8.9254028],[11.3094968,8.9254107],[11.3094377,8.9254107],[11.30936,8.925416],[11.3092875,8.9254213],[11.3092393,8.9254319],[11.3091749,8.9254505],[11.3091025,8.9254505],[11.3090274,8.9254611],[11.3089898,8.9254796],[11.3089576,8.9254664],[11.308904,8.9254558],[11.3088503,8.9254664],[11.3087913,8.9254372],[11.3086975,8.9254001],[11.308625,8.9253736],[11.3085875,8.9253445],[11.3085338,8.9252995],[11.3084668,8.9252677],[11.3084051,8.9252518],[11.3083488,8.9252279],[11.3083112,8.9252094],[11.3082495,8.9251829],[11.3081825,8.9251564],[11.3080859,8.9251166],[11.3079974,8.9250716],[11.3079464,8.9250663],[11.3078794,8.9250398],[11.3078338,8.9250133],[11.3077775,8.9249947],[11.3077131,8.9249815],[11.3076621,8.9249947],[11.3075924,8.9249788],[11.3075307,8.9249603],[11.307469,8.9249417],[11.3074046,8.9249364],[11.3073322,8.9249444],[11.307296,8.9244543],[11.3034114,8.9241108],[11.2990725,8.9229218],[11.2932549,8.9264302],[11.2919984,8.9310616],[11.2870369,8.9332372],[11.2855324,8.9378284],[11.2732315,8.9354795],[11.2595968,8.9367285],[11.2557669,8.9452066],[11.252017,8.9519587],[11.2500572,8.9570608],[11.2299896,8.9592725],[11.2279506,8.9661008],[11.2259097,8.9729291],[11.2186694,8.9812538],[11.2147498,8.9914581],[11.2256165,9.0026741],[11.2219467,9.007699],[11.2183466,9.0155791],[11.2257387,9.0243741],[11.2251819,9.0265752],[11.2272609,9.0303918],[11.2311904,9.0324204],[11.2301827,9.0360559],[11.2304507,9.0391881],[11.2347614,9.0406465],[11.2358048,9.0451523],[11.2374465,9.050264],[11.2442767,9.0505721],[11.2480827,9.0554644],[11.2561566,9.0548543],[11.2642007,9.0564115],[11.2714556,9.0476981],[11.299,9.0324217],[11.3184164,9.0190967],[11.322985,8.9989189],[11.3298379,8.9954924],[11.3357067,8.9920559],[11.3713357,8.9775989],[11.3894894,8.9703279],[11.3943161,8.9609737],[11.3896384,8.9499786],[11.3928526,8.9181687],[11.3940129,8.9170711],[11.3941237,8.9144228],[11.3957029,8.9138148],[11.3962369,8.9123057],[11.3973454,8.9093703],[11.3989825,8.9081276],[11.4004063,8.9069561],[11.4006616,8.9051353],[11.4033027,8.9042116],[11.4056512,8.9033448],[11.406968,8.9016158],[11.4085199,8.9009095],[11.4097285,8.8994149],[11.4107006,8.8982127],[11.4121779,8.8969414],[11.4145115,8.8966749],[11.4179552,8.8947952],[11.4193557,8.8934155],[11.4209155,8.8926936],[11.423086,8.8922681],[11.4228104,8.8909125],[11.42558,8.8886335],[11.4283605,8.8897086],[11.4308217,8.8861947],[11.4354891,8.8831606],[11.437604,8.879094],[11.4422082,8.8740101],[11.4487564,8.8680995],[11.4549685,8.8644145],[11.4722248,8.8563796],[11.475885,8.8513538],[11.4795547,8.8463279],[11.481506,8.8412258],[11.4808991,8.8338507],[11.4737408,8.8235995],[11.46318,8.8181201],[11.4427721,8.8091434],[11.4429399,8.8163528],[11.4408655,8.8179429],[11.4329773,8.8219015]],[[11.4220932,8.868771],[11.4219296,8.8687551],[11.4218196,8.8687233],[11.421656,8.8686836],[11.4215165,8.868612],[11.4214709,8.8685378],[11.4215273,8.868339],[11.4215273,8.8681774],[11.421605,8.8681164],[11.421774,8.8681429],[11.422053,8.868188],[11.4222515,8.8682463],[11.4223373,8.8683364],[11.4223748,8.8684795],[11.4223212,8.8686253],[11.4222139,8.8687286],[11.4220932,8.868771]]]]}},{"type":"Feature","properties":{"kind":"water","id":"water:jalingo","localUnitId":"jalingo","name":"Mapped water in Jalingo"},"geometry":{"type":"MultiPolygon","coordinates":[[[[11.4223373,8.8683364],[11.4222515,8.8682463],[11.422053,8.868188],[11.421774,8.8681429],[11.421605,8.8681164],[11.4215273,8.8681774],[11.4215273,8.868339],[11.4214709,8.8685378],[11.4215165,8.868612],[11.421656,8.8686836],[11.4218196,8.8687233],[11.4219296,8.8687551],[11.4220932,8.868771],[11.4222139,8.8687286],[11.4223212,8.8686253],[11.4223748,8.8684795],[11.4223373,8.8683364]]],[[[11.3124293,8.9216992],[11.3106348,8.9247496],[11.3093895,8.9246395],[11.3093761,8.9246503],[11.3093197,8.9246874],[11.3092419,8.9246953],[11.3091668,8.9247006],[11.309081,8.9247033],[11.3089898,8.9246927],[11.3089067,8.9246635],[11.308853,8.9246476],[11.3087645,8.9246423],[11.3086706,8.9246476],[11.308617,8.9246556],[11.308566,8.9246741],[11.3084775,8.9246582],[11.3084024,8.924645],[11.3082951,8.9246158],[11.308212,8.9245999],[11.3081476,8.9245602],[11.3081181,8.9245363],[11.3080932,8.9245248],[11.3080931,8.9245248],[11.307296,8.9244543],[11.3073322,8.9249444],[11.3074046,8.9249364],[11.307469,8.9249417],[11.3075307,8.9249603],[11.3075924,8.9249788],[11.3076621,8.9249947],[11.3077131,8.9249815],[11.3077775,8.9249947],[11.3078338,8.9250133],[11.3078794,8.9250398],[11.3079464,8.9250663],[11.3079974,8.9250716],[11.3080859,8.9251166],[11.3081825,8.9251564],[11.3082495,8.9251829],[11.3083112,8.9252094],[11.3083488,8.9252279],[11.3084051,8.9252518],[11.3084668,8.9252677],[11.3085338,8.9252995],[11.3085875,8.9253445],[11.308625,8.9253736],[11.3086975,8.9254001],[11.3087913,8.9254372],[11.3088503,8.9254664],[11.308904,8.9254558],[11.3089576,8.9254664],[11.3089898,8.9254796],[11.3090274,8.9254611],[11.3091025,8.9254505],[11.3091749,8.9254505],[11.3092393,8.9254319],[11.3092875,8.9254213],[11.30936,8.925416],[11.3094377,8.9254107],[11.3094968,8.9254107],[11.3095477,8.9254028],[11.3095933,8.9254213],[11.309647,8.9254054],[11.3097006,8.9253895],[11.3097328,8.9253948],[11.3097569,8.9253683],[11.3098133,8.9253445],[11.3098615,8.9253207],[11.3099661,8.9252889],[11.3100386,8.9252624],[11.3101244,8.9252412],[11.3102022,8.9252253],[11.3102585,8.9251882],[11.3103095,8.9251617],[11.3103577,8.9251564],[11.3103738,8.9251272],[11.3104194,8.9251352],[11.3104597,8.9251034],[11.3104972,8.9250954],[11.3105348,8.9250848],[11.3105831,8.9250848],[11.3106233,8.9250636],[11.3106608,8.9250292],[11.3106635,8.9250027],[11.3106984,8.9249311],[11.3107252,8.9249523],[11.3107654,8.9249391],[11.3108003,8.9249046],[11.3108352,8.9248516],[11.3108486,8.9248066],[11.3108566,8.9247589],[11.3108647,8.924698],[11.3108861,8.9246741],[11.3109881,8.9246158],[11.3110524,8.9245893],[11.3111141,8.9245681],[11.3111973,8.9245098],[11.3112563,8.9244727],[11.3113153,8.9244303],[11.3113555,8.9243614],[11.3113824,8.9242979],[11.3113824,8.9242634],[11.3114092,8.9242263],[11.3114279,8.924176],[11.3114414,8.9241071],[11.3114494,8.924062],[11.3114923,8.9240011],[11.3115111,8.9239454],[11.3115272,8.9238924],[11.3115513,8.9238024],[11.3115782,8.9237255],[11.3116023,8.9236884],[11.3116291,8.9236752],[11.3116398,8.9237017],[11.3116774,8.9236566],[11.3116935,8.9236142],[11.311731,8.9235718],[11.3117525,8.9235241],[11.311774,8.9234844],[11.3117659,8.9234393],[11.3117525,8.9233757],[11.3117659,8.9233121],[11.3117766,8.9232618],[11.3118115,8.9232009],[11.3118169,8.9231585],[11.3117981,8.9231346],[11.3118464,8.9230816],[11.3118947,8.9230154],[11.3119349,8.9229862],[11.3119724,8.9229279],[11.3120127,8.9228696],[11.3120395,8.9228166],[11.3120314,8.9227663],[11.3120663,8.9227319],[11.3121092,8.9227292],[11.3121468,8.9227425],[11.3121682,8.9227769],[11.3121977,8.9228219],[11.3122272,8.9228378],[11.3122782,8.9228431],[11.3123238,8.9227822],[11.3123667,8.9227372],[11.3123989,8.9227266],[11.3124418,8.9227107],[11.3124928,8.9226232],[11.312525,8.9225702],[11.3125947,8.922496],[11.3126457,8.9224324],[11.3126859,8.9224006],[11.3127449,8.9223423],[11.3127771,8.9223635],[11.3128227,8.9223423],[11.3128683,8.9223079],[11.3129353,8.9222681],[11.3130078,8.9222205],[11.3130775,8.9221701],[11.3131258,8.9221092],[11.3131741,8.9220562],[11.313225,8.9219926],[11.3132653,8.9219687],[11.3133243,8.9218733],[11.3133618,8.9218309],[11.3133913,8.9218124],[11.313453,8.9217885],[11.3134879,8.921762],[11.3135362,8.9217143],[11.3135764,8.9217037],[11.3136435,8.921664],[11.3136837,8.921611],[11.3137749,8.9215501],[11.3138661,8.9215077],[11.3139412,8.9214865],[11.3139653,8.921505],[11.3139948,8.9215183],[11.314027,8.9214865],[11.3140753,8.9214626],[11.3141423,8.9214414],[11.3141933,8.9214282],[11.3142416,8.9213858],[11.3143194,8.9213513],[11.3144106,8.9213275],[11.3144696,8.9213063],[11.3145339,8.9213142],[11.3146466,8.9213036],[11.3147271,8.9213036],[11.3147861,8.9212877],[11.3148612,8.9212718],[11.3149175,8.921248],[11.3149953,8.9212135],[11.3150355,8.9211738],[11.3150865,8.9211685],[11.3151562,8.9211579],[11.3152662,8.9211446],[11.3153172,8.9211552],[11.3153815,8.9211552],[11.3154513,8.9211499],[11.3155371,8.9211526],[11.3156363,8.9211499],[11.3157034,8.9211341],[11.3157409,8.9211208],[11.315808,8.9211288],[11.3158563,8.9211473],[11.3159609,8.9211473],[11.3160816,8.921142],[11.3161808,8.9211261],[11.3162506,8.9211394],[11.3162935,8.9211182],[11.3163766,8.9211155],[11.3164705,8.9211129],[11.3165402,8.9211208],[11.3166073,8.9211049],[11.3166475,8.9211076],[11.3167226,8.9211288],[11.3167548,8.9211102],[11.3167977,8.9211155],[11.3168541,8.9211288],[11.3168997,8.9211102],[11.3169774,8.9210996],[11.3170391,8.9210996],[11.3170794,8.9210917],[11.3171437,8.9210943],[11.3172054,8.9211049],[11.3172778,8.9211076],[11.3173744,8.9211076],[11.3174522,8.9210943],[11.3175273,8.9210917],[11.3176346,8.9210943],[11.3177177,8.9210837],[11.3177767,8.9210837],[11.3178143,8.9210758],[11.3178626,8.9210943],[11.3180315,8.9210943],[11.3181388,8.9210943],[11.3182917,8.9210996],[11.3183641,8.9211049],[11.3184231,8.9211102],[11.3185385,8.9210599],[11.3186216,8.9209963],[11.3186941,8.9209433],[11.3187692,8.9209035],[11.3188121,8.920877],[11.3188469,8.9208876],[11.3189247,8.9208744],[11.3189784,8.9208505],[11.3190454,8.9208161],[11.3191098,8.9208267],[11.319201,8.9208505],[11.3192573,8.9208744],[11.3193002,8.9208982],[11.3193347,8.920326],[11.3161138,8.9205449],[11.3124293,8.9216992]]]]}},{"type":"Feature","properties":{"kind":"road","id":"road-41095842-0","name":"A4","osmWay":41095842,"major":true,"bridge":true},"geometry":{"type":"LineString","coordinates":[[11.3223932,8.9208133],[11.321983,8.920146]]}},{"type":"Feature","properties":{"kind":"road","id":"road-41095843-0","name":"A4","osmWay":41095843,"major":true,"bridge":false},"geometry":{"type":"LineString","coordinates":[[11.3339134,8.9339623],[11.3311033,8.9321754],[11.3296925,8.9311262],[11.3273791,8.9287971],[11.3259495,8.9268257],[11.3223932,8.9208133]]}},{"type":"Feature","properties":{"kind":"road","id":"road-80346525-0","name":"Unnamed mapped secondary","osmWay":80346525,"major":false,"bridge":false},"geometry":{"type":"LineString","coordinates":[[11.3597435,8.9016758],[11.3611088,8.9001861],[11.3683605,8.8914807]]}},{"type":"Feature","properties":{"kind":"road","id":"road-80346529-0","name":"DONGA ROAD","osmWay":80346529,"major":false,"bridge":false},"geometry":{"type":"LineString","coordinates":[[11.3581933,8.9041531],[11.3640346,8.9051634],[11.3668874,8.9067015],[11.3700758,8.9073458],[11.3713325,8.9073772],[11.372114,8.9076323]]}},{"type":"Feature","properties":{"kind":"road","id":"road-236834774-0","name":"A4","osmWay":236834774,"major":true,"bridge":false},"geometry":{"type":"LineString","coordinates":[[11.333989,8.9338581],[11.3370582,8.9357499]]}},{"type":"Feature","properties":{"kind":"road","id":"road-236834787-0","name":"Unnamed mapped secondary","osmWay":236834787,"major":false,"bridge":false},"geometry":{"type":"LineString","coordinates":[[11.3547254,8.8871803],[11.3568548,8.888201]]}},{"type":"Feature","properties":{"kind":"road","id":"road-236834789-0","name":"Unnamed mapped secondary","osmWay":236834789,"major":false,"bridge":true},"geometry":{"type":"LineString","coordinates":[[11.3542518,8.8869252],[11.3547254,8.8871803]]}},{"type":"Feature","properties":{"kind":"road","id":"road-237214024-0","name":"Unnamed mapped primary","osmWay":237214024,"major":true,"bridge":false},"geometry":{"type":"LineString","coordinates":[[11.3308538,8.948199],[11.3325801,8.9450975],[11.3344493,8.9395693],[11.3350488,8.9385055],[11.335785,8.9376065]]}},{"type":"Feature","properties":{"kind":"road","id":"road-237214025-0","name":"Unnamed mapped primary","osmWay":237214025,"major":true,"bridge":false},"geometry":{"type":"LineString","coordinates":[[11.3371115,8.9361349],[11.3352031,8.9384366],[11.3347846,8.939103],[11.3338968,8.9412121],[11.3326456,8.9451255],[11.3309243,8.9482149]]}},{"type":"Feature","properties":{"kind":"road","id":"road-237214027-0","name":"HAMARUWA WAY","osmWay":237214027,"major":false,"bridge":false},"geometry":{"type":"LineString","coordinates":[[11.3371301,8.9357363],[11.3375004,8.9354491],[11.3388397,8.9338439],[11.3400283,8.9321728],[11.3421719,8.9240401],[11.344024,8.9202069]]}},{"type":"Feature","properties":{"kind":"road","id":"road-237214029-0","name":"A4","osmWay":237214029,"major":true,"bridge":false},"geometry":{"type":"LineString","coordinates":[[11.3369297,8.935947],[11.3339134,8.9339623]]}},{"type":"Feature","properties":{"kind":"road","id":"road-237214032-0","name":"A4","osmWay":237214032,"major":true,"bridge":false},"geometry":{"type":"LineString","coordinates":[[11.3371578,8.9361343],[11.3369297,8.935947],[11.3371301,8.9357363],[11.3373328,8.9359152],[11.3371578,8.9361343]]}},{"type":"Feature","properties":{"kind":"road","id":"road-237214035-0","name":"Unnamed mapped secondary","osmWay":237214035,"major":false,"bridge":false},"geometry":{"type":"LineString","coordinates":[[11.3577379,8.904267],[11.355785,8.9074994],[11.3551923,8.9082627],[11.3476156,8.914049],[11.34653,8.9156791],[11.3443299,8.9198756]]}},{"type":"Feature","properties":{"kind":"road","id":"road-237214036-0","name":"JALINGO - YOLA ROAD","osmWay":237214036,"major":true,"bridge":false},"geometry":{"type":"LineString","coordinates":[[11.3398576,8.9375317],[11.3583881,8.9492177],[11.3599044,8.950388],[11.3670891,8.956806],[11.3677698,8.9572508]]}},{"type":"Feature","properties":{"kind":"road","id":"road-237214037-0","name":"Unnamed mapped primary","osmWay":237214037,"major":true,"bridge":false},"geometry":{"type":"LineString","coordinates":[[11.335785,8.9376065],[11.3369752,8.9360627]]}},{"type":"Feature","properties":{"kind":"road","id":"road-267213423-0","name":"Unnamed mapped secondary","osmWay":267213423,"major":false,"bridge":false},"geometry":{"type":"LineString","coordinates":[[11.3597789,8.9017078],[11.3597464,8.9019222],[11.3595354,8.9018809],[11.3595735,8.9016796],[11.3597789,8.9017078]]}},{"type":"Feature","properties":{"kind":"road","id":"road-267213426-0","name":"Unnamed mapped tertiary","osmWay":267213426,"major":false,"bridge":false},"geometry":{"type":"LineString","coordinates":[[11.3720209,8.9507635],[11.3716883,8.9527367],[11.3712208,8.953789],[11.3680051,8.9574635]]}},{"type":"Feature","properties":{"kind":"road","id":"road-267213427-0","name":"Unnamed mapped tertiary","osmWay":267213427,"major":false,"bridge":false},"geometry":{"type":"LineString","coordinates":[[11.3596208,8.9016571],[11.3605742,8.8933238],[11.3613431,8.8911122],[11.3613396,8.8894997]]}},{"type":"Feature","properties":{"kind":"road","id":"road-267213429-0","name":"MILE - SIX BYE PASS ROAD","osmWay":267213429,"major":false,"bridge":false},"geometry":{"type":"LineString","coordinates":[[11.3678585,8.9572607],[11.370737,8.9543208],[11.3713109,8.9534412],[11.3716201,8.9526697],[11.3721497,8.9490772],[11.3722516,8.9462133],[11.3710481,8.9387042],[11.3710997,8.9375891],[11.371824,8.9360018],[11.3755891,8.9301087],[11.3759404,8.9292952],[11.3761148,8.9284712],[11.3760209,8.9268906],[11.3739287,8.9193746],[11.3731402,8.9172296]]}},{"type":"Feature","properties":{"kind":"road","id":"road-267213430-0","name":"Unnamed mapped tertiary","osmWay":267213430,"major":false,"bridge":false},"geometry":{"type":"LineString","coordinates":[[11.3732556,8.9171819],[11.3739046,8.9189493],[11.3761241,8.9268681],[11.3762462,8.9280565],[11.3760848,8.9291526],[11.3756883,8.9301431],[11.3716057,8.9365733],[11.3712063,8.9376152],[11.3711661,8.9389255],[11.3723502,8.9461566],[11.3722506,8.9490993],[11.3720209,8.9507635]]}},{"type":"Feature","properties":{"kind":"road","id":"road-267213431-0","name":"Unnamed mapped tertiary","osmWay":267213431,"major":false,"bridge":false},"geometry":{"type":"LineString","coordinates":[[11.3620824,8.9523405],[11.364238,8.949859],[11.367521,8.9444645],[11.3699162,8.9412266],[11.3710226,8.9382711]]}},{"type":"Feature","properties":{"kind":"road","id":"road-293055746-0","name":"Unnamed mapped secondary","osmWay":293055746,"major":false,"bridge":false},"geometry":{"type":"LineString","coordinates":[[11.3612397,8.8893718],[11.3584994,8.8888824],[11.3568548,8.888201]]}},{"type":"Feature","properties":{"kind":"road","id":"road-293055749-0","name":"TURAKI ROAD","osmWay":293055749,"major":false,"bridge":false},"geometry":{"type":"LineString","coordinates":[[11.3615559,8.8893214],[11.3623002,8.8897051],[11.3638715,8.8901295],[11.3666364,8.8912982],[11.3683289,8.8913309]]}},{"type":"Feature","properties":{"kind":"road","id":"road-293055751-0","name":"Unnamed mapped secondary","osmWay":293055751,"major":false,"bridge":false},"geometry":{"type":"LineString","coordinates":[[11.3683383,8.891443],[11.3667012,8.891426],[11.3639377,8.8902606],[11.3623671,8.8898271],[11.3615178,8.8894587]]}},{"type":"Feature","properties":{"kind":"road","id":"road-293055758-0","name":"Unnamed mapped secondary","osmWay":293055758,"major":false,"bridge":false},"geometry":{"type":"LineString","coordinates":[[11.3568548,8.888201],[11.3586972,8.8888261],[11.3612894,8.8892369]]}},{"type":"Feature","properties":{"kind":"road","id":"road-310514713-0","name":"Unnamed mapped secondary","osmWay":310514713,"major":false,"bridge":true},"geometry":{"type":"LineString","coordinates":[[11.3443299,8.9198756],[11.344122,8.92026]]}},{"type":"Feature","properties":{"kind":"road","id":"road-310514715-0","name":"Unnamed mapped secondary","osmWay":310514715,"major":false,"bridge":true},"geometry":{"type":"LineString","coordinates":[[11.344024,8.9202069],[11.3442326,8.9198262]]}},{"type":"Feature","properties":{"kind":"road","id":"road-310514724-0","name":"Unnamed mapped secondary","osmWay":310514724,"major":false,"bridge":false},"geometry":{"type":"LineString","coordinates":[[11.3684691,8.8915474],[11.3598023,8.9017491]]}},{"type":"Feature","properties":{"kind":"road","id":"road-310514734-0","name":"Unnamed mapped secondary","osmWay":310514734,"major":false,"bridge":false},"geometry":{"type":"LineString","coordinates":[[11.344122,8.92026],[11.3428611,8.9226672],[11.3423075,8.9240177],[11.3401597,8.932096],[11.3395865,8.9330634],[11.3373272,8.9358851]]}},{"type":"Feature","properties":{"kind":"road","id":"road-310514735-0","name":"Unnamed mapped secondary","osmWay":310514735,"major":false,"bridge":false},"geometry":{"type":"LineString","coordinates":[[11.3442326,8.9198262],[11.3461833,8.9161139],[11.3473079,8.9142817],[11.3480697,8.9135172],[11.3549253,8.9083885],[11.3558265,8.9072451],[11.3575715,8.9041757]]}},{"type":"Feature","properties":{"kind":"road","id":"road-310514767-0","name":"YNAMUSALA ROAD","osmWay":310514767,"major":false,"bridge":false},"geometry":{"type":"LineString","coordinates":[[11.3688906,8.8913908],[11.3719306,8.8913781],[11.3811117,8.8930315],[11.3849366,8.8939995],[11.3902581,8.8949005],[11.3918567,8.895404],[11.3940239,8.8958167],[11.3960597,8.8967912],[11.3976273,8.8972824]]}},{"type":"Feature","properties":{"kind":"road","id":"road-311412938-0","name":"Unnamed mapped primary","osmWay":311412938,"major":true,"bridge":false},"geometry":{"type":"LineString","coordinates":[[11.313466,9.022494],[11.3122621,9.0121314],[11.3103899,9.005339],[11.3107212,9.000646],[11.310406,8.9991426],[11.3105858,8.9981915],[11.3115228,8.9963875],[11.3119457,8.9959196],[11.3131072,8.995136],[11.3150221,8.9942972],[11.3199775,8.9905022],[11.3222092,8.9894145],[11.3234425,8.9886619],[11.3247156,8.9870144],[11.3266039,8.9849506],[11.327654,8.9832272]]}},{"type":"Feature","properties":{"kind":"road","id":"road-311412939-0","name":"Unnamed mapped primary","osmWay":311412939,"major":true,"bridge":true},"geometry":{"type":"LineString","coordinates":[[11.3307662,8.9483817],[11.3308538,8.948199]]}},{"type":"Feature","properties":{"kind":"road","id":"road-383594148-0","name":"Unnamed mapped tertiary","osmWay":383594148,"major":false,"bridge":false},"geometry":{"type":"LineString","coordinates":[[11.371932,8.8846291],[11.3718268,8.8845109],[11.3719316,8.8844106],[11.3720475,8.8845109],[11.371932,8.8846291]]}},{"type":"Feature","properties":{"kind":"road","id":"road-383594152-0","name":"Unnamed mapped tertiary","osmWay":383594152,"major":false,"bridge":false},"geometry":{"type":"LineString","coordinates":[[11.3720397,8.8844785],[11.3722625,8.8846347]]}},{"type":"Feature","properties":{"kind":"road","id":"road-383594154-0","name":"Unnamed mapped secondary","osmWay":383594154,"major":false,"bridge":true},"geometry":{"type":"LineString","coordinates":[[11.3926458,8.9176179],[11.3926107,8.9179933]]}},{"type":"Feature","properties":{"kind":"road","id":"road-383594156-0","name":"Unnamed mapped tertiary","osmWay":383594156,"major":false,"bridge":false},"geometry":{"type":"LineString","coordinates":[[11.3722625,8.8846347],[11.3720113,8.8846011]]}},{"type":"Feature","properties":{"kind":"road","id":"road-383594163-0","name":"Unnamed mapped tertiary","osmWay":383594163,"major":false,"bridge":false},"geometry":{"type":"LineString","coordinates":[[11.3722625,8.8846347],[11.3794353,8.8867765],[11.3838873,8.8871037],[11.3864971,8.888106],[11.3902179,8.8907692],[11.3902554,8.8913813],[11.3892496,8.8946938]]}},{"type":"Feature","properties":{"kind":"road","id":"road-383594165-0","name":"Unnamed mapped tertiary","osmWay":383594165,"major":false,"bridge":false},"geometry":{"type":"LineString","coordinates":[[11.3718322,8.8845548],[11.3708577,8.8843694],[11.3693596,8.8844688],[11.3670529,8.8853049],[11.3625897,8.8865212],[11.362158,8.8868325],[11.361693,8.8878419],[11.3614159,8.8886879],[11.3614563,8.8892048]]}},{"type":"Feature","properties":{"kind":"road","id":"road-383594175-0","name":"Unnamed mapped secondary","osmWay":383594175,"major":false,"bridge":false},"geometry":{"type":"LineString","coordinates":[[11.3926107,8.9179933],[11.3896653,8.9497121]]}},{"type":"Feature","properties":{"kind":"road","id":"road-383594175-1","name":"Unnamed mapped secondary","osmWay":383594175,"major":false,"bridge":false},"geometry":{"type":"LineString","coordinates":[[11.3896994,8.9501219],[11.3899999,8.9512791],[11.3920876,8.9557355]]}},{"type":"Feature","properties":{"kind":"road","id":"road-383594175-2","name":"Unnamed mapped secondary","osmWay":383594175,"major":false,"bridge":false},"geometry":{"type":"LineString","coordinates":[[11.3938835,8.9618121],[11.3921886,8.9648909]]}},{"type":"Feature","properties":{"kind":"road","id":"road-383594175-3","name":"Unnamed mapped secondary","osmWay":383594175,"major":false,"bridge":false},"geometry":{"type":"LineString","coordinates":[[11.3942375,8.960789],[11.3939903,8.9616052]]}},{"type":"Feature","properties":{"kind":"road","id":"road-383617065-0","name":"Unnamed mapped secondary","osmWay":383617065,"major":false,"bridge":false},"geometry":{"type":"LineString","coordinates":[[11.3613979,8.8895109],[11.3612482,8.8892985],[11.3614563,8.8892048],[11.3615533,8.8893945],[11.3613979,8.8895109]]}},{"type":"Feature","properties":{"kind":"road","id":"road-383617066-0","name":"Unnamed mapped tertiary","osmWay":383617066,"major":false,"bridge":false},"geometry":{"type":"LineString","coordinates":[[11.3614564,8.8895003],[11.3613921,8.8912488],[11.3606246,8.8933471],[11.3597249,8.9016656]]}},{"type":"Feature","properties":{"kind":"road","id":"road-383617067-0","name":"Unnamed mapped tertiary","osmWay":383617067,"major":false,"bridge":false},"geometry":{"type":"LineString","coordinates":[[11.3613417,8.8892046],[11.3613268,8.8887512],[11.3615142,8.8880344],[11.3620463,8.8868589],[11.3625187,8.8864722],[11.36701,8.8852426],[11.3692655,8.8844174],[11.370299,8.8842811],[11.371868,8.8844344]]}},{"type":"Feature","properties":{"kind":"road","id":"road-555030466-0","name":"Unnamed mapped tertiary","osmWay":555030466,"major":false,"bridge":false},"geometry":{"type":"LineString","coordinates":[[11.3581933,8.9041531],[11.357968,8.9041238]]}},{"type":"Feature","properties":{"kind":"road","id":"road-555030467-0","name":"Unnamed mapped tertiary","osmWay":555030467,"major":false,"bridge":false},"geometry":{"type":"LineString","coordinates":[[11.357982,8.9040171],[11.3581933,8.9041531]]}},{"type":"Feature","properties":{"kind":"road","id":"road-555030468-0","name":"Unnamed mapped secondary","osmWay":555030468,"major":false,"bridge":false},"geometry":{"type":"LineString","coordinates":[[11.3575339,8.9039886],[11.3577966,8.9038207],[11.3579816,8.9040713],[11.3576897,8.9042581],[11.3575339,8.9039886]]}},{"type":"Feature","properties":{"kind":"road","id":"road-555030469-0","name":"Unnamed mapped secondary","osmWay":555030469,"major":false,"bridge":false},"geometry":{"type":"LineString","coordinates":[[11.3578405,8.9038332],[11.3595354,8.9018809]]}},{"type":"Feature","properties":{"kind":"road","id":"road-555030470-0","name":"Unnamed mapped secondary","osmWay":555030470,"major":false,"bridge":false},"geometry":{"type":"LineString","coordinates":[[11.3596399,8.9019468],[11.3579507,8.903926]]}},{"type":"Feature","properties":{"kind":"road","id":"road-555039470-0","name":"Unnamed mapped tertiary","osmWay":555039470,"major":false,"bridge":false},"geometry":{"type":"LineString","coordinates":[[11.3719719,8.8846237],[11.3697352,8.8896178],[11.3686658,8.8912963]]}},{"type":"Feature","properties":{"kind":"road","id":"road-555039471-0","name":"Unnamed mapped tertiary","osmWay":555039471,"major":false,"bridge":false},"geometry":{"type":"LineString","coordinates":[[11.368529,8.8911971],[11.3690083,8.890685],[11.3696547,8.8895824],[11.3718595,8.8845978]]}},{"type":"Feature","properties":{"kind":"road","id":"road-555052324-0","name":"Unnamed mapped secondary","osmWay":555052324,"major":false,"bridge":false},"geometry":{"type":"LineString","coordinates":[[11.3686798,8.8913376],[11.3688906,8.8913908]]}},{"type":"Feature","properties":{"kind":"road","id":"road-555052325-0","name":"Unnamed mapped secondary","osmWay":555052325,"major":false,"bridge":false},"geometry":{"type":"LineString","coordinates":[[11.3688906,8.8913908],[11.3686583,8.8914638]]}},{"type":"Feature","properties":{"kind":"road","id":"road-555052326-0","name":"Unnamed mapped secondary","osmWay":555052326,"major":false,"bridge":false},"geometry":{"type":"LineString","coordinates":[[11.3683243,8.8913591],[11.368529,8.8911971],[11.3686833,8.891381],[11.3685131,8.8915505],[11.3683243,8.8913591]]}},{"type":"Feature","properties":{"kind":"road","id":"road-555084541-0","name":"Unnamed mapped tertiary","osmWay":555084541,"major":false,"bridge":false},"geometry":{"type":"LineString","coordinates":[[11.3808871,8.8926394],[11.3808998,8.8918437],[11.3813719,8.8900418],[11.3822291,8.8881597]]}},{"type":"Feature","properties":{"kind":"road","id":"road-555084542-0","name":"Unnamed mapped tertiary","osmWay":555084542,"major":false,"bridge":false},"geometry":{"type":"LineString","coordinates":[[11.3725997,8.9073485],[11.3727677,8.9076177]]}},{"type":"Feature","properties":{"kind":"road","id":"road-555084544-0","name":"Unnamed mapped tertiary","osmWay":555084544,"major":false,"bridge":false},"geometry":{"type":"LineString","coordinates":[[11.3725822,8.9076791],[11.3725997,8.9073485]]}},{"type":"Feature","properties":{"kind":"road","id":"road-555084547-0","name":"Unnamed mapped tertiary","osmWay":555084547,"major":false,"bridge":false},"geometry":{"type":"LineString","coordinates":[[11.372114,8.9076323],[11.3725381,8.9077283]]}},{"type":"Feature","properties":{"kind":"road","id":"road-555084549-0","name":"Unnamed mapped tertiary","osmWay":555084549,"major":false,"bridge":false},"geometry":{"type":"LineString","coordinates":[[11.3724941,8.9078673],[11.372114,8.9076323]]}},{"type":"Feature","properties":{"kind":"road","id":"road-555084551-0","name":"Unnamed mapped tertiary","osmWay":555084551,"major":false,"bridge":false},"geometry":{"type":"LineString","coordinates":[[11.3724941,8.9078673],[11.3727677,8.9076177],[11.3730056,8.9078882],[11.3727272,8.9081222],[11.3724941,8.9078673]]}},{"type":"Feature","properties":{"kind":"road","id":"road-555084553-0","name":"Unnamed mapped tertiary_link","osmWay":555084553,"major":false,"bridge":false},"geometry":{"type":"LineString","coordinates":[[11.3646239,8.9054069],[11.3646236,8.9051334]]}},{"type":"Feature","properties":{"kind":"road","id":"road-555109424-0","name":"Unnamed mapped tertiary","osmWay":555109424,"major":false,"bridge":false},"geometry":{"type":"LineString","coordinates":[[11.3810192,8.893276],[11.3808781,8.8929908]]}},{"type":"Feature","properties":{"kind":"road","id":"road-555109425-0","name":"Unnamed mapped tertiary","osmWay":555109425,"major":false,"bridge":false},"geometry":{"type":"LineString","coordinates":[[11.3809391,8.8930001],[11.3810192,8.893276]]}},{"type":"Feature","properties":{"kind":"road","id":"road-555109427-0","name":"Unnamed mapped tertiary","osmWay":555109427,"major":false,"bridge":false},"geometry":{"type":"LineString","coordinates":[[11.3808781,8.8929908],[11.3808871,8.8926394]]}},{"type":"Feature","properties":{"kind":"road","id":"road-555109429-0","name":"Unnamed mapped tertiary","osmWay":555109429,"major":false,"bridge":false},"geometry":{"type":"LineString","coordinates":[[11.3808871,8.8926394],[11.3809391,8.8930001]]}},{"type":"Feature","properties":{"kind":"road","id":"road-555109430-0","name":"NTA ROAD","osmWay":555109430,"major":false,"bridge":false},"geometry":{"type":"LineString","coordinates":[[11.3725997,8.9073485],[11.3727245,8.90625],[11.3730128,8.9056074],[11.3801274,8.8984116],[11.3809857,8.897251],[11.3814604,8.8960585],[11.381561,8.8952529],[11.3814524,8.8944314],[11.3810192,8.893276]]}},{"type":"Feature","properties":{"kind":"road","id":"road-555109434-0","name":"Unnamed mapped tertiary","osmWay":555109434,"major":false,"bridge":false},"geometry":{"type":"LineString","coordinates":[[11.3805692,8.8872209],[11.3802636,8.8869105]]}},{"type":"Feature","properties":{"kind":"road","id":"road-555109435-0","name":"Unnamed mapped tertiary","osmWay":555109435,"major":false,"bridge":false},"geometry":{"type":"LineString","coordinates":[[11.3803457,8.8869155],[11.3805692,8.8872209]]}},{"type":"Feature","properties":{"kind":"road","id":"road-555109436-0","name":"Unnamed mapped tertiary_link","osmWay":555109436,"major":false,"bridge":false},"geometry":{"type":"LineString","coordinates":[[11.3804947,8.8871685],[11.3798872,8.8868666]]}},{"type":"Feature","properties":{"kind":"road","id":"road-555109437-0","name":"Unnamed mapped tertiary_link","osmWay":555109437,"major":false,"bridge":false},"geometry":{"type":"LineString","coordinates":[[11.3805713,8.8869207],[11.3805237,8.8871586]]}},{"type":"Feature","properties":{"kind":"road","id":"road-555109438-0","name":"Unnamed mapped secondary_link","osmWay":555109438,"major":false,"bridge":false},"geometry":{"type":"LineString","coordinates":[[11.3808972,8.8927116],[11.3810702,8.8930236]]}},{"type":"Feature","properties":{"kind":"road","id":"road-555109439-0","name":"Unnamed mapped secondary_link","osmWay":555109439,"major":false,"bridge":false},"geometry":{"type":"LineString","coordinates":[[11.3807609,8.8929691],[11.380871,8.8927149]]}},{"type":"Feature","properties":{"kind":"road","id":"road-555109440-0","name":"Unnamed mapped secondary_link","osmWay":555109440,"major":false,"bridge":false},"geometry":{"type":"LineString","coordinates":[[11.3811117,8.8930315],[11.3810098,8.8932131]]}},{"type":"Feature","properties":{"kind":"road","id":"road-555109441-0","name":"Unnamed mapped secondary_link","osmWay":555109441,"major":false,"bridge":false},"geometry":{"type":"LineString","coordinates":[[11.380983,8.893221],[11.3807193,8.8929632]]}},{"type":"Feature","properties":{"kind":"road","id":"road-563019636-0","name":"Unnamed mapped tertiary","osmWay":563019636,"major":false,"bridge":true},"geometry":{"type":"LineString","coordinates":[[11.3730678,8.9166824],[11.3732556,8.9171819]]}},{"type":"Feature","properties":{"kind":"road","id":"road-563019637-0","name":"Unnamed mapped tertiary","osmWay":563019637,"major":false,"bridge":true},"geometry":{"type":"LineString","coordinates":[[11.3731402,8.9172296],[11.3729444,8.9167196]]}},{"type":"Feature","properties":{"kind":"road","id":"road-563019638-0","name":"Unnamed mapped tertiary","osmWay":563019638,"major":false,"bridge":false},"geometry":{"type":"LineString","coordinates":[[11.3729444,8.9167196],[11.372357,8.9150978],[11.3721116,8.9136219],[11.3722122,8.9124454],[11.372534,8.9109641],[11.3727245,8.9085501],[11.3726016,8.9080763]]}},{"type":"Feature","properties":{"kind":"road","id":"road-563019639-0","name":"Unnamed mapped tertiary","osmWay":563019639,"major":false,"bridge":false},"geometry":{"type":"LineString","coordinates":[[11.3728591,8.9080992],[11.3726621,8.9106448],[11.3722913,8.912554],[11.3722121,8.9136272],[11.372416,8.9149587],[11.3730678,8.9166824]]}},{"type":"Feature","properties":{"kind":"road","id":"road-585027095-0","name":"Unnamed mapped secondary","osmWay":585027095,"major":false,"bridge":false},"geometry":{"type":"LineString","coordinates":[[11.3976273,8.8972824],[11.3975322,8.8981546],[11.3973003,8.8987452],[11.394217,8.9039102],[11.393871,8.904896],[11.3926458,8.9176179]]}},{"type":"Feature","properties":{"kind":"road","id":"road-585030690-0","name":"JOLLY NYAME BYE PASS ROAD","osmWay":585030690,"major":false,"bridge":false},"geometry":{"type":"LineString","coordinates":[[11.3894829,8.9698228],[11.3918454,8.9655245]]}},{"type":"Feature","properties":{"kind":"road","id":"road-585030691-0","name":"Unnamed mapped secondary","osmWay":585030691,"major":false,"bridge":true},"geometry":{"type":"LineString","coordinates":[[11.3921886,8.9648909],[11.3918454,8.9655245]]}},{"type":"Feature","properties":{"kind":"road","id":"road-585313887-0","name":"Unnamed mapped tertiary","osmWay":585313887,"major":false,"bridge":false},"geometry":{"type":"LineString","coordinates":[[11.3711426,8.9379641],[11.3710226,8.9382711]]}},{"type":"Feature","properties":{"kind":"road","id":"road-585313889-0","name":"Unnamed mapped tertiary_link","osmWay":585313889,"major":false,"bridge":false},"geometry":{"type":"LineString","coordinates":[[11.3745339,8.9212324],[11.374449,8.9212621]]}},{"type":"Feature","properties":{"kind":"road","id":"road-585316008-0","name":"Unnamed mapped tertiary_link","osmWay":585316008,"major":false,"bridge":false},"geometry":{"type":"LineString","coordinates":[[11.3733947,8.9335731],[11.3734758,8.9336275]]}},{"type":"Feature","properties":{"kind":"road","id":"road-585316009-0","name":"Unnamed mapped tertiary_link","osmWay":585316009,"major":false,"bridge":false},"geometry":{"type":"LineString","coordinates":[[11.3719678,8.9435245],[11.3718616,8.9435355]]}},{"type":"Feature","properties":{"kind":"road","id":"road-585316010-0","name":"Unnamed mapped tertiary_link","osmWay":585316010,"major":false,"bridge":false},"geometry":{"type":"LineString","coordinates":[[11.3718755,8.9511794],[11.3719608,8.9511877]]}},{"type":"Feature","properties":{"kind":"road","id":"road-585316011-0","name":"Unnamed mapped tertiary_link","osmWay":585316011,"major":false,"bridge":false},"geometry":{"type":"LineString","coordinates":[[11.3696877,8.9554479],[11.3697485,8.955509]]}},{"type":"Feature","properties":{"kind":"road","id":"road-1231121678-0","name":"A4","osmWay":1231121678,"major":true,"bridge":false},"geometry":{"type":"LineString","coordinates":[[11.3680001,8.9575075],[11.3681392,8.957781],[11.3706553,8.9599835],[11.3726896,8.9614665],[11.3842625,8.9675919],[11.3892554,8.9700251]]}},{"type":"Feature","properties":{"kind":"road","id":"road-1231121679-0","name":"A4","osmWay":1231121679,"major":true,"bridge":false},"geometry":{"type":"LineString","coordinates":[[11.3890567,8.9702867],[11.388689,8.9699791],[11.3726118,8.9615778],[11.3710766,8.96051],[11.3677664,8.9576724]]}},{"type":"Feature","properties":{"kind":"road","id":"road-1231121680-0","name":"A4","osmWay":1231121680,"major":true,"bridge":false},"geometry":{"type":"LineString","coordinates":[[11.3678146,8.9572512],[11.3680001,8.9575075],[11.3677664,8.9576724],[11.3675759,8.9574601],[11.3678146,8.9572512]]}},{"type":"Feature","properties":{"kind":"road","id":"road-1231121682-0","name":"Unnamed mapped secondary","osmWay":1231121682,"major":false,"bridge":false},"geometry":{"type":"LineString","coordinates":[[11.3892554,8.9700251],[11.3894829,8.9698228]]}},{"type":"Feature","properties":{"kind":"road","id":"road-1231121684-0","name":"A4","osmWay":1231121684,"major":true,"bridge":false},"geometry":{"type":"LineString","coordinates":[[11.3894496,8.9701379],[11.3895324,8.9702446]]}},{"type":"Feature","properties":{"kind":"road","id":"road-1231121685-0","name":"Unnamed mapped secondary","osmWay":1231121685,"major":false,"bridge":false},"geometry":{"type":"LineString","coordinates":[[11.3894829,8.9698228],[11.3894496,8.9701379]]}},{"type":"Feature","properties":{"kind":"road","id":"road-1231121687-0","name":"A4","osmWay":1231121687,"major":true,"bridge":false},"geometry":{"type":"LineString","coordinates":[[11.3892154,8.9704377],[11.3890567,8.9702867],[11.3890923,8.9701086]]}},{"type":"Feature","properties":{"kind":"road","id":"road-1231121687-1","name":"A4","osmWay":1231121687,"major":true,"bridge":false},"geometry":{"type":"LineString","coordinates":[[11.3890923,8.9701086],[11.3893887,8.9700668],[11.3894375,8.9703487]]}},{"type":"Feature","properties":{"kind":"road","id":"road-1231121699-0","name":"A4","osmWay":1231121699,"major":true,"bridge":true},"geometry":{"type":"LineString","coordinates":[[11.3341336,8.933995],[11.339449,8.9373549]]}},{"type":"Feature","properties":{"kind":"road","id":"road-1231121700-0","name":"A4","osmWay":1231121700,"major":true,"bridge":false},"geometry":{"type":"LineString","coordinates":[[11.3340874,8.934065],[11.3339134,8.9339623]]}},{"type":"Feature","properties":{"kind":"road","id":"road-1231121701-0","name":"A4","osmWay":1231121701,"major":true,"bridge":true},"geometry":{"type":"LineString","coordinates":[[11.3394043,8.9374199],[11.3340874,8.934065]]}},{"type":"Feature","properties":{"kind":"road","id":"road-1231121702-0","name":"A4","osmWay":1231121702,"major":true,"bridge":false},"geometry":{"type":"LineString","coordinates":[[11.340024,8.9378433],[11.3394043,8.9374199]]}},{"type":"Feature","properties":{"kind":"road","id":"road-1231121704-0","name":"A4","osmWay":1231121704,"major":true,"bridge":false},"geometry":{"type":"LineString","coordinates":[[11.340024,8.9378433],[11.3372027,8.9361232]]}},{"type":"Feature","properties":{"kind":"road","id":"road-1231121705-0","name":"A4","osmWay":1231121705,"major":true,"bridge":false},"geometry":{"type":"LineString","coordinates":[[11.3373328,8.9359152],[11.3398576,8.9375317]]}},{"type":"Feature","properties":{"kind":"road","id":"road-1231121706-0","name":"A4","osmWay":1231121706,"major":true,"bridge":false},"geometry":{"type":"LineString","coordinates":[[11.3675759,8.9574601],[11.3599672,8.9506013],[11.3586153,8.9495242],[11.3467268,8.9419507],[11.340024,8.9378433]]}},{"type":"Feature","properties":{"kind":"road","id":"road-1231121708-0","name":"A4","osmWay":1231121708,"major":true,"bridge":true},"geometry":{"type":"LineString","coordinates":[[11.3221409,8.9201353],[11.3225202,8.9207703]]}},{"type":"Feature","properties":{"kind":"road","id":"road-1231121709-0","name":"A4","osmWay":1231121709,"major":true,"bridge":false},"geometry":{"type":"LineString","coordinates":[[11.3225202,8.9207703],[11.3260621,8.9267806],[11.3269214,8.9280346],[11.3281544,8.9294916],[11.330301,8.9314474],[11.333989,8.9338581]]}},{"type":"Feature","properties":{"kind":"road","id":"road-1231285291-0","name":"Unnamed mapped trunk_link","osmWay":1231285291,"major":false,"bridge":false},"geometry":{"type":"LineString","coordinates":[[11.3628931,8.9532156],[11.3629602,8.9531224]]}},{"type":"Feature","properties":{"kind":"road","id":"road-1244170379-0","name":"Unnamed mapped tertiary","osmWay":1244170379,"major":false,"bridge":false},"geometry":{"type":"LineString","coordinates":[[11.3822291,8.8881597],[11.3815396,8.8880278],[11.3805692,8.8872209]]}},{"type":"Feature","properties":{"kind":"road","id":"road-1303165154-0","name":"A4","osmWay":1303165154,"major":true,"bridge":false},"geometry":{"type":"LineString","coordinates":[[11.339449,8.9373549],[11.3401012,8.937744]]}},{"type":"Feature","properties":{"kind":"road","id":"road-1303165155-0","name":"A4","osmWay":1303165155,"major":true,"bridge":false},"geometry":{"type":"LineString","coordinates":[[11.333989,8.9338581],[11.3341336,8.933995]]}},{"type":"Feature","properties":{"kind":"road","id":"road-1448322973-0","name":"Unnamed mapped primary_link","osmWay":1448322973,"major":false,"bridge":false},"geometry":{"type":"LineString","coordinates":[[11.3292017,8.9788714],[11.3292901,8.9788678]]}},{"type":"Feature","properties":{"kind":"road","id":"road-1448322974-0","name":"Unnamed mapped primary","osmWay":1448322974,"major":true,"bridge":false},"geometry":{"type":"LineString","coordinates":[[11.327654,8.9832272],[11.3288303,8.9810791],[11.329207,8.9801183],[11.3291286,8.9769923],[11.3297562,8.969032],[11.3312602,8.9573081],[11.3312643,8.9560059],[11.330076,8.9512791],[11.3301941,8.9500299],[11.3307662,8.9483817]]}},{"type":"Feature","properties":{"kind":"road","id":"road-1448322977-0","name":"Unnamed mapped primary_link","osmWay":1448322977,"major":false,"bridge":false},"geometry":{"type":"LineString","coordinates":[[11.3297562,8.969032],[11.329836,8.9690399]]}},{"type":"Feature","properties":{"kind":"road","id":"road-1448322978-0","name":"Unnamed mapped primary","osmWay":1448322978,"major":true,"bridge":true},"geometry":{"type":"LineString","coordinates":[[11.3309243,8.9482149],[11.3308257,8.9484097]]}},{"type":"Feature","properties":{"kind":"road","id":"road-1448322979-0","name":"Unnamed mapped primary","osmWay":1448322979,"major":true,"bridge":false},"geometry":{"type":"LineString","coordinates":[[11.3308257,8.9484097],[11.3302839,8.9499888],[11.3301511,8.951205],[11.3312884,8.9557224],[11.3313782,8.9568961],[11.3298011,8.9693989],[11.3292217,8.9766887],[11.3293035,8.9798984],[11.329101,8.980668],[11.327654,8.9832272]]}},{"type":"Feature","properties":{"kind":"road","id":"road-1448322980-0","name":"Unnamed mapped primary_link","osmWay":1448322980,"major":false,"bridge":false},"geometry":{"type":"LineString","coordinates":[[11.3316049,8.9470332],[11.3315338,8.9469921]]}}]}
