{"type":"FeatureCollection","metadata":{"source":"© OpenStreetMap contributors, ODbL 1.0","pbfUrl":"https://download.geofabrik.de/africa/nigeria-261003.osm.pbf","pbfDate":"2026-10-03","retrieved":"2026-10-05","pbfBytes":709273731,"pbfSha256":"6dfa568106792fb8a9bba0b12a91e1edfb789d38c452087b2c48bc58326880b5","extractedRecordSha256":"c492f20a94060492a91eb29d24da6034153fa92bdcac0b9f202ebf80c9466bf7","selection":"railway=rail, no service tag, gauge=1435; corridor 7.1..7.9 E, 9.0..10.8 N; connected only by exact source node identity","osmWays":[212507140,237167172,363547675,363547676,363547679,374072286,374072287,488660321,495292441,557760203,557760207,567108020,567108021,607109971,607109972,607110001,607110002,607110017,607110018,607110019,607110020,607879736,607879737,671524593,671531986,671531987,671533473,671533474,671539720,671539721,671539722,671539723,671539733,671539734,671539739,671539740,671539748,671539757],"osmNodeIds":[4597112607,6288560473,9828898412,8387650524,3933990366,2223523908,3798762166,3798762167,3798762168,3798762169,3798762170,3798762171,5754381482,3798762172,2223523909,3933990373,5379034817,5379034816,3933990379,5379034815,5379034814,5379034813,3933990361,5379034818,5379034819,5379034820,5379034921,5379034812,3933990358,3933989951,5711949827,9829079127,5711949828,5754381446,3747517861,2223523912,5754381430,2223523914,5754381428,5754381429,2223523916,5754381427,5754381420,2223523918,5754381421,5754381423,5754381422,5754381425,5754381424,2223523920,5754381418,5754381419,3933990376,5754381416,5754381414,5754381413,2508880371,2223523921,5754381411,2508882188,5754381410,5754381320,5754381319,6935979781,2223523923,3001565215,3001565217,2223523925,5754381400,2223523927,3933944926,5754381399,3933944933,3933944914,3933944881,2451127960,5754381397,5754381398,5754381385,5754381374,5754381372,10660882237,10660882240,10660882234,5754381371,5754381217,5754381215,5754381216,5754381214,5754381213,4737091279,5754381212,2451128040,5754381201,2451128042,2451128044,2451128046,5754381168,2451128048,5754381167,2451128050,7860108802,2451128052,2451128054,5754381166,2451128056,2451128058,2451128060,2451128062,2451128064,5447116280,3747466673,2451128066,12983959529,2451128068,2451128070,2451128072,2451128074,7860200990,2451128076,7860188182,2451128078,2451128080,2451128082,2451128084,2451128086,2451128088,2451128090,7871764288,2451128092,2451128094,2451128096,2451128098,2451128100,3677196944,2451128102,2451128104,2451128106,2451128108,2451128110,2451128112,3747329573,2451128114,2451128116,3747331731,3810964822,3810964824,3810964825,3810964826,3810964827,3810964828,3810964829,3810964830,3810964831,3810964832,3810964833,3810964834,3810964835,3810964836,3810964837,3810964838,3810964839,3810964840,3810964841,3810964842,3810964843,3810964844,3810964845,3810964846,3810964847,3933944925,3933944924,3933944752,3933944919,3933944936,3933944879,7764799419,3933944932,3933944755,7764799420,7764799421,3933944870,3933944909,3933944882,3933944866,3933944911,3933944935,3933944902,3933944931,3933944901,3933944745,3933944928,7861343050,3933944910,3933944915,3933944753,3933944873,3933944894,3933944887,3933944885,3933944862,3933944748,3933944929,3933944890,3933944917,3933944867,3933944886,3933944742,3933944927,3933944922,3933944934,3933944740,3933944898,3933944756,3933944743,3933944930,3933944918,3933944746,3933944869,3933944892,3933944747,3933944921,3933944896,3933944859,3933944907,3933944913,3933944749,3933944744,3933944897,3933944912,3933944860,3933944884,3933944880,3933944905,3933944754,3933944904,3933944872,3933944865,3933944878,3933944923,3933944920,3933944893,3933944900,3933944861,3933944739,3933944876,3933944864,3933944895,3933944863,3933944875,3933944883,3933944871,3933944858,3933944903,3933944750,3933944889,3933944899,6288472634,3933944751,10660882245,10660882241,4322474736,4322474737,10660882248,10660882244,4322474738,4322474739,4322474740,4322474741,6288472637,6288472638,4322474744,4322474749,6288472639,4322474760,4322474765,4322474771,4870730595,4870730571,4870730563,4870730580,4870730591,4870730566,4870730599,4870730575,4870730568,4870730585,4870730577,4870730592,4870730597,4870730573,4870730565,4870730582,4870730574,4870730590,4870730583,10660882251,4870730598,4870730562,4870730579,4870730572,4870730588,4870730581,4870730596,4870730589,4870730564,4870730569,10660882256,4870730586,4870730578,6288505174,6288505173,6288505175,6288505176,4870730593,4870730587,6288505177,4870730600,6288505178,4870730594,4870730570,4870730567,4870730584,4870730576,3773414327,3677156386,3677156387,3677152802,6288503110,3677152803,6288503109,5459833134,5459833135,3677152804,6288503104,10660894875,10660894872,6288502866,6288502868,6288502869,6288502867,3677152806,6288502870,6288502872,6288502871,6288502873,6288502874,3677152807,6288502875,6288502876,3677152808,6288502877,3677152809,6288502878,6288502879,3677152810,3774796992,3677152811,3677152812,3677152813,3677152814,3677152815,3677152816,3677152817,3677152818,3677152819,3677152820,3677152821,3677152822,3677152823,10660894876,3677152824,3774797019,10660894877,3677156225,3677156226,10660894878,3677156227,10660894879,3677156228,3677156229,10660894880,3677156230,3677156231,3677156232,10660894881,3677156233,3677156234,3677156235,3677156236,10660894882,3677156237,3677156238,3677156239,3677156240,3677156241,3677156242,3677156243,3677156244,3677156245,3677156246,10660894883,3677156247,10660894884,3677156248,3677156249,3677156250,3677156251,3677156252,3677156253,3677156254,10660894887,3677156255,6288547011,6288547012,3677156256,6288547013,6288547014,6288547015,3677156257,6288547016,6288547017,6288547018,6288547019,3677156258,6288547020,3677156259,6288547021,6288547022,6288547023,6288547024,3677156260,6288547025,6288547026,6288547027,6288547028,3677156261,6288547029,5309619839,3677156262,5760025056,5760025057,6288547030,3677156263,6288547031,3677156264,6288547032,6288547033,3677156265,6288547034,6288547035,6288547036,3677156266,5309709534,6288547038,3677156267,6288547052,6288547055,6288547056,6288547076,3765126373,10660898587,3677156268,6288547058,6288547059,6288547069,6288547057,6288547081,11812598502,3765126429,3677156269,6288547082,6288547083,5295029585,6288547084,3677156270,6288547185,6288547186,6288547187,6288547188,11812655751,3677156271,6288547189,3677156272,5295198009,6288547204,6288547206,6288547205,3677156273,6288547207,3677156274,6288547208,3677156275,3677156276,6288547209,5295197905,3677156277,3677156278,6288547210,6288547211,3677156279,6288547212,3677156280,6288547213,3677156281,5294931130,6288547215,6288547216,5294815930,6288547218,3677156282,6288547219,3677156283,6288547220,5295197910,3677156284,6288547221,6288547222,3677156285,6288547223,3677156286,6288547224,6288547225,3677156287,6288547226,3677156288,6288547228,6288547227,3677156289,6288547230,3677156293,6288547231,3677156298,6288547232,3677156301,3677156302,3677156307,5271142433,6288547233,3677156310,5267311252,3677156333,3677156358,5271141981,3677156369,6288547247,3677156375,6288547248,6288547249,3677156380,6288547250,6288547251,5267311255,3677156381,3677156382,6288547252,6288547253,4724925998,6288547254,3677156383,6288547255,7449693948,6288547256,7449693947,6288547271,6288547287,6288547289,7449693942],"simplificationDegrees":0,"inventedConnectors":0,"iduStation":{"osmType":"node","osmId":10660810222,"lon":7.342506,"lat":9.0469758},"rigasaStation":{"osmType":"node","osmId":3677156385,"lon":7.3549356,"lat":10.5487117},"rigasaTerminal":{"osmType":"way","osmId":488660318,"lon":7.3551313,"lat":10.5487356},"endpointNote":"Ends at existing track nodes nearest the station references, approximately 104 m from Idu station and 93 m from Rigasa terminal centroid; no schematic connector to station buildings"},"features":[{"type":"Feature","properties":{"id":"abuja-kaduna-rail","name":"Idu–Rigasa railway","a":"abuja","b":"kaduna","mode":"rail"},"geometry":{"type":"LineString","coordinates":[[7.3416618,9.0474002],[7.3373294,9.0494936],[7.3369831,9.0496834],[7.3347379,9.0507911],[7.3320395,9.052045],[7.3279108,9.054032],[7.3267806,9.0546223],[7.3253843,9.0552449],[7.3245232,9.0556037],[7.3230062,9.056147],[7.3211119,9.0566229],[7.3194021,9.0569348],[7.318182,9.0570917],[7.3166116,9.0571899],[7.3158102,9.0571861],[7.3141721,9.057105],[7.3137788,9.0570715],[7.3134802,9.057036],[7.3131977,9.0569972],[7.31289,9.0569599],[7.3126025,9.0569159],[7.3123027,9.0568671],[7.3120135,9.0568169],[7.3117208,9.0567586],[7.3114252,9.0567],[7.3111354,9.0566411],[7.310849,9.0565759],[7.310558,9.0565118],[7.3102116,9.0564396],[7.3051871,9.0553951],[7.3028218,9.0549084],[7.301869,9.0547492],[7.3009012,9.0546417],[7.2990096,9.0545913],[7.297611,9.0547527],[7.2961354,9.0550475],[7.294364,9.0556614],[7.2928164,9.0563905],[7.2915745,9.0571447],[7.2899973,9.0584267],[7.2889334,9.0595082],[7.2880822,9.0605563],[7.2875351,9.0613456],[7.2870106,9.0622855],[7.2865266,9.0632527],[7.2861028,9.0643387],[7.2858024,9.0653452],[7.2855761,9.0662887],[7.2854215,9.0672946],[7.2853429,9.0679517],[7.2852659,9.0706002],[7.2852284,9.0733813],[7.2851232,9.0788991],[7.2849977,9.087191],[7.284928,9.09163],[7.2848797,9.0943103],[7.2848696,9.0958247],[7.2850445,9.0979383],[7.2852391,9.0991305],[7.2854899,9.1001145],[7.2858201,9.1013746],[7.2908664,9.1208472],[7.291652,9.1239052],[7.294532,9.1346519],[7.2948988,9.1360206],[7.2954015,9.1372476],[7.2954753,9.1374317],[7.2967023,9.1404351],[7.2982103,9.1428644],[7.2998345,9.1450028],[7.3008253,9.1461504],[7.3017883,9.1471491],[7.3027688,9.1480044],[7.303143,9.1483207],[7.3044221,9.1494355],[7.3062195,9.1507103],[7.3077857,9.1517673],[7.3091992,9.1527491],[7.3140192,9.1560995],[7.3169267,9.1581438],[7.3204729,9.1606671],[7.3207153,9.1608349],[7.3282898,9.1660774],[7.3286779,9.166346],[7.3311317,9.1680261],[7.3339534,9.1699644],[7.3348117,9.1706211],[7.3357987,9.1713943],[7.3371291,9.1726864],[7.338084,9.1737456],[7.3389812,9.174791],[7.3396718,9.1756945],[7.3403285,9.1767473],[7.3408021,9.1775446],[7.3412001,9.1782778],[7.3418369,9.1796555],[7.3424001,9.181099],[7.3427939,9.1824094],[7.3431214,9.183751],[7.3433947,9.185322],[7.3435225,9.1861553],[7.3435958,9.1872692],[7.343604,9.1873946],[7.3436524,9.1889166],[7.3435664,9.1903211],[7.3434475,9.1915837],[7.3431402,9.1932046],[7.3424756,9.1971116],[7.3420975,9.1991713],[7.3411695,9.2047182],[7.3409523,9.2059922],[7.3409084,9.2061409],[7.3405557,9.2081083],[7.3405026,9.2084846],[7.3401465,9.211008],[7.3400661,9.2139869],[7.3404315,9.2168071],[7.3409283,9.2189638],[7.3412346,9.2199011],[7.3416518,9.2211781],[7.3419355,9.2221698],[7.3428794,9.2254697],[7.343917,9.2289389],[7.3450277,9.2323577],[7.345415,9.2343195],[7.3456196,9.2370458],[7.34551,9.2393898],[7.3452688,9.2419935],[7.3451018,9.2426268],[7.3445607,9.2446528],[7.3433915,9.2475954],[7.3407902,9.2518794],[7.3347837,9.2620483],[7.3327523,9.2656975],[7.3320617,9.267032],[7.331627,9.2679044],[7.3304578,9.2719285],[7.3299463,9.2763132],[7.3300486,9.279068],[7.3309698,9.2834796],[7.3323132,9.2878445],[7.3334651,9.2916289],[7.3339977,9.2934128],[7.3353514,9.2982876],[7.3384702,9.3087045],[7.3413287,9.318413],[7.3417747,9.3200195],[7.3425391,9.3218007],[7.3432187,9.3233094],[7.3439902,9.3246994],[7.3456324,9.3270044],[7.3472817,9.3289741],[7.3500776,9.3321941],[7.3511394,9.333605],[7.3516349,9.3342825],[7.3522861,9.3352813],[7.3529161,9.3365246],[7.3533691,9.33767],[7.3539,9.3390739],[7.3541835,9.3402367],[7.3545161,9.3418353],[7.3550204,9.3444819],[7.3554174,9.345837],[7.3562327,9.347806],[7.357252,9.3497539],[7.3580888,9.3510137],[7.3593334,9.3525699],[7.3621765,9.3553011],[7.363067,9.3562221],[7.3638717,9.3573125],[7.3646622,9.3587937],[7.3654693,9.3604419],[7.3661828,9.3623685],[7.3665744,9.3641099],[7.3668962,9.3664891],[7.3668963,9.3686777],[7.3668078,9.369575],[7.3667138,9.3703661],[7.3663839,9.3726737],[7.3663303,9.3731027],[7.366282,9.373542],[7.3662579,9.374304],[7.3663359,9.376239],[7.3664617,9.3775114],[7.3665851,9.3787975],[7.3668587,9.3799884],[7.3674059,9.3820472],[7.3686451,9.3863872],[7.3701578,9.3915262],[7.371971,9.3976126],[7.3726201,9.3994173],[7.3736554,9.4019153],[7.3739814,9.4027079],[7.3752272,9.4057363],[7.3770726,9.4100231],[7.3799908,9.4172575],[7.3821234,9.4224839],[7.3829144,9.4242007],[7.3834562,9.4251691],[7.3845559,9.4268626],[7.3851436,9.4276754],[7.3863667,9.4291624],[7.3880779,9.4308135],[7.389341,9.4318317],[7.3904568,9.4326255],[7.3921442,9.4336923],[7.3931068,9.4341972],[7.3970741,9.4360948],[7.4004131,9.4377374],[7.4018591,9.4386931],[7.4026555,9.4392667],[7.4035543,9.4400637],[7.4045413,9.4409791],[7.4051904,9.4416935],[7.4059439,9.4426164],[7.4065369,9.4433816],[7.4073308,9.4445775],[7.4079209,9.4456411],[7.4083418,9.4465005],[7.4089318,9.4479663],[7.4092727,9.4489802],[7.4098438,9.4506597],[7.4101281,9.4531574],[7.4102126,9.454811],[7.4101871,9.4566075],[7.4101442,9.4614068],[7.410171,9.462481],[7.4102783,9.4638938],[7.4104368,9.4651828],[7.4106299,9.4663575],[7.4110293,9.4684708],[7.411598,9.4713916],[7.4126011,9.476286],[7.4128961,9.4778575],[7.4134916,9.4808735],[7.4146586,9.4869509],[7.4153423,9.4902017],[7.4157661,9.4916884],[7.4165415,9.4936704],[7.4170482,9.4949106],[7.418856,9.4984449],[7.4201649,9.5010904],[7.4212217,9.5033125],[7.4239844,9.5089736],[7.4248642,9.510783],[7.4263877,9.5139098],[7.4275786,9.5163699],[7.4285442,9.518428],[7.430489,9.5224467],[7.433123,9.5277318],[7.4365103,9.5347014],[7.4389189,9.5397589],[7.4409681,9.5439275],[7.4422746,9.5465123],[7.4432563,9.548586],[7.4452275,9.5525821],[7.4476468,9.55756],[7.4497711,9.5620767],[7.4511766,9.5649553],[7.4519248,9.5665068],[7.4521341,9.5669411],[7.4534462,9.569662],[7.4550394,9.5729152],[7.4561114,9.5751624],[7.4562998,9.5755572],[7.4568043,9.576581],[7.4598191,9.5828333],[7.4615386,9.5862887],[7.4625169,9.5882592],[7.4639892,9.5912623],[7.4651429,9.5936832],[7.4662558,9.5959297],[7.4671498,9.5977419],[7.4682723,9.6000689],[7.4688586,9.6012843],[7.4700991,9.6038611],[7.4714482,9.6066375],[7.4728956,9.6096879],[7.4752927,9.6145597],[7.4763065,9.6177449],[7.4769559,9.6212587],[7.4769476,9.6231191],[7.4767264,9.6320002],[7.4736891,9.7154067],[7.4730504,9.7361687],[7.4726591,9.7424084],[7.4716721,9.746605],[7.4703874,9.7497199],[7.4684962,9.7531923],[7.4581366,9.7694693],[7.4563082,9.7723716],[7.4539969,9.7750317],[7.4514456,9.7772406],[7.4474097,9.7799528],[7.4366374,9.787045],[7.4294759,9.791753],[7.4245763,9.7949279],[7.4217974,9.7969217],[7.4196393,9.7991489],[7.4178284,9.8013856],[7.4164714,9.803695],[7.415371,9.8060904],[7.4145108,9.8088469],[7.4141988,9.8108259],[7.4139442,9.8134652],[7.4138366,9.8169108],[7.4137147,9.8235462],[7.4136385,9.8258647],[7.4133774,9.8435287],[7.413026,9.8663916],[7.4128662,9.8714125],[7.4128418,9.8733808],[7.4124191,9.8950365],[7.4122795,9.9029428],[7.4121032,9.9112283],[7.4118244,9.927538],[7.4116813,9.9350114],[7.4116182,9.9383115],[7.4115212,9.9435981],[7.4112545,9.958127],[7.4111457,9.9602116],[7.4108096,9.9630282],[7.4103564,9.9651434],[7.4097498,9.9667113],[7.4068887,9.9739833],[7.4033345,9.982969],[7.3987895,9.9945495],[7.3902415,10.0155739],[7.3885908,10.0192073],[7.3855273,10.0256283],[7.3831756,10.0305625],[7.3825942,10.0320078],[7.3822061,10.033061],[7.3818051,10.0340656],[7.3803258,10.0377493],[7.3776579,10.0445316],[7.3744221,10.0527703],[7.3743208,10.0530241],[7.3723346,10.0581281],[7.3722915,10.0582389],[7.3721932,10.0584916],[7.3714154,10.0601812],[7.3710333,10.0608998],[7.3703168,10.062133],[7.3698107,10.0629039],[7.3676894,10.0656998],[7.367031,10.0665655],[7.3665345,10.0673276],[7.3656287,10.0689304],[7.3650786,10.0700506],[7.3646419,10.0711549],[7.3641243,10.0726861],[7.3636392,10.0745361],[7.3633737,10.0760916],[7.3632733,10.0771005],[7.3631891,10.0781652],[7.3632127,10.0792606],[7.3632415,10.0809728],[7.3630996,10.0843605],[7.3619202,10.091458],[7.3611242,10.095522],[7.3599448,10.0988167],[7.3587654,10.1013275],[7.3564803,10.1056671],[7.3550061,10.1087149],[7.3530601,10.1151298],[7.3519692,10.1182501],[7.3511155,10.119872],[7.349114,10.1227454],[7.3459555,10.1263428],[7.3448223,10.1280755],[7.3432286,10.1310917],[7.3423412,10.1335388],[7.3418674,10.135616],[7.3415304,10.1379811],[7.3414206,10.1408921],[7.3417146,10.1438226],[7.3424845,10.1474052],[7.3427619,10.1494007],[7.3427899,10.1521723],[7.3425239,10.1549045],[7.3416496,10.1589044],[7.3413229,10.1613799],[7.3411899,10.1637437],[7.3415203,10.1676196],[7.341692,10.1696973],[7.3416291,10.1720675],[7.3414998,10.1815786],[7.3410893,10.1857675],[7.3395833,10.1921128],[7.3381575,10.1968405],[7.3378471,10.1993848],[7.3378341,10.2031635],[7.3381385,10.208189],[7.338286,10.2173005],[7.3376963,10.2208986],[7.3366643,10.2250189],[7.3363989,10.2271081],[7.3363989,10.2329693],[7.3365758,10.2383661],[7.3371655,10.2423411],[7.3386945,10.2486657],[7.3407627,10.2545561],[7.3418082,10.2579238],[7.3431233,10.260785],[7.3450152,10.2651073],[7.3456645,10.2671042],[7.3463757,10.2693398],[7.3468659,10.2713545],[7.347319,10.2744107],[7.3474312,10.2776268],[7.3474372,10.2799935],[7.347647,10.2890173],[7.3476428,10.2900248],[7.3476647,10.2914766],[7.3478041,10.2930035],[7.3480084,10.2942884],[7.3483456,10.2957345],[7.3486905,10.2969432],[7.3490296,10.2979496],[7.349332,10.2989109],[7.3499577,10.30077],[7.3514284,10.3054164],[7.3517212,10.3063114],[7.3520257,10.3074724],[7.3527717,10.3113155],[7.3533649,10.3149215],[7.3534937,10.3160004],[7.3535607,10.3168345],[7.3536145,10.318037],[7.3536473,10.320159],[7.3536482,10.3222136],[7.3536791,10.3243579],[7.3536657,10.3248131],[7.353642,10.3252181],[7.3535761,10.3262417],[7.3534867,10.3270746],[7.3533257,10.328036],[7.3525272,10.3318539],[7.352209,10.3333428],[7.3518152,10.3352424],[7.3508868,10.3399373],[7.3504713,10.3417206],[7.3500028,10.3439202],[7.3497927,10.3451548],[7.3496708,10.3460715],[7.3495976,10.3471429],[7.3495693,10.3483393],[7.349635,10.3498362],[7.349788,10.3513486],[7.349935,10.3527809],[7.3500911,10.3544045],[7.3502707,10.3559183],[7.3504046,10.3574644],[7.3504452,10.3586665],[7.35045,10.3599312],[7.3504217,10.3613353],[7.3503571,10.3638465],[7.3502204,10.3683147],[7.3502057,10.368696],[7.3500648,10.3723642],[7.350022,10.3743666],[7.350012,10.3748335],[7.3499634,10.3769014],[7.3498827,10.3776554],[7.3498365,10.3780804],[7.3498157,10.3787557],[7.3496357,10.3839228],[7.3495238,10.3877574],[7.3494953,10.3887415],[7.3494005,10.3922721],[7.3491738,10.3988911],[7.3491001,10.4022943],[7.3489788,10.4051977],[7.3488898,10.407974],[7.3488008,10.4103287],[7.3486945,10.4150325],[7.3485879,10.4178932],[7.348488,10.4210066],[7.3484201,10.4238051],[7.3483455,10.4258816],[7.3483204,10.4265645],[7.3482418,10.4294173],[7.3481973,10.4307486],[7.3481209,10.4328307],[7.3480353,10.4339654],[7.3479855,10.4345308],[7.3479197,10.4352055],[7.3477962,10.4358911],[7.3475961,10.4368143],[7.3473087,10.4380655],[7.3469548,10.439241],[7.3465612,10.4402447],[7.3459237,10.4417289],[7.345375,10.4427776],[7.3449057,10.4436078],[7.3439057,10.4451389],[7.3418112,10.4482727],[7.3410237,10.4497201],[7.3404615,10.4509436],[7.3400104,10.4520656],[7.3396378,10.4531975],[7.3392574,10.4546261],[7.338916,10.4562972],[7.3387017,10.4577809],[7.3386393,10.4582155],[7.3384562,10.4596722],[7.3384455,10.4597663],[7.3384289,10.4598893],[7.3382816,10.4608812],[7.3381437,10.4615207],[7.3378653,10.4627294],[7.3374777,10.4640295],[7.3371499,10.4649634],[7.3369152,10.4655532],[7.3361674,10.4671829],[7.3355735,10.4683826],[7.334978,10.4696117],[7.3347379,10.4701523],[7.3343549,10.471091],[7.3338515,10.4725244],[7.3335588,10.4735908],[7.3333031,10.4746887],[7.3331513,10.475507],[7.3329366,10.4772947],[7.3328697,10.4787651],[7.3328838,10.4799563],[7.332924,10.4804893],[7.3329952,10.4813038],[7.3331735,10.4826411],[7.333483,10.4841505],[7.3338244,10.4854467],[7.3342205,10.4866622],[7.3350681,10.4890555],[7.3353817,10.4900521],[7.3376242,10.4966616],[7.3378962,10.4974438],[7.3383884,10.4988098],[7.3389926,10.5001733],[7.3394345,10.5010024],[7.3399725,10.5020365],[7.3405992,10.5031605],[7.3425033,10.5065657],[7.3441668,10.5095434],[7.3468327,10.5142466],[7.3477325,10.5160827],[7.3482618,10.5174294],[7.3486874,10.5186249],[7.349028,10.5199922],[7.3495202,10.5221234],[7.3496862,10.5228413],[7.34972,10.5229874],[7.3505718,10.526896],[7.35085,10.528423],[7.3510463,10.5296976],[7.3511894,10.5310008],[7.3512798,10.5320099],[7.3515444,10.5355471],[7.3516235,10.5364703],[7.3518845,10.5381842],[7.3521453,10.5393857],[7.3524713,10.5406239],[7.3527474,10.5415538],[7.3534679,10.5439265],[7.3536598,10.544512],[7.3537707,10.5449094],[7.3543863,10.5469104],[7.3547029,10.5479045]]}}]}
