<?xml version="1.0" encoding="UTF-8"?>
<osm version="0.6" generator="openstreetmap-cgimap 2.1.0 (3807447 spike-06.openstreetmap.org)" copyright="OpenStreetMap and contributors" attribution="http://www.openstreetmap.org/copyright" license="http://opendatacommons.org/licenses/odbl/1-0/">
 <bounds minlat="-11.7071580" minlon="43.2372440" maxlat="-11.7011580" maxlon="43.2432440"/>
 <node id="7841094371" visible="true" version="1" changeset="89876878" timestamp="2020-08-24T20:24:34Z" user="Abn_976" uid="9227364" lat="-12.0003805" lon="43.4650770"/>
 <node id="7841094372" visible="true" version="1" changeset="89876878" timestamp="2020-08-24T20:24:34Z" user="Abn_976" uid="9227364" lat="-11.9622966" lon="43.3897717"/>
 <node id="7841094373" visible="true" version="1" changeset="89876878" timestamp="2020-08-24T20:24:34Z" user="Abn_976" uid="9227364" lat="-11.8844578" lon="43.2691983"/>
 <node id="7841094374" visible="true" version="1" changeset="89876878" timestamp="2020-08-24T20:24:34Z" user="Abn_976" uid="9227364" lat="-11.8141784" lon="43.2250432"/>
 <node id="7841094375" visible="true" version="1" changeset="89876878" timestamp="2020-08-24T20:24:34Z" user="Abn_976" uid="9227364" lat="-11.7854179" lon="43.2195928"/>
 <node id="7841094376" visible="true" version="1" changeset="89876878" timestamp="2020-08-24T20:24:34Z" user="Abn_976" uid="9227364" lat="-11.7405379" lon="43.2228211"/>
 <node id="7841094377" visible="true" version="1" changeset="89876878" timestamp="2020-08-24T20:24:34Z" user="Abn_976" uid="9227364" lat="-11.7306607" lon="43.2260689"/>
 <node id="7841094378" visible="true" version="1" changeset="89876878" timestamp="2020-08-24T20:24:34Z" user="Abn_976" uid="9227364" lat="-11.7107027" lon="43.2387194"/>
 <node id="7841094379" visible="true" version="1" changeset="89876878" timestamp="2020-08-24T20:24:34Z" user="Abn_976" uid="9227364" lat="-11.7049326" lon="43.2425526"/>
 <node id="7841094380" visible="true" version="1" changeset="89876878" timestamp="2020-08-24T20:24:34Z" user="Abn_976" uid="9227364" lat="-11.7022212" lon="43.2457310"/>
 <node id="7841094381" visible="true" version="1" changeset="89876878" timestamp="2020-08-24T20:24:34Z" user="Abn_976" uid="9227364" lat="-11.7016637" lon="43.2470817"/>
 <node id="7841094382" visible="true" version="1" changeset="89876878" timestamp="2020-08-24T20:24:34Z" user="Abn_976" uid="9227364" lat="-11.7017520" lon="43.2479614"/>
 <node id="7841094383" visible="true" version="1" changeset="89876878" timestamp="2020-08-24T20:24:34Z" user="Abn_976" uid="9227364" lat="-11.7021479" lon="43.2485483"/>
 <node id="7841094384" visible="true" version="1" changeset="89876878" timestamp="2020-08-24T20:24:34Z" user="Abn_976" uid="9227364" lat="-11.7025788" lon="43.2486910"/>
 <node id="7841107585" visible="true" version="1" changeset="89876878" timestamp="2020-08-24T20:24:34Z" user="Abn_976" uid="9227364" lat="-11.7032801" lon="43.2486560"/>
 <node id="7841107586" visible="true" version="2" changeset="89877102" timestamp="2020-08-24T20:31:29Z" user="Abn_976" uid="9227364" lat="-11.7041236" lon="43.2484287">
  <tag k="amenity" v="ferry_terminal"/>
  <tag k="ferry" v="yes"/>
  <tag k="public_transport" v="station"/>
  <tag k="source" v="Bing"/>
 </node>
 <node id="7965940158" visible="true" version="2" changeset="91892670" timestamp="2020-10-03T07:42:52Z" user="Abn_976" uid="9227364" lat="-12.2889205" lon="43.7574063">
  <tag k="amenity" v="ferry_terminal"/>
  <tag k="ferry" v="yes"/>
  <tag k="public_transport" v="station"/>
 </node>
 <node id="7968102420" visible="true" version="1" changeset="91892670" timestamp="2020-10-03T07:42:52Z" user="Abn_976" uid="9227364" lat="-12.2875394" lon="43.7596500"/>
 <node id="7968102421" visible="true" version="1" changeset="91892670" timestamp="2020-10-03T07:42:52Z" user="Abn_976" uid="9227364" lat="-12.2852226" lon="43.7627506"/>
 <node id="7968102422" visible="true" version="1" changeset="91892670" timestamp="2020-10-03T07:42:52Z" user="Abn_976" uid="9227364" lat="-12.2836501" lon="43.7639522"/>
 <node id="7968102423" visible="true" version="1" changeset="91892670" timestamp="2020-10-03T07:42:52Z" user="Abn_976" uid="9227364" lat="-12.2807986" lon="43.7648105"/>
 <node id="7968102424" visible="true" version="1" changeset="91892670" timestamp="2020-10-03T07:42:52Z" user="Abn_976" uid="9227364" lat="-12.2757247" lon="43.7656688"/>
 <node id="7968102425" visible="true" version="1" changeset="91892670" timestamp="2020-10-03T07:42:52Z" user="Abn_976" uid="9227364" lat="-12.2710699" lon="43.7660980"/>
 <node id="7968102426" visible="true" version="1" changeset="91892670" timestamp="2020-10-03T07:42:52Z" user="Abn_976" uid="9227364" lat="-12.2685538" lon="43.7653255"/>
 <node id="7968102429" visible="true" version="1" changeset="91892670" timestamp="2020-10-03T07:42:52Z" user="Abn_976" uid="9227364" lat="-12.1860120" lon="43.6943432"/>
 <node id="7968102430" visible="true" version="1" changeset="91892670" timestamp="2020-10-03T07:42:52Z" user="Abn_976" uid="9227364" lat="-12.2336611" lon="43.7448117"/>
 <way id="840310053" visible="true" version="2" changeset="91892670" timestamp="2020-10-03T07:42:52Z" user="Abn_976" uid="9227364">
  <nd ref="7965940158"/>
  <nd ref="7968102420"/>
  <nd ref="7968102421"/>
  <nd ref="7968102422"/>
  <nd ref="7968102423"/>
  <nd ref="7968102424"/>
  <nd ref="7968102425"/>
  <nd ref="7968102426"/>
  <nd ref="7968102430"/>
  <nd ref="7968102429"/>
  <nd ref="7841094371"/>
  <nd ref="7841094372"/>
  <nd ref="7841094373"/>
  <nd ref="7841094374"/>
  <nd ref="7841094375"/>
  <nd ref="7841094376"/>
  <nd ref="7841094377"/>
  <nd ref="7841094378"/>
  <nd ref="7841094379"/>
  <nd ref="7841094380"/>
  <nd ref="7841094381"/>
  <nd ref="7841094382"/>
  <nd ref="7841094383"/>
  <nd ref="7841094384"/>
  <nd ref="7841107585"/>
  <nd ref="7841107586"/>
  <tag k="name" v="Mohéli - Grande Comore"/>
  <tag k="route" v="ferry"/>
  <tag k="source" v="known"/>
 </way>
</osm>
