{"type":"FeatureCollection","features":[{"type":"Feature","id":"building-hole","properties":{"building":"yes","height":"12 m"},"geometry":{"type":"Polygon","coordinates":[[[-0.2,5.55],[-0.199,5.55],[-0.199,5.551],[-0.2,5.551],[-0.2,5.55]],[[-0.1998,5.5502],[-0.1992,5.5502],[-0.1992,5.5508],[-0.1998,5.5508],[-0.1998,5.5502]]]}},{"type":"Feature","id":"road-a","properties":{"highway":"residential"},"geometry":{"type":"LineString","coordinates":[[-0.202,5.55],[-0.199,5.55]]}},{"type":"Feature","id":"ignored","properties":{"landuse":"grass"},"geometry":{"type":"Point","coordinates":[-0.2,5.55]}}]}
