{
  "features": [
    {
      "geometry": {
        "coordinates": [
          31.580026,
          4.829975
        ],
        "type": "Point"
      },
      "id": "place:natural-earth:NE_ID%3A1159149449",
      "properties": {
        "attribution": "Natural Earth; public-domain map data.",
        "capitalDesignationClaimed": false,
        "capitalFlagAdm0cap": 0,
        "coordinatesSource": "pinned Natural Earth 10m populated places point",
        "countryAdm0A3": "SDS",
        "countryAdm0Iso": "SSD",
        "countryId": "country:natural-earth:NE_ID%3A1159321235",
        "countryIso2": "SS",
        "countryIsoA3": "SSD",
        "license": "Public-domain",
        "name": "Juba",
        "naturalEarthPlaceId": "place:natural-earth:NE_ID%3A1159149449",
        "placeAdm0A3": "SSD",
        "scaleRank": 4,
        "selectedIanaTimezone": "Africa/Juba",
        "sourceClass": "Admin-0 capital",
        "sourceFeatureCanonicalSha256": "003249ab02ea04806825a161f200220d53e077194e74a5a91e091b13440f0adf",
        "sourceId": "natural-earth-places-10m-ca96624a56bd078437bca8184e78163e5039ad19",
        "sourceKey": "NE_ID:1159149449",
        "sourceOrdinal": 6317,
        "sourceRelease": "ca96624a56bd078437bca8184e78163e5039ad19",
        "sourceSha256": "9b8e3de09048ef00dfc70357dbb9fa324493f214b5e0ae4daf1aa79a8d10116b",
        "sourceTimezone": "Africa/Khartoum",
        "sourceUrl": "https://raw.githubusercontent.com/nvkelso/natural-earth-vector/ca96624a56bd078437bca8184e78163e5039ad19/geojson/ne_10m_populated_places.geojson"
      },
      "type": "Feature"
    }
  ],
  "type": "FeatureCollection"
}
