{"type":"FeatureCollection","metadata":{"exceptions":["OSM relations are not resolved by this way-based pilot converter."]},"features":[{"type":"Feature","id":"1096882474","properties":{"highway":"secondary"},"geometry":{"type":"LineString","coordinates":[[-0.2053279,5.5558551],[-0.2053486,5.5559881]]}},{"type":"Feature","id":"1105437712","properties":{"highway":"footway"},"geometry":{"type":"LineString","coordinates":[[-0.20583,5.5528118],[-0.2057557,5.5527872],[-0.2057415,5.5527643],[-0.2057344,5.5527009],[-0.2057309,5.5526269],[-0.2057185,5.5525423],[-0.2056984,5.5525142],[-0.205668,5.552493],[-0.2056588,5.552405],[-0.2062771,5.5523495],[-0.2063036,5.5524974],[-0.2061798,5.5526119],[-0.2061125,5.5526647],[-0.2059303,5.5526859],[-0.2059303,5.5527475],[-0.2058896,5.5527933],[-0.20583,5.5528118]]}},{"type":"Feature","id":"1105437713","properties":{"highway":"footway"},"geometry":{"type":"LineString","coordinates":[[-0.2058749,5.5530896],[-0.2057169,5.5531103],[-0.2057195,5.553169],[-0.2057343,5.5533572],[-0.2053507,5.5533839],[-0.2053574,5.5534373],[-0.2053628,5.553468],[-0.2053695,5.5535534],[-0.2052444,5.5536397],[-0.2051817,5.5536829],[-0.2051992,5.5539085]]}},{"type":"Feature","id":"1105437714","properties":{"building":"shed","layer":"-1"},"geometry":{"type":"Polygon","coordinates":[[[-0.205804,5.553436],[-0.2055009,5.553456],[-0.2054983,5.5533839],[-0.205804,5.5533652],[-0.205804,5.553436]]]}},{"type":"Feature","id":"1105437715","properties":{"building":"yes"},"geometry":{"type":"Polygon","coordinates":[[[-0.2054442,5.5534501],[-0.2054406,5.5534126],[-0.2053777,5.5534187],[-0.2053814,5.5534562],[-0.2054442,5.5534501]]]}},{"type":"Feature","id":"1105437716","properties":{"highway":"footway"},"geometry":{"type":"LineString","coordinates":[[-0.2052444,5.5536397],[-0.2059333,5.5535668]]}},{"type":"Feature","id":"1105437717","properties":{"highway":"footway"},"geometry":{"type":"LineString","coordinates":[[-0.2057343,5.5533572],[-0.2059063,5.5533462]]}},{"type":"Feature","id":"1105437718","properties":{"highway":"footway"},"geometry":{"type":"LineString","coordinates":[[-0.2062556,5.5531799],[-0.2058892,5.5532065]]}},{"type":"Feature","id":"1178014757","properties":{"highway":"service"},"geometry":{"type":"LineString","coordinates":[[-0.2060171,5.5536836],[-0.2066182,5.5536499],[-0.2066602,5.5536525],[-0.2066956,5.5536747],[-0.2067019,5.5537074]]}},{"type":"Feature","id":"1178014758","properties":{"highway":"service"},"geometry":{"type":"LineString","coordinates":[[-0.2044413,5.5529145],[-0.2046344,5.552923],[-0.2046607,5.55294],[-0.2046738,5.5529817],[-0.2047131,5.5533785]]}},{"type":"Feature","id":"12210974","properties":{"highway":"primary"},"geometry":{"type":"LineString","coordinates":[[-0.2036674,5.552475],[-0.2039129,5.5524035],[-0.2040104,5.5523559],[-0.2040893,5.5522924],[-0.2041678,5.5521859],[-0.2041961,5.5521327],[-0.204233,5.5518768]]}},{"type":"Feature","id":"12211077","properties":{"highway":"primary_link"},"geometry":{"type":"LineString","coordinates":[[-0.2028129,5.5516206],[-0.20277,5.5518851],[-0.2027633,5.5519745],[-0.2027713,5.5520579],[-0.2027908,5.5521287],[-0.2028421,5.5522226],[-0.2029235,5.5523149],[-0.2029671,5.5523496],[-0.2030469,5.5523963],[-0.203226,5.5524671]]}},{"type":"Feature","id":"1221946857","properties":{"highway":"service"},"geometry":{"type":"LineString","coordinates":[[-0.2030475,5.5563123],[-0.2030085,5.5562099],[-0.2029118,5.5561203],[-0.2028742,5.5560882],[-0.2028501,5.5560482],[-0.2027884,5.5556931],[-0.2028313,5.5556317],[-0.2028823,5.555629],[-0.2035126,5.5554555]]}},{"type":"Feature","id":"1221946858","properties":{"highway":"service"},"geometry":{"type":"LineString","coordinates":[[-0.2046167,5.5548733],[-0.204104,5.5550471]]}},{"type":"Feature","id":"125989143","properties":{"highway":"primary"},"geometry":{"type":"LineString","coordinates":[[-0.2052227,5.5557876],[-0.2044956,5.5559662],[-0.2043236,5.5560125],[-0.2040984,5.5560713],[-0.2039254,5.5561165],[-0.2035796,5.5562023],[-0.2030475,5.5563123],[-0.2029991,5.556323],[-0.2028832,5.5563315],[-0.2027812,5.556329],[-0.2026653,5.5563155],[-0.2025392,5.5562883],[-0.2024447,5.5562541],[-0.2023184,5.5561943],[-0.2022027,5.5561243],[-0.2021248,5.5560655],[-0.2020476,5.5560073],[-0.2008963,5.5549928]]}},{"type":"Feature","id":"1358501063","properties":{"highway":"service"},"geometry":{"type":"LineString","coordinates":[[-0.2046233,5.55501],[-0.2047833,5.5550208],[-0.2049536,5.5550324],[-0.2049925,5.5550311],[-0.2050066,5.5550244],[-0.2050167,5.5550077],[-0.2049583,5.5545585],[-0.2049395,5.5545025],[-0.2048256,5.5543396]]}},{"type":"Feature","id":"1358501064","properties":{"highway":"service"},"geometry":{"type":"LineString","coordinates":[[-0.205472,5.5531884],[-0.2054337,5.5529274],[-0.2054143,5.5529007],[-0.2053835,5.552878],[-0.2053392,5.5528687],[-0.2049838,5.552894],[-0.2046607,5.55294]]}},{"type":"Feature","id":"13684527","properties":{"highway":"primary"},"geometry":{"type":"LineString","coordinates":[[-0.200825,5.5549336],[-0.2011744,5.554448],[-0.2012816,5.554305],[-0.2015158,5.5539371],[-0.2015625,5.5538694],[-0.2019632,5.5532962],[-0.2022097,5.552929],[-0.202376,5.5527405],[-0.2025028,5.5526297],[-0.2026211,5.5525592],[-0.2027378,5.5525038],[-0.2028471,5.5524824],[-0.2030543,5.5524697],[-0.203226,5.5524671]]}},{"type":"Feature","id":"13687514","properties":{"highway":"unclassified"},"geometry":{"type":"LineString","coordinates":[[-0.2082162,5.555755],[-0.2081233,5.5554582],[-0.2080254,5.5551819],[-0.2079409,5.554991],[-0.2078805,5.5548668],[-0.2077234,5.5545771],[-0.2076057,5.5543997],[-0.2074434,5.5541861],[-0.2073522,5.5540566],[-0.2072514,5.5539497],[-0.2070632,5.5537743],[-0.2068919,5.553636],[-0.2064957,5.5533817],[-0.2064393,5.5533216],[-0.2064114,5.5532437],[-0.2063978,5.5531341],[-0.2063176,5.552009],[-0.2063283,5.5504226]]}},{"type":"Feature","id":"1393097954","properties":{"highway":"service"},"geometry":{"type":"LineString","coordinates":[[-0.2052301,5.5542422],[-0.2051818,5.5542542]]}},{"type":"Feature","id":"1393097955","properties":{"highway":"service"},"geometry":{"type":"LineString","coordinates":[[-0.205309,5.5542382],[-0.2052301,5.5542422]]}},{"type":"Feature","id":"1393097956","properties":{"building":"gatehouse"},"geometry":{"type":"Polygon","coordinates":[[[-0.2052497,5.554316],[-0.2052015,5.5543286],[-0.2051818,5.5542542],[-0.2051616,5.5541781],[-0.2052098,5.5541655],[-0.2052301,5.5542422],[-0.2052497,5.554316]]]}},{"type":"Feature","id":"1429856607","properties":{"highway":"primary"},"geometry":{"type":"LineString","coordinates":[[-0.2054472,5.5558365],[-0.2055734,5.5558179]]}},{"type":"Feature","id":"1429856608","properties":{"highway":"secondary"},"geometry":{"type":"LineString","coordinates":[[-0.2054701,5.5559719],[-0.2054472,5.5558365]]}},{"type":"Feature","id":"1429856609","properties":{"highway":"secondary"},"geometry":{"type":"LineString","coordinates":[[-0.2053486,5.5559881],[-0.2053722,5.5561567]]}},{"type":"Feature","id":"1429856610","properties":{"highway":"primary"},"geometry":{"type":"LineString","coordinates":[[-0.205245,5.5558797],[-0.2053279,5.5558551]]}},{"type":"Feature","id":"1429856611","properties":{"highway":"primary"},"geometry":{"type":"LineString","coordinates":[[-0.2053104,5.5557625],[-0.2052227,5.5557876]]}},{"type":"Feature","id":"1429856612","properties":{"highway":"secondary"},"geometry":{"type":"LineString","coordinates":[[-0.2052976,5.5556624],[-0.2053104,5.5557625]]}},{"type":"Feature","id":"1429856613","properties":{"highway":"secondary"},"geometry":{"type":"LineString","coordinates":[[-0.2054286,5.5557395],[-0.2054136,5.5556371]]}},{"type":"Feature","id":"1429856614","properties":{"highway":"primary"},"geometry":{"type":"LineString","coordinates":[[-0.2055685,5.5557278],[-0.2054286,5.5557395]]}},{"type":"Feature","id":"1429856615","properties":{"highway":"footway"},"geometry":{"type":"LineString","coordinates":[[-0.2052976,5.5556624],[-0.2052312,5.5556898],[-0.2052252,5.5556998],[-0.2052151,5.5557398],[-0.2052227,5.5557876]]}},{"type":"Feature","id":"1429856616","properties":{"highway":"footway"},"geometry":{"type":"LineString","coordinates":[[-0.2055685,5.5557278],[-0.2055524,5.5556971],[-0.2055202,5.5556818],[-0.2054505,5.5556417],[-0.2054136,5.5556371]]}},{"type":"Feature","id":"1429856617","properties":{"highway":"footway"},"geometry":{"type":"LineString","coordinates":[[-0.2055734,5.5558179],[-0.2055705,5.5558913],[-0.2055424,5.5559307],[-0.2055216,5.5559527],[-0.2054701,5.5559719]]}},{"type":"Feature","id":"1429856618","properties":{"highway":"footway"},"geometry":{"type":"LineString","coordinates":[[-0.2053486,5.5559881],[-0.205309,5.5559881],[-0.2052929,5.5559801],[-0.2052648,5.5559434],[-0.2052587,5.5559287],[-0.205245,5.5558797]]}},{"type":"Feature","id":"1429856619","properties":{"highway":"footway"},"geometry":{"type":"LineString","coordinates":[[-0.2054136,5.5556371],[-0.2052976,5.5556624]]}},{"type":"Feature","id":"1429856620","properties":{"highway":"footway"},"geometry":{"type":"LineString","coordinates":[[-0.205245,5.5558797],[-0.2052227,5.5557876]]}},{"type":"Feature","id":"1429856621","properties":{"highway":"footway"},"geometry":{"type":"LineString","coordinates":[[-0.2054701,5.5559719],[-0.2053486,5.5559881]]}},{"type":"Feature","id":"1429856622","properties":{"highway":"footway"},"geometry":{"type":"LineString","coordinates":[[-0.2055685,5.5557278],[-0.2055734,5.5558179]]}},{"type":"Feature","id":"1446323814","properties":{"highway":"footway"},"geometry":{"type":"LineString","coordinates":[[-0.2060213,5.5537044],[-0.2058072,5.5537203],[-0.2057952,5.553747],[-0.2057751,5.553783],[-0.2057147,5.5537964],[-0.2052695,5.5538457],[-0.2052279,5.5538684],[-0.2051992,5.5539085],[-0.205229,5.5541385]]}},{"type":"Feature","id":"1446324119","properties":{"highway":"footway"},"geometry":{"type":"LineString","coordinates":[[-0.2066956,5.5536747],[-0.2068919,5.553636]]}},{"type":"Feature","id":"1502952665","properties":{"highway":"primary"},"geometry":{"type":"LineString","coordinates":[[-0.207366,5.5558184],[-0.207136,5.5557931],[-0.2068201,5.5557397],[-0.2065274,5.5556964],[-0.2063039,5.5556763],[-0.2061268,5.5556649],[-0.2059878,5.5556714],[-0.2055685,5.5557278]]}},{"type":"Feature","id":"1534835750","properties":{"highway":"service"},"geometry":{"type":"LineString","coordinates":[[-0.204069,5.5559083],[-0.2040601,5.5558751],[-0.2040531,5.5558523],[-0.204047,5.555835],[-0.2040305,5.5557716],[-0.2040176,5.5557238],[-0.2040099,5.5556889],[-0.2040115,5.5556631],[-0.2040206,5.5556365],[-0.2040343,5.5556229],[-0.2040653,5.5556151],[-0.2041045,5.5556153],[-0.2041441,5.5556221],[-0.2041731,5.5556312],[-0.2042066,5.5556479],[-0.2042364,5.5556699],[-0.2042516,5.5556934],[-0.2042592,5.5557192],[-0.2042615,5.5557518],[-0.2042512,5.5557735],[-0.2042379,5.555792],[-0.2042097,5.5558247],[-0.204183,5.555849],[-0.2041449,5.5558744],[-0.2040999,5.555896],[-0.204069,5.5559083]]}},{"type":"Feature","id":"1536149599","properties":{"highway":"service"},"geometry":{"type":"LineString","coordinates":[[-0.2040984,5.5560713],[-0.2040848,5.5559992],[-0.2040759,5.5559522],[-0.204069,5.5559083]]}},{"type":"Feature","id":"1536205142","properties":{"highway":"service"},"geometry":{"type":"LineString","coordinates":[[-0.2051214,5.5553661],[-0.2050824,5.5550528],[-0.2050699,5.5550402],[-0.2050543,5.5550326],[-0.2049925,5.5550311]]}},{"type":"Feature","id":"1536502879","properties":{"highway":"service"},"geometry":{"type":"LineString","coordinates":[[-0.204979,5.5553676],[-0.2049536,5.5550324]]}},{"type":"Feature","id":"1536502880","properties":{"highway":"service"},"geometry":{"type":"LineString","coordinates":[[-0.20479,5.5553696],[-0.2047833,5.5550208]]}},{"type":"Feature","id":"1559056856","properties":{"highway":"service"},"geometry":{"type":"LineString","coordinates":[[-0.2034411,5.5524043],[-0.2034603,5.5523734]]}},{"type":"Feature","id":"169866119","properties":{"building":"commercial","building:levels":"11"},"geometry":{"type":"Polygon","coordinates":[[[-0.2032307,5.5547535],[-0.202848,5.5545022],[-0.2027421,5.5543806],[-0.2025656,5.5538564],[-0.2025521,5.5537835],[-0.2023593,5.5538267],[-0.2025521,5.5544238],[-0.2025472,5.5544725],[-0.2025466,5.554513],[-0.2025792,5.554613],[-0.2026335,5.5546643],[-0.2027258,5.5547076],[-0.2027774,5.5547157],[-0.2030986,5.5549445],[-0.2032307,5.5547535]]]}},{"type":"Feature","id":"169866135","properties":{"building":"yes"},"geometry":{"type":"Polygon","coordinates":[[[-0.2039679,5.5527326],[-0.2033043,5.5528365],[-0.2032965,5.5527871],[-0.2032602,5.5527928],[-0.203256,5.5527664],[-0.2031651,5.5527806],[-0.203197,5.5529823],[-0.2032739,5.5529703],[-0.2032803,5.553011],[-0.2037288,5.5529408],[-0.2037773,5.5532685],[-0.2038256,5.5532584],[-0.2038541,5.5534386],[-0.2039642,5.5534214],[-0.2039583,5.5533837],[-0.2040254,5.5533731],[-0.2040301,5.5534028],[-0.2040695,5.5533966],[-0.2040513,5.5532816],[-0.2040764,5.5532776],[-0.2040589,5.5531671],[-0.2041031,5.5531602],[-0.2040742,5.552977],[-0.2040081,5.5529874],[-0.2040005,5.5529394],[-0.2040427,5.5529328],[-0.2040811,5.5528828],[-0.2040967,5.5528627],[-0.2040626,5.5528362],[-0.2040462,5.5528592],[-0.2040168,5.5529008],[-0.203995,5.5529042],[-0.2039679,5.5527326]]]}},{"type":"Feature","id":"175996663","properties":{"building":"commercial","building:levels":"2"},"geometry":{"type":"Polygon","coordinates":[[[-0.2028569,5.5552845],[-0.2030986,5.5549445],[-0.2027774,5.5547157],[-0.2027258,5.5547076],[-0.2026335,5.5546643],[-0.2025792,5.554613],[-0.2025466,5.554513],[-0.2025472,5.5544725],[-0.2024829,5.5545129],[-0.2023911,5.5544508],[-0.2023416,5.5545183],[-0.2024106,5.5545701],[-0.2023886,5.5546011],[-0.2023677,5.5545864],[-0.202207,5.5548136],[-0.2022592,5.5548502],[-0.2021872,5.5549521],[-0.2022574,5.5550013],[-0.2023221,5.5549098],[-0.2028569,5.5552845]]]}},{"type":"Feature","id":"187123506","properties":{"building":"hut"},"geometry":{"type":"Polygon","coordinates":[[[-0.20348,5.5544135],[-0.2035158,5.5544245],[-0.2035361,5.5544558],[-0.2035315,5.5544928],[-0.203504,5.5545181],[-0.2034666,5.55452],[-0.2034368,5.5544975],[-0.2034284,5.5544612],[-0.2034455,5.554428],[-0.20348,5.5544135]]]}},{"type":"Feature","id":"187123526","properties":{"highway":"footway"},"geometry":{"type":"LineString","coordinates":[[-0.2030506,5.5545368],[-0.2029326,5.5544487],[-0.2028629,5.5544007],[-0.2028012,5.5542192],[-0.202777,5.5541231],[-0.2027636,5.5539922],[-0.2027851,5.5538641],[-0.2027904,5.553784],[-0.2027904,5.5537119],[-0.2027556,5.5536559],[-0.2027153,5.5536158],[-0.2027073,5.5535731],[-0.2027153,5.5535277],[-0.2027314,5.5534797],[-0.2027717,5.5534396],[-0.2028387,5.5533996],[-0.2029487,5.5533676],[-0.2030291,5.5533676],[-0.2031525,5.5533809],[-0.2033859,5.553437],[-0.2035602,5.5535251],[-0.2036085,5.5535678],[-0.2036675,5.5536879],[-0.2036648,5.5537546],[-0.2035951,5.5539041],[-0.203528,5.5539869]]}},{"type":"Feature","id":"187483218","properties":{"highway":"service"},"geometry":{"type":"LineString","coordinates":[[-0.2045622,5.5544916],[-0.2043898,5.5545812],[-0.2030893,5.5552575],[-0.2028261,5.5553944],[-0.2027539,5.5554338],[-0.2026919,5.5554677],[-0.2026463,5.5554749],[-0.2025933,5.5554618],[-0.2024175,5.5553353],[-0.2023351,5.555276],[-0.201949,5.5549464],[-0.2019174,5.5549022],[-0.2019127,5.5548735],[-0.2019168,5.5548491],[-0.2020053,5.5547062],[-0.2020877,5.5545955]]}},{"type":"Feature","id":"279446882","properties":{"highway":"service"},"geometry":{"type":"LineString","coordinates":[[-0.204043,5.5525063],[-0.2040913,5.5525476],[-0.2041718,5.5525864],[-0.2042375,5.5526411],[-0.2042616,5.5527018],[-0.204218,5.5527659],[-0.2041602,5.5527885]]}},{"type":"Feature","id":"279446883","properties":{"highway":"service"},"geometry":{"type":"LineString","coordinates":[[-0.2041381,5.5528734],[-0.204171,5.5531718],[-0.2042092,5.5532324],[-0.204257,5.553256],[-0.2043823,5.5532584]]}},{"type":"Feature","id":"279446884","properties":{"highway":"service"},"geometry":{"type":"LineString","coordinates":[[-0.2040868,5.5527522],[-0.2040286,5.5527208],[-0.203984,5.5526938],[-0.2039113,5.5526793],[-0.20377,5.5526954],[-0.2035942,5.5527167],[-0.2033523,5.5527475],[-0.2030137,5.5527737],[-0.2029419,5.5527372]]}},{"type":"Feature","id":"279446885","properties":{"highway":"service"},"geometry":{"type":"LineString","coordinates":[[-0.2040811,5.5528828],[-0.2041107,5.5528845],[-0.2041381,5.5528734],[-0.204155,5.5528566],[-0.204165,5.5528351],[-0.2041668,5.5528114],[-0.2041602,5.5527885],[-0.2041297,5.552758],[-0.2040868,5.5527522],[-0.2040616,5.5527627],[-0.2040427,5.5527822],[-0.204033,5.5528076],[-0.2040342,5.5528348],[-0.2040462,5.5528592]]}},{"type":"Feature","id":"306112851","properties":{"building":"hut","building:levels":"8"},"geometry":{"type":"Polygon","coordinates":[[[-0.2034447,5.5558953],[-0.203273,5.5559149],[-0.2032832,5.556004],[-0.2031978,5.5560137],[-0.2031941,5.5559818],[-0.203043,5.555999],[-0.2030405,5.5559778],[-0.202974,5.5559854],[-0.2029699,5.5559494],[-0.2029533,5.555805],[-0.2034281,5.5557508],[-0.2034447,5.5558953]]]}},{"type":"Feature","id":"307927466","properties":{"building":"shed","building:levels":"5"},"geometry":{"type":"Polygon","coordinates":[[[-0.206904,5.5555284],[-0.2067749,5.5555387],[-0.2067691,5.555467],[-0.206719,5.555471],[-0.2067244,5.5555384],[-0.2065949,5.5555487],[-0.2065712,5.5552555],[-0.206687,5.5552462],[-0.2066945,5.5553383],[-0.2067643,5.5553327],[-0.2067579,5.5552532],[-0.206881,5.5552433],[-0.206904,5.5555284]]]}},{"type":"Feature","id":"307927475","properties":{"building":"shed","building:levels":"5"},"geometry":{"type":"Polygon","coordinates":[[[-0.206342,5.5554862],[-0.2063217,5.5552857],[-0.2062017,5.5552978],[-0.2062068,5.5553481],[-0.2061492,5.5553538],[-0.2061437,5.5552993],[-0.2060223,5.5553115],[-0.2060429,5.5555153],[-0.2061666,5.5555029],[-0.2061631,5.5554683],[-0.2062066,5.5554639],[-0.2062102,5.5554995],[-0.206342,5.5554862]]]}},{"type":"Feature","id":"307927491","properties":{"building":"detached"},"geometry":{"type":"Polygon","coordinates":[[[-0.2051689,5.5526435],[-0.2052092,5.5526409],[-0.2052165,5.55275],[-0.2051693,5.5527531],[-0.2051718,5.5527904],[-0.2050735,5.5527968],[-0.205072,5.5527735],[-0.2049644,5.5527806],[-0.2049593,5.5527037],[-0.2048603,5.5527102],[-0.2048541,5.5526169],[-0.2049572,5.5526101],[-0.2049599,5.5526511],[-0.2050699,5.5526439],[-0.2050718,5.5526733],[-0.2051511,5.5526681],[-0.2051496,5.5526448],[-0.2051689,5.5526435]]]}},{"type":"Feature","id":"307927495","properties":{"building":"shed"},"geometry":{"type":"Polygon","coordinates":[[[-0.2062282,5.554946],[-0.2062218,5.5548625],[-0.2060972,5.554872],[-0.2061036,5.5549555],[-0.2062282,5.554946]]]}},{"type":"Feature","id":"307927507","properties":{"building":"shed"},"geometry":{"type":"Polygon","coordinates":[[[-0.2067181,5.5544412],[-0.2067068,5.554303],[-0.2060723,5.5543544],[-0.2060836,5.5544926],[-0.2067181,5.5544412]]]}},{"type":"Feature","id":"307927528","properties":{"building":"shed"},"geometry":{"type":"Polygon","coordinates":[[[-0.2060758,5.5546504],[-0.2060663,5.5545629],[-0.2058706,5.5545842],[-0.2058802,5.5546716],[-0.2060758,5.5546504]]]}},{"type":"Feature","id":"307927529","properties":{"building":"detached"},"geometry":{"type":"Polygon","coordinates":[[[-0.2052956,5.5525538],[-0.205159,5.5525612],[-0.2051549,5.5524867],[-0.2052915,5.5524794],[-0.2052956,5.5525538]]]}},{"type":"Feature","id":"307927540","properties":{"building":"shed","building:levels":"1"},"geometry":{"type":"Polygon","coordinates":[[[-0.2046543,5.5524295],[-0.2046363,5.5523182],[-0.2045395,5.5523336],[-0.2045574,5.552445],[-0.2046543,5.5524295]]]}},{"type":"Feature","id":"307927549","properties":{"building":"shed","building:levels":"1"},"geometry":{"type":"Polygon","coordinates":[[[-0.2056658,5.5545853],[-0.2056625,5.5545015],[-0.2054974,5.5545077],[-0.2055006,5.5545915],[-0.2056658,5.5545853]]]}},{"type":"Feature","id":"307927551","properties":{"building":"shed","building:levels":"1"},"geometry":{"type":"Polygon","coordinates":[[[-0.2067144,5.553848],[-0.2067095,5.5537373],[-0.2068828,5.5537298],[-0.2068877,5.5538404],[-0.2067144,5.553848]]]}},{"type":"Feature","id":"307927552","properties":{"building":"detached"},"geometry":{"type":"Polygon","coordinates":[[[-0.2052274,5.5527154],[-0.2053083,5.5527088],[-0.2052973,5.5525761],[-0.2052165,5.5525827],[-0.2052274,5.5527154]]]}},{"type":"Feature","id":"307927556","properties":{"building":"shed","building:levels":"2"},"geometry":{"type":"Polygon","coordinates":[[[-0.2065347,5.5553285],[-0.206527,5.555242],[-0.2064094,5.5552524],[-0.2064171,5.555339],[-0.2065347,5.5553285]]]}},{"type":"Feature","id":"307927561","properties":{"building":"shed","building:levels":"2"},"geometry":{"type":"Polygon","coordinates":[[[-0.2058684,5.553532],[-0.2058612,5.5534304],[-0.2054381,5.55346],[-0.2054453,5.5535616],[-0.2058684,5.553532]]]}},{"type":"Feature","id":"307927569","properties":{"building":"shed"},"geometry":{"type":"Polygon","coordinates":[[[-0.2061626,5.555047],[-0.2061586,5.5549698],[-0.2060513,5.5549753],[-0.2060554,5.5550526],[-0.2061626,5.555047]]]}},{"type":"Feature","id":"307927571","properties":{"building":"shed","building:levels":"4"},"geometry":{"type":"Polygon","coordinates":[[[-0.2065312,5.5535905],[-0.2061389,5.5536003],[-0.2061361,5.5534907],[-0.2064841,5.553482],[-0.2064848,5.5535086],[-0.2065291,5.5535075],[-0.2065312,5.5535905]]]}},{"type":"Feature","id":"307927583","properties":{"building":"shed","building:levels":"2"},"geometry":{"type":"Polygon","coordinates":[[[-0.2058031,5.5539764],[-0.2057956,5.5538801],[-0.2052547,5.5539218],[-0.2052622,5.5540181],[-0.2058031,5.5539764]]]}},{"type":"Feature","id":"307927585","properties":{"building":"shed","building:levels":"1"},"geometry":{"type":"Polygon","coordinates":[[[-0.2053451,5.5535354],[-0.2053376,5.553443],[-0.2048129,5.5534855],[-0.2048204,5.5535779],[-0.2048934,5.553572],[-0.2048968,5.5536133],[-0.2049359,5.5536102],[-0.2049325,5.5535688],[-0.2052256,5.5535419],[-0.2052264,5.5535764],[-0.205256,5.5535748],[-0.2052522,5.5535399],[-0.2053451,5.5535354]]]}},{"type":"Feature","id":"307927586","properties":{"building":"shed"},"geometry":{"type":"Polygon","coordinates":[[[-0.2047413,5.5527369],[-0.2045001,5.5527527],[-0.204491,5.5526157],[-0.2047322,5.5525999],[-0.2047413,5.5527369]]]}},{"type":"Feature","id":"307927592","properties":{"building":"shed"},"geometry":{"type":"Polygon","coordinates":[[[-0.2060788,5.5547515],[-0.2060689,5.5546552],[-0.2059945,5.5546628],[-0.2060044,5.5547591],[-0.2060788,5.5547515]]]}},{"type":"Feature","id":"307927593","properties":{"building":"shed","building:levels":"1"},"geometry":{"type":"Polygon","coordinates":[[[-0.2069386,5.5540584],[-0.2069343,5.5539823],[-0.2067638,5.5539918],[-0.2067681,5.5540679],[-0.2069386,5.5540584]]]}},{"type":"Feature","id":"307927595","properties":{"building":"detached"},"geometry":{"type":"Polygon","coordinates":[[[-0.2055965,5.5526797],[-0.2055787,5.5525184],[-0.2054791,5.5525293],[-0.2054969,5.5526906],[-0.2055965,5.5526797]]]}},{"type":"Feature","id":"307927604","properties":{"building":"shed"},"geometry":{"type":"Polygon","coordinates":[[[-0.2060173,5.5541823],[-0.2059819,5.5537323],[-0.2058508,5.5537426],[-0.2058567,5.5538174],[-0.2058189,5.5538204],[-0.2058225,5.5538669],[-0.2058604,5.5538639],[-0.2058776,5.5540828],[-0.20584,5.5540857],[-0.2058432,5.5541261],[-0.2058808,5.5541232],[-0.2058862,5.5541925],[-0.2060173,5.5541823]]]}},{"type":"Feature","id":"307927616","properties":{"building":"shed","building:levels":"2"},"geometry":{"type":"Polygon","coordinates":[[[-0.2056125,5.555001],[-0.2056072,5.5548957],[-0.205534,5.5548994],[-0.2055351,5.5549201],[-0.2054813,5.5549228],[-0.2054856,5.5550074],[-0.2056125,5.555001]]]}},{"type":"Feature","id":"307927618","properties":{"building":"shed","building:levels":"1"},"geometry":{"type":"Polygon","coordinates":[[[-0.2070093,5.5539662],[-0.207004,5.5538644],[-0.2067215,5.5538791],[-0.2067268,5.5539809],[-0.2070093,5.5539662]]]}},{"type":"Feature","id":"307927619","properties":{"building":"detached"},"geometry":{"type":"Polygon","coordinates":[[[-0.2056001,5.5533017],[-0.2055738,5.5529305],[-0.2054802,5.552937],[-0.2055065,5.5533083],[-0.2056001,5.5533017]]]}},{"type":"Feature","id":"307927629","properties":{"building":"shed","building:levels":"1"},"geometry":{"type":"Polygon","coordinates":[[[-0.2054403,5.5546746],[-0.2054372,5.5545936],[-0.2053804,5.5545958],[-0.2053835,5.5546768],[-0.2054403,5.5546746]]]}},{"type":"Feature","id":"307927631","properties":{"building":"shed"},"geometry":{"type":"Polygon","coordinates":[[[-0.2058691,5.5532992],[-0.2057429,5.5533095],[-0.2057269,5.5531147],[-0.2058537,5.5531044],[-0.205858,5.5531568],[-0.2058343,5.5531587],[-0.2058399,5.553227],[-0.2058631,5.5532251],[-0.2058691,5.5532992]]]}},{"type":"Feature","id":"307927639","properties":{"building":"shed","building:levels":"4"},"geometry":{"type":"Polygon","coordinates":[[[-0.2069949,5.5541995],[-0.2069896,5.5540936],[-0.2067826,5.5541039],[-0.2067879,5.5542098],[-0.2069949,5.5541995]]]}},{"type":"Feature","id":"307927644","properties":{"building":"shed","building:levels":"1"},"geometry":{"type":"Polygon","coordinates":[[[-0.2066611,5.5538878],[-0.2066556,5.553802],[-0.2065169,5.5538109],[-0.2065157,5.5537915],[-0.2064707,5.5537944],[-0.2064775,5.5538995],[-0.2066611,5.5538878]]]}},{"type":"Feature","id":"307927645","properties":{"building":"detached","building:levels":"3"},"geometry":{"type":"Polygon","coordinates":[[[-0.2053553,5.5530605],[-0.2053459,5.5529306],[-0.205073,5.5529502],[-0.2050692,5.5528981],[-0.2048909,5.5529109],[-0.2048952,5.552969],[-0.2048197,5.5529745],[-0.2048287,5.5530985],[-0.2053553,5.5530605]]]}},{"type":"Feature","id":"307927647","properties":{"building":"shed","building:levels":"2"},"geometry":{"type":"Polygon","coordinates":[[[-0.2063602,5.5534693],[-0.2063535,5.5533598],[-0.2062978,5.5533632],[-0.2062992,5.5533862],[-0.2059662,5.5534065],[-0.2059715,5.5534929],[-0.2063602,5.5534693]]]}},{"type":"Feature","id":"307927649","properties":{"building":"shed"},"geometry":{"type":"Polygon","coordinates":[[[-0.2053216,5.5522341],[-0.2052969,5.5520876],[-0.2050687,5.5521258],[-0.2050853,5.552224],[-0.20521,5.5522031],[-0.2052181,5.5522514],[-0.2053216,5.5522341]]]}},{"type":"Feature","id":"307927657","properties":{"building":"shed"},"geometry":{"type":"Polygon","coordinates":[[[-0.2063756,5.5540825],[-0.2063607,5.5539079],[-0.2060762,5.5539318],[-0.2060852,5.5540385],[-0.2061164,5.5540359],[-0.2061222,5.5541039],[-0.2063756,5.5540825]]]}},{"type":"Feature","id":"307927662","properties":{"building":"shed"},"geometry":{"type":"Polygon","coordinates":[[[-0.2065222,5.5541068],[-0.2063965,5.554117],[-0.2063868,5.5539984],[-0.2066785,5.5539748],[-0.2066832,5.554032],[-0.2065172,5.5540454],[-0.2065222,5.5541068]]]}},{"type":"Feature","id":"307927668","properties":{"building":"shed"},"geometry":{"type":"Polygon","coordinates":[[[-0.2048435,5.553304],[-0.2048386,5.5532211],[-0.2048589,5.5532199],[-0.2048567,5.5531824],[-0.2048364,5.5531836],[-0.204832,5.5531104],[-0.2048193,5.5531112],[-0.2048187,5.5531015],[-0.2047449,5.5531059],[-0.204757,5.5533091],[-0.2048435,5.553304]]]}},{"type":"Feature","id":"307927682","properties":{"building":"shed","building:levels":"3"},"geometry":{"type":"Polygon","coordinates":[[[-0.2056822,5.5536432],[-0.2054137,5.5536636],[-0.2054158,5.5536906],[-0.2051938,5.5537082],[-0.205199,5.5538159],[-0.2054411,5.5537755],[-0.2054391,5.5537498],[-0.2054967,5.5537454],[-0.2054987,5.5537715],[-0.2056909,5.5537569],[-0.2056822,5.5536432]]]}},{"type":"Feature","id":"307927694","properties":{"building":"shed","building:levels":"1"},"geometry":{"type":"Polygon","coordinates":[[[-0.2054345,5.5551043],[-0.2054292,5.5550323],[-0.2054858,5.5550282],[-0.2054865,5.5550379],[-0.205528,5.5550349],[-0.2055307,5.5550724],[-0.2055025,5.5550745],[-0.2055043,5.5550993],[-0.2054345,5.5551043]]]}},{"type":"Feature","id":"307927695","properties":{"building":"detached"},"geometry":{"type":"Polygon","coordinates":[[[-0.2054753,5.5533161],[-0.2054669,5.5532241],[-0.2051478,5.5532531],[-0.2051366,5.5531312],[-0.2049608,5.5531472],[-0.2049716,5.5532649],[-0.2049424,5.5532675],[-0.2049512,5.5533636],[-0.2054753,5.5533161]]]}},{"type":"Feature","id":"307927700","properties":{"building":"detached","building:levels":"1"},"geometry":{"type":"Polygon","coordinates":[[[-0.2048295,5.5520329],[-0.2047787,5.5517028],[-0.2044581,5.5517517],[-0.2044792,5.5518888],[-0.2046346,5.5518651],[-0.2046476,5.5519491],[-0.2046135,5.5519543],[-0.2046302,5.5520633],[-0.2048295,5.5520329]]]}},{"type":"Feature","id":"307927709","properties":{"building":"detached","building:levels":"1"},"geometry":{"type":"Polygon","coordinates":[[[-0.2048642,5.5524368],[-0.2048406,5.5522805],[-0.2050509,5.552249],[-0.2050349,5.5521431],[-0.2044976,5.5522236],[-0.2045136,5.5523298],[-0.2047351,5.5522966],[-0.2047586,5.5524526],[-0.2048642,5.5524368]]]}},{"type":"Feature","id":"315898843","properties":{"building":"apartments"},"geometry":{"type":"Polygon","coordinates":[[[-0.2070006,5.5524429],[-0.2067842,5.5524666],[-0.2067779,5.5524096],[-0.2069943,5.5523859],[-0.2070006,5.5524429]]]}},{"type":"Feature","id":"315898861","properties":{"building":"apartments"},"geometry":{"type":"Polygon","coordinates":[[[-0.2068341,5.5524742],[-0.2069204,5.5524646],[-0.2069248,5.5525043],[-0.2068385,5.5525138],[-0.2068341,5.5524742]]]}},{"type":"Feature","id":"318612416","properties":{"highway":"secondary"},"geometry":{"type":"LineString","coordinates":[[-0.2054136,5.5556371],[-0.2053107,5.5551873],[-0.2052759,5.5550255],[-0.2052359,5.5548395],[-0.2051863,5.5546306],[-0.2051526,5.5545344],[-0.2050884,5.554383],[-0.2050321,5.5542869],[-0.2050171,5.5542647],[-0.2049291,5.5541509],[-0.2048207,5.5540457],[-0.2046187,5.5538399],[-0.2045872,5.5537979],[-0.204555,5.5537338],[-0.2045322,5.553607],[-0.2044413,5.5529145],[-0.2044148,5.5527127],[-0.2043726,5.5525198],[-0.2043049,5.5522108],[-0.204233,5.5518768]]}},{"type":"Feature","id":"424279994","properties":{"highway":"secondary"},"geometry":{"type":"LineString","coordinates":[[-0.2036674,5.552475],[-0.204043,5.5525063],[-0.2041208,5.5525156],[-0.2042267,5.5525563],[-0.204265,5.5526077],[-0.2042898,5.5526391],[-0.2043106,5.5526951],[-0.2043823,5.5532584],[-0.2043977,5.5533459],[-0.2044588,5.5536869],[-0.2045097,5.5538437],[-0.2045352,5.5538965],[-0.2045721,5.5539372],[-0.2046767,5.55405],[-0.2048564,5.5542355],[-0.2049449,5.5543223],[-0.2049959,5.5543984],[-0.2050468,5.5544931],[-0.2050723,5.5545692],[-0.2051193,5.5547481],[-0.205185,5.5550885],[-0.2052413,5.5553648],[-0.2052976,5.5556624]]}},{"type":"Feature","id":"424279998","properties":{"highway":"residential"},"geometry":{"type":"LineString","coordinates":[[-0.2081724,5.5521511],[-0.2079205,5.5522258],[-0.2078504,5.5522479],[-0.2077881,5.552292],[-0.2076283,5.5525255],[-0.2076057,5.552553],[-0.2075701,5.552579],[-0.2073817,5.5526037],[-0.2073086,5.5526104],[-0.206815,5.5526671]]}},{"type":"Feature","id":"424280001","properties":{"highway":"tertiary"},"geometry":{"type":"LineString","coordinates":[[-0.2045097,5.5541768],[-0.2045622,5.5544916],[-0.2046167,5.5548733],[-0.2046233,5.55501],[-0.204619,5.5551091],[-0.2045949,5.5552313],[-0.20455,5.5553721],[-0.2044011,5.5557892]]}},{"type":"Feature","id":"448869624","properties":{"highway":"residential"},"geometry":{"type":"LineString","coordinates":[[-0.2063176,5.552009],[-0.2067393,5.5520411],[-0.2068841,5.5520478],[-0.2070204,5.5520402],[-0.2071567,5.5520271],[-0.2073844,5.5520051],[-0.2079115,5.5519363],[-0.2081127,5.5519088]]}},{"type":"Feature","id":"482522344","properties":{"highway":"service"},"geometry":{"type":"LineString","coordinates":[[-0.2039254,5.5561165],[-0.2038583,5.5560366],[-0.2037597,5.5559765],[-0.2036659,5.5559965],[-0.2036196,5.5560486],[-0.2035796,5.5562023]]}},{"type":"Feature","id":"482522346","properties":{"building":"roof","building:levels":"1","layer":"1"},"geometry":{"type":"Polygon","coordinates":[[[-0.203751,5.5560179],[-0.2036908,5.5560301],[-0.2036667,5.5559119],[-0.2037269,5.5558998],[-0.203751,5.5560179]]]}},{"type":"Feature","id":"511751465","properties":{"highway":"primary"},"geometry":{"type":"LineString","coordinates":[[-0.203226,5.5524671],[-0.2033986,5.5524647],[-0.2036674,5.552475]]}},{"type":"Feature","id":"514981238","properties":{"highway":"tertiary"},"geometry":{"type":"LineString","coordinates":[[-0.2045097,5.5541768],[-0.2045422,5.5540856],[-0.2045701,5.5540577],[-0.2045955,5.5540509],[-0.2046276,5.5540486],[-0.2046767,5.55405]]}},{"type":"Feature","id":"514981241","properties":{"highway":"secondary"},"geometry":{"type":"LineString","coordinates":[[-0.2053104,5.5557625],[-0.2053279,5.5558551]]}},{"type":"Feature","id":"514981246","properties":{"highway":"secondary"},"geometry":{"type":"LineString","coordinates":[[-0.2054472,5.5558365],[-0.2054286,5.5557395]]}},{"type":"Feature","id":"514981248","properties":{"highway":"primary"},"geometry":{"type":"LineString","coordinates":[[-0.2053279,5.5558551],[-0.2054472,5.5558365]]}},{"type":"Feature","id":"514981254","properties":{"highway":"primary"},"geometry":{"type":"LineString","coordinates":[[-0.2054286,5.5557395],[-0.2053104,5.5557625]]}},{"type":"Feature","id":"514981259","properties":{"highway":"primary"},"geometry":{"type":"LineString","coordinates":[[-0.2055734,5.5558179],[-0.2059293,5.5557712],[-0.2061493,5.555759],[-0.2063865,5.5557602],[-0.206624,5.5557759],[-0.2068202,5.5558004],[-0.2069272,5.5558233],[-0.2070303,5.5558453],[-0.2071848,5.555879],[-0.2073321,5.5559246],[-0.2075006,5.5559898],[-0.2076294,5.5560451],[-0.2078766,5.5561336],[-0.2081235,5.5562],[-0.2083134,5.5562393]]}},{"type":"Feature","id":"525957751","properties":{"highway":"primary"},"geometry":{"type":"LineString","coordinates":[[-0.2043286,5.5560945],[-0.204813,5.5559789],[-0.205245,5.5558797]]}},{"type":"Feature","id":"526593446","properties":{"highway":"secondary"},"geometry":{"type":"LineString","coordinates":[[-0.2055442,5.5564865],[-0.2054701,5.5559719]]}},{"type":"Feature","id":"570666208","properties":{"building":"hut"},"geometry":{"type":"Polygon","coordinates":[[[-0.2044581,5.5548108],[-0.2042462,5.5549096],[-0.2042077,5.5548278],[-0.2044196,5.554729],[-0.2044581,5.5548108]]]}},{"type":"Feature","id":"570666209","properties":{"building":"hut"},"geometry":{"type":"Polygon","coordinates":[[[-0.2042294,5.5548996],[-0.2041416,5.554941],[-0.2041116,5.5548779],[-0.2041994,5.5548365],[-0.2042294,5.5548996]]]}},{"type":"Feature","id":"570666210","properties":{"building":"hut"},"geometry":{"type":"Polygon","coordinates":[[[-0.2041161,5.5549563],[-0.2040155,5.5550064],[-0.203971,5.5549177],[-0.2040716,5.5548677],[-0.2041161,5.5549563]]]}},{"type":"Feature","id":"570666211","properties":{"building":"hut"},"geometry":{"type":"Polygon","coordinates":[[[-0.2039019,5.5550017],[-0.2039436,5.5549933],[-0.2039668,5.5551071],[-0.203925,5.5551155],[-0.2039019,5.5550017]]]}},{"type":"Feature","id":"570666212","properties":{"building":"hut"},"geometry":{"type":"Polygon","coordinates":[[[-0.2038955,5.5549833],[-0.2038519,5.5550074],[-0.203831,5.5549699],[-0.2038746,5.5549458],[-0.2038955,5.5549833]]]}},{"type":"Feature","id":"570666213","properties":{"building":"hut"},"geometry":{"type":"Polygon","coordinates":[[[-0.2038777,5.5550067],[-0.2039018,5.5550816],[-0.2038411,5.5551009],[-0.203817,5.555026],[-0.2038777,5.5550067]]]}},{"type":"Feature","id":"570666214","properties":{"building":"hut","building:levels":"2"},"geometry":{"type":"Polygon","coordinates":[[[-0.2037714,5.5553309],[-0.2037549,5.5552608],[-0.2037363,5.5552652],[-0.203714,5.5551709],[-0.2037325,5.5551666],[-0.2037114,5.5550772],[-0.2037876,5.5550593],[-0.2038074,5.555143],[-0.2038861,5.5551246],[-0.2039095,5.5552237],[-0.2041182,5.5551749],[-0.204135,5.555246],[-0.2037714,5.5553309]]]}},{"type":"Feature","id":"570666216","properties":{"building":"hut","building:levels":"1"},"geometry":{"type":"Polygon","coordinates":[[[-0.204212,5.5554095],[-0.2042025,5.5554544],[-0.2042293,5.55546],[-0.2042201,5.5555033],[-0.2042116,5.5555016],[-0.204198,5.5555659],[-0.204204,5.5555672],[-0.2041961,5.5556048],[-0.2040326,5.5555705],[-0.2040646,5.5554192],[-0.2040984,5.5554263],[-0.2041066,5.5553874],[-0.204212,5.5554095]]]}},{"type":"Feature","id":"570666217","properties":{"building":"hut","building:levels":"1"},"geometry":{"type":"Polygon","coordinates":[[[-0.2044884,5.555279],[-0.2044292,5.5555223],[-0.2043566,5.5555048],[-0.2043984,5.5553331],[-0.204315,5.555313],[-0.2043325,5.5552414],[-0.2044884,5.555279]]]}},{"type":"Feature","id":"637147945","properties":{"highway":"service"},"geometry":{"type":"LineString","coordinates":[[-0.204813,5.5559789],[-0.2048309,5.5560782],[-0.2048701,5.556138]]}},{"type":"Feature","id":"637169807","properties":{"highway":"service"},"geometry":{"type":"LineString","coordinates":[[-0.2051818,5.5542542],[-0.2051273,5.5542669],[-0.2050321,5.5542869]]}},{"type":"Feature","id":"637169808","properties":{"highway":"service"},"geometry":{"type":"LineString","coordinates":[[-0.2057936,5.5542553],[-0.2055109,5.5542729],[-0.205309,5.5542382]]}},{"type":"Feature","id":"637169809","properties":{"highway":"service"},"geometry":{"type":"LineString","coordinates":[[-0.20583,5.5528118],[-0.2058695,5.5530452],[-0.2058749,5.5530896],[-0.2058892,5.5532065],[-0.2059063,5.5533462],[-0.2059333,5.5535668],[-0.2059501,5.5536282],[-0.2059843,5.5536522],[-0.2060171,5.5536836],[-0.2060213,5.5537044],[-0.2060265,5.5537303],[-0.2060597,5.5541574],[-0.2060587,5.5541928],[-0.2060511,5.5542123],[-0.2060332,5.5542302],[-0.2059051,5.5542408],[-0.2057936,5.5542553]]}},{"type":"Feature","id":"637169810","properties":{"highway":"service"},"geometry":{"type":"LineString","coordinates":[[-0.205864,5.5551635],[-0.2057936,5.5542553]]}},{"type":"Feature","id":"637169811","properties":{"highway":"service"},"geometry":{"type":"LineString","coordinates":[[-0.206388,5.5551244],[-0.2063886,5.5549162],[-0.2063638,5.5546693]]}},{"type":"Feature","id":"637169812","properties":{"highway":"service"},"geometry":{"type":"LineString","coordinates":[[-0.2074179,5.5545919],[-0.207037,5.5546467],[-0.2069753,5.5546373],[-0.2069069,5.5546133],[-0.2068399,5.5545438],[-0.2068111,5.5544558],[-0.2067822,5.5543677],[-0.2067487,5.5542435],[-0.2067246,5.5541447],[-0.2067167,5.5539295],[-0.2067019,5.5537074]]}},{"type":"Feature","id":"637169814","properties":{"highway":"residential"},"geometry":{"type":"LineString","coordinates":[[-0.2078805,5.5548668],[-0.2075923,5.554983],[-0.207434,5.5550203],[-0.2072757,5.5550471],[-0.2070614,5.5550749],[-0.2067474,5.5551045],[-0.2065408,5.5551285],[-0.206388,5.5551244],[-0.2061329,5.5551431],[-0.205864,5.5551635],[-0.2053107,5.5551873]]}},{"type":"Feature","id":"637202565","properties":{"highway":"tertiary"},"geometry":{"type":"LineString","coordinates":[[-0.2044588,5.5536869],[-0.2044909,5.5539999],[-0.2045097,5.5541768]]}},{"type":"Feature","id":"637202566","properties":{"highway":"tertiary"},"geometry":{"type":"LineString","coordinates":[[-0.2044011,5.5557892],[-0.2043236,5.5560125]]}},{"type":"Feature","id":"637202567","properties":{"highway":"tertiary"},"geometry":{"type":"LineString","coordinates":[[-0.2044956,5.5559662],[-0.2044527,5.5558953],[-0.2044011,5.5557892]]}},{"type":"Feature","id":"637264184","properties":{"highway":"service"},"geometry":{"type":"LineString","coordinates":[[-0.20455,5.5553721],[-0.20479,5.5553696],[-0.204979,5.5553676],[-0.2051214,5.5553661],[-0.2052413,5.5553648]]}},{"type":"Feature","id":"637264705","properties":{"highway":"service"},"geometry":{"type":"LineString","coordinates":[[-0.2043977,5.5533459],[-0.2042402,5.5533532],[-0.2041899,5.5533612],[-0.2041486,5.5533689],[-0.2041168,5.5533936],[-0.2040906,5.5534199],[-0.2040511,5.5534393],[-0.2039887,5.553446]]}},{"type":"Feature","id":"637964226","properties":{"highway":"service"},"geometry":{"type":"LineString","coordinates":[[-0.2051092,5.5539132],[-0.2050938,5.5539145],[-0.2050763,5.5539192],[-0.2048872,5.5539846]]}},{"type":"Feature","id":"637964227","properties":{"highway":"service"},"geometry":{"type":"LineString","coordinates":[[-0.2048872,5.5539846],[-0.2048698,5.5539853],[-0.2048544,5.5539812],[-0.2046847,5.553815],[-0.2046733,5.5538097]]}},{"type":"Feature","id":"637964228","properties":{"highway":"service"},"geometry":{"type":"LineString","coordinates":[[-0.2046733,5.5538097],[-0.2046619,5.5538124],[-0.2046187,5.5538399]]}},{"type":"Feature","id":"637964229","properties":{"highway":"service"},"geometry":{"type":"LineString","coordinates":[[-0.205309,5.5542382],[-0.205229,5.5541385],[-0.2051364,5.5539298],[-0.2051243,5.5539178],[-0.2051092,5.5539132]]}},{"type":"Feature","id":"663861439","properties":{"building":"shed","height":"4","building:levels":"1"},"geometry":{"type":"Polygon","coordinates":[[[-0.2039946,5.55132],[-0.2037666,5.5513212],[-0.2036683,5.5512579],[-0.2034248,5.5512673],[-0.2034246,5.5513343],[-0.2031589,5.5513357],[-0.2031598,5.5515033],[-0.2031608,5.5517073],[-0.2031236,5.5517075],[-0.2031284,5.5521427],[-0.2032787,5.5522808],[-0.2033519,5.5522804],[-0.2033521,5.5523214],[-0.2038866,5.5523187],[-0.2038863,5.5522689],[-0.2039533,5.5522686],[-0.2040563,5.552161],[-0.2040611,5.5517313],[-0.2039967,5.5517316],[-0.2039954,5.5514777],[-0.2039946,5.55132]]]}},{"type":"Feature","id":"678520543","properties":{"highway":"service"},"geometry":{"type":"LineString","coordinates":[[-0.2033986,5.5524647],[-0.2034244,5.5524229],[-0.2034411,5.5524043]]}},{"type":"Feature","id":"678520544","properties":{"highway":"footway"},"geometry":{"type":"LineString","coordinates":[[-0.2034239,5.5498453],[-0.2035213,5.5495773],[-0.2035409,5.549561],[-0.2035864,5.5495229],[-0.2036484,5.5495193],[-0.2037771,5.549541],[-0.2038237,5.5496217],[-0.2039518,5.5502771],[-0.204016,5.5506983],[-0.2040309,5.5508336],[-0.2041201,5.551646],[-0.2041362,5.5521692],[-0.2040786,5.55226],[-0.2040088,5.552312],[-0.2038385,5.5523815],[-0.2034244,5.5524229],[-0.2030908,5.5523855],[-0.2029567,5.55228],[-0.2028649,5.5521559],[-0.2028313,5.5520237],[-0.2028045,5.5519103],[-0.2028969,5.5514558],[-0.2030051,5.5510773],[-0.2032605,5.5503261],[-0.2034239,5.5498453]]}},{"type":"Feature","id":"678520551","properties":{"highway":"service"},"geometry":{"type":"LineString","coordinates":[[-0.2029847,5.5514427],[-0.2029252,5.5515872],[-0.202881,5.5519169],[-0.2029145,5.5521479],[-0.2031116,5.5523494],[-0.2034603,5.5523734],[-0.2038358,5.5523574],[-0.2040263,5.5522693],[-0.2041134,5.5521105],[-0.2040651,5.5516567],[-0.20405,5.5515016],[-0.2040487,5.5514733]]}},{"type":"Feature","id":"685745218","properties":{"highway":"footway"},"geometry":{"type":"LineString","coordinates":[[-0.2041362,5.5521692],[-0.2041678,5.5521859],[-0.2042207,5.5522126],[-0.2041577,5.5523548],[-0.204043,5.5525063]]}},{"type":"Feature","id":"685745219","properties":{"highway":"footway"},"geometry":{"type":"LineString","coordinates":[[-0.2043049,5.5522108],[-0.2042207,5.5522126]]}},{"type":"Feature","id":"685747992","properties":{"highway":"service"},"geometry":{"type":"LineString","coordinates":[[-0.2043898,5.5545812],[-0.2043615,5.5544651],[-0.2044527,5.5543223],[-0.2043843,5.5539325],[-0.2042864,5.5538177],[-0.2037594,5.5536102]]}},{"type":"Feature","id":"685747993","properties":{"building":"hut","building:levels":"2"},"geometry":{"type":"Polygon","coordinates":[[[-0.2042246,5.5538683],[-0.2041729,5.5539683],[-0.2041416,5.5539523],[-0.2041134,5.5540067],[-0.2039758,5.5539363],[-0.2040048,5.5538802],[-0.2039881,5.5538717],[-0.204039,5.5537732],[-0.2042246,5.5538683]]]}},{"type":"Feature","id":"685747994","properties":{"building":"hut","building:levels":"2"},"geometry":{"type":"Polygon","coordinates":[[[-0.204232,5.5543736],[-0.2041708,5.5540363],[-0.2042364,5.5540245],[-0.2042331,5.5540062],[-0.2043294,5.5539889],[-0.2043863,5.5543026],[-0.2043529,5.5543086],[-0.2043661,5.5543816],[-0.2042941,5.5543946],[-0.2042885,5.5543635],[-0.204232,5.5543736]]]}},{"type":"Feature","id":"685747995","properties":{"building":"hut"},"geometry":{"type":"Polygon","coordinates":[[[-0.2042086,5.5545625],[-0.2034724,5.5549603],[-0.2033829,5.5547962],[-0.2041191,5.5543984],[-0.2042086,5.5545625]]]}},{"type":"Feature","id":"689773325","properties":{"highway":"service"},"geometry":{"type":"LineString","coordinates":[[-0.2053885,5.5523993],[-0.2043726,5.5525198]]}},{"type":"Feature","id":"689773326","properties":{"building":"detached"},"geometry":{"type":"Polygon","coordinates":[[[-0.2054689,5.5527642],[-0.2054062,5.5527655],[-0.2054054,5.5527276],[-0.2054681,5.5527262],[-0.2054689,5.5527642]]]}},{"type":"Feature","id":"689773327","properties":{"highway":"service"},"geometry":{"type":"LineString","coordinates":[[-0.2047746,5.5521199],[-0.2050907,5.5520658],[-0.2052507,5.5520384],[-0.2053097,5.5520411],[-0.2053392,5.5520785],[-0.2053885,5.5523993],[-0.205429,5.5527058]]}},{"type":"Feature","id":"71186683","properties":{"highway":"residential"},"geometry":{"type":"LineString","coordinates":[[-0.2084231,5.5531989],[-0.2082601,5.5532571],[-0.2080818,5.5533145],[-0.2079785,5.5533358],[-0.2077767,5.5533417],[-0.2075892,5.553363],[-0.207372,5.5534164],[-0.2072264,5.5534601],[-0.207152,5.5534824],[-0.2070263,5.5535328],[-0.2069371,5.5535921],[-0.2068919,5.553636]]}},{"type":"Feature","id":"775436131","properties":{"building":"hut","building:levels":"2"},"geometry":{"type":"Polygon","coordinates":[[[-0.2042032,5.5534363],[-0.2041577,5.5534584],[-0.2041402,5.553434],[-0.2040818,5.5534781],[-0.2039732,5.5535176],[-0.2039828,5.5535875],[-0.2039849,5.5536025],[-0.2040514,5.5536025],[-0.2040397,5.5535815],[-0.2041705,5.5535606],[-0.2042522,5.5535107],[-0.2042032,5.5534363]]]}},{"type":"Feature","id":"775436132","properties":{"building":"hut","building:levels":"2"},"geometry":{"type":"Polygon","coordinates":[[[-0.2039828,5.5535875],[-0.2039732,5.5535176],[-0.2039685,5.5535025],[-0.2038623,5.5534955],[-0.2038401,5.5535467],[-0.2039487,5.5536338],[-0.2039828,5.5535875]]]}},{"type":"Feature","id":"775436136","properties":{"building":"shed","building:levels":"1"},"geometry":{"type":"Polygon","coordinates":[[[-0.2034303,5.553297],[-0.2034493,5.5532322],[-0.203401,5.5532182],[-0.2033821,5.553283],[-0.2034303,5.553297]]]}},{"type":"Feature","id":"775436138","properties":{"building":"hut"},"geometry":{"type":"Polygon","coordinates":[[[-0.2037251,5.5534444],[-0.2036883,5.5534482],[-0.2036877,5.5534425],[-0.2036675,5.5534446],[-0.2036329,5.5534245],[-0.2036294,5.5533913],[-0.2035961,5.5533947],[-0.2035896,5.5533313],[-0.2035218,5.5533382],[-0.2035107,5.5532312],[-0.203701,5.5532117],[-0.2037251,5.5534444]]]}},{"type":"Feature","id":"775437759","properties":{"building":"hut","building:levels":"2"},"geometry":{"type":"Polygon","coordinates":[[[-0.2039706,5.5538842],[-0.2040162,5.5537917],[-0.2039316,5.5537504],[-0.2039212,5.5537713],[-0.2037337,5.5536797],[-0.2036852,5.553778],[-0.2037111,5.5537907],[-0.2036875,5.5538386],[-0.203824,5.5539053],[-0.203853,5.5538466],[-0.203876,5.5538578],[-0.2038591,5.5538921],[-0.2039241,5.5539239],[-0.2039489,5.5538735],[-0.2039706,5.5538842]]]}},{"type":"Feature","id":"775437762","properties":{"building":"shed","building:levels":"1"},"geometry":{"type":"Polygon","coordinates":[[[-0.2054493,5.5545122],[-0.2054344,5.5542969],[-0.2053797,5.5543007],[-0.2053946,5.554516],[-0.2054493,5.5545122]]]}},{"type":"Feature","id":"775437763","properties":{"building":"shed","building:levels":"1"},"geometry":{"type":"Polygon","coordinates":[[[-0.2055168,5.5547078],[-0.2053933,5.5547179],[-0.2053907,5.5546867],[-0.2055142,5.5546765],[-0.2055168,5.5547078]]]}},{"type":"Feature","id":"775437764","properties":{"building":"shed","building:levels":"1"},"geometry":{"type":"Polygon","coordinates":[[[-0.2056222,5.5546844],[-0.2055589,5.5546893],[-0.2055549,5.5546356],[-0.2056109,5.5546312],[-0.2056131,5.554659],[-0.2056202,5.5546585],[-0.2056222,5.5546844]]]}},{"type":"Feature","id":"775439326","properties":{"building":"roof","building:levels":"2","layer":"1"},"geometry":{"type":"Polygon","coordinates":[[[-0.2055773,5.5553963],[-0.2054448,5.5554008],[-0.2054436,5.5553654],[-0.2055761,5.5553609],[-0.2055773,5.5553963]]]}},{"type":"Feature","id":"775439734","properties":{"building":"roof","building:levels":"2","layer":"1"},"geometry":{"type":"Polygon","coordinates":[[[-0.205579,5.5554047],[-0.2054535,5.5554108],[-0.2054552,5.5554448],[-0.2055806,5.5554387],[-0.205579,5.5554047]]]}},{"type":"Feature","id":"775439735","properties":{"building":"roof","building:levels":"2","layer":"1"},"geometry":{"type":"Polygon","coordinates":[[[-0.2055788,5.5554517],[-0.2054679,5.5554634],[-0.2054722,5.5555037],[-0.2055831,5.555492],[-0.2055788,5.5554517]]]}},{"type":"Feature","id":"775440391","properties":{"building":"shed","building:levels":"1"},"geometry":{"type":"Polygon","coordinates":[[[-0.2055686,5.5555613],[-0.2055202,5.5555694],[-0.2055288,5.5556198],[-0.2055772,5.5556117],[-0.2055686,5.5555613]]]}},{"type":"Feature","id":"775440392","properties":{"building":"apartments","building:levels":"1"},"geometry":{"type":"Polygon","coordinates":[[[-0.2057131,5.5560074],[-0.205711,5.5559743],[-0.205709,5.5559258],[-0.2057078,5.5559123],[-0.2056576,5.5559151],[-0.2056641,5.5560317],[-0.2056901,5.5560303],[-0.2057131,5.5560074]]]}},{"type":"Feature","id":"775440393","properties":{"building":"apartments","building:levels":"1"},"geometry":{"type":"Polygon","coordinates":[[[-0.2057779,5.5559715],[-0.205711,5.5559743],[-0.205709,5.5559258],[-0.2057759,5.555923],[-0.2057779,5.5559715]]]}},{"type":"Feature","id":"775668171","properties":{"building":"hut","building:levels":"1"},"geometry":{"type":"Polygon","coordinates":[[[-0.2037877,5.5558421],[-0.2037583,5.5558486],[-0.2037603,5.5558574],[-0.2036433,5.5558831],[-0.2036256,5.5558033],[-0.2035368,5.5558228],[-0.2035155,5.5557265],[-0.2036093,5.555706],[-0.2036172,5.5557419],[-0.2037362,5.5557158],[-0.2037576,5.5558126],[-0.2037801,5.5558077],[-0.2037877,5.5558421]]]}},{"type":"Feature","id":"775668173","properties":{"building":"hut","building:levels":"1"},"geometry":{"type":"Polygon","coordinates":[[[-0.2042074,5.5552296],[-0.2041946,5.5551704],[-0.2041409,5.555182],[-0.2041537,5.5552411],[-0.2042074,5.5552296]]]}},{"type":"Feature","id":"775668176","properties":{"building":"hut","building:levels":"6"},"geometry":{"type":"Polygon","coordinates":[[[-0.2049919,5.5556758],[-0.2046626,5.5556695],[-0.2046662,5.5555408],[-0.2049954,5.5555467],[-0.2049919,5.5556758]]]}},{"type":"Feature","id":"775671615","properties":{"building":"detached","building:levels":"6"},"geometry":{"type":"Polygon","coordinates":[[[-0.2062284,5.5523812],[-0.2056745,5.5524241],[-0.2056754,5.5524894],[-0.2059261,5.5524705],[-0.2059389,5.5526161],[-0.2060263,5.5526093],[-0.2060224,5.5525594],[-0.2061225,5.5525517],[-0.206116,5.552467],[-0.2062343,5.5524579],[-0.2062284,5.5523812]]]}},{"type":"Feature","id":"775671617","properties":{"building":"apartments","building:levels":"1"},"geometry":{"type":"Polygon","coordinates":[[[-0.2065259,5.5522594],[-0.206524,5.5521664],[-0.2065775,5.5521653],[-0.2065763,5.5521071],[-0.2064261,5.5521102],[-0.2064267,5.5521394],[-0.206428,5.5522262],[-0.2064292,5.5522614],[-0.2064491,5.552261],[-0.2065199,5.5522588],[-0.2065259,5.5522594]]]}},{"type":"Feature","id":"775671618","properties":{"building":"roof","building:levels":"1","layer":"1"},"geometry":{"type":"Polygon","coordinates":[[[-0.206428,5.5522262],[-0.2064267,5.5521394],[-0.2064017,5.5521398],[-0.206403,5.5522266],[-0.206428,5.5522262]]]}},{"type":"Feature","id":"775671619","properties":{"building":"apartments","building:levels":"1"},"geometry":{"type":"Polygon","coordinates":[[[-0.2065211,5.5522976],[-0.2064503,5.5522998],[-0.2064491,5.552261],[-0.2065199,5.5522588],[-0.2065211,5.5522976]]]}},{"type":"Feature","id":"775671620","properties":{"building":"apartments","building:levels":"1"},"geometry":{"type":"Polygon","coordinates":[[[-0.2065623,5.552436],[-0.2065572,5.5523216],[-0.2064306,5.5523273],[-0.2064357,5.5524416],[-0.2065623,5.552436]]]}},{"type":"Feature","id":"775671621","properties":{"building":"apartments","building:levels":"5"},"geometry":{"type":"Polygon","coordinates":[[[-0.2065146,5.5526468],[-0.2065101,5.5524994],[-0.2065097,5.5524781],[-0.2065091,5.552446],[-0.2064345,5.5524473],[-0.2064351,5.5524798],[-0.2064354,5.5525007],[-0.2064399,5.5526487],[-0.2065146,5.5526468]]]}},{"type":"Feature","id":"775671625","properties":{"building":"construction"},"geometry":{"type":"Polygon","coordinates":[[[-0.2066877,5.5542038],[-0.2061035,5.5542498],[-0.2060955,5.5541492],[-0.2066797,5.5541033],[-0.2066877,5.5542038]]]}},{"type":"Feature","id":"775671626","properties":{"building":"shed","building:levels":"2"},"geometry":{"type":"Polygon","coordinates":[[[-0.2062898,5.553373],[-0.2062827,5.5532565],[-0.2059546,5.5532763],[-0.2059617,5.5533928],[-0.2062898,5.553373]]]}},{"type":"Feature","id":"775671627","properties":{"building":"shed","building:levels":"1"},"geometry":{"type":"Polygon","coordinates":[[[-0.206378,5.5534648],[-0.2063693,5.5533509],[-0.2064205,5.553347],[-0.2064239,5.5533915],[-0.206445,5.5533899],[-0.2064503,5.5534592],[-0.206378,5.5534648]]]}},{"type":"Feature","id":"775671628","properties":{"building":"apartments","building:levels":"5"},"geometry":{"type":"Polygon","coordinates":[[[-0.2066521,5.553161],[-0.2066265,5.5529004],[-0.2064905,5.5529136],[-0.2065161,5.5531742],[-0.2066521,5.553161]]]}},{"type":"Feature","id":"775671631","properties":{"building":"shed","building:levels":"1"},"geometry":{"type":"Polygon","coordinates":[[[-0.2066562,5.5537535],[-0.2060724,5.5538018],[-0.2060663,5.553728],[-0.20665,5.5536796],[-0.2066562,5.5537535]]]}},{"type":"Feature","id":"775671634","properties":{"building":"shed","building:levels":"4"},"geometry":{"type":"Polygon","coordinates":[[[-0.2072263,5.5543846],[-0.2072162,5.554247],[-0.2068603,5.5542729],[-0.2068708,5.5544161],[-0.2069235,5.5544123],[-0.206925,5.5544327],[-0.2070278,5.5544252],[-0.2070307,5.5544644],[-0.2070934,5.5544599],[-0.2070901,5.5544141],[-0.2071579,5.5544092],[-0.2071565,5.5543897],[-0.2072263,5.5543846]]]}},{"type":"Feature","id":"775672497","properties":{"building":"shed","building:levels":"1"},"geometry":{"type":"Polygon","coordinates":[[[-0.2070613,5.5536647],[-0.2070127,5.5536765],[-0.2069956,5.5536067],[-0.2070441,5.5535949],[-0.2070613,5.5536647]]]}},{"type":"Feature","id":"775674242","properties":{"building":"shed","building:levels":"1"},"geometry":{"type":"Polygon","coordinates":[[[-0.2064884,5.5554406],[-0.2064838,5.5553607],[-0.2064285,5.5553639],[-0.2064275,5.5553462],[-0.2063796,5.5553489],[-0.2063852,5.5554465],[-0.2064884,5.5554406]]]}},{"type":"Feature","id":"775674243","properties":{"building":"shed","building:levels":"2"},"geometry":{"type":"Polygon","coordinates":[[[-0.2070888,5.5552821],[-0.2069634,5.5552935],[-0.2069568,5.5552219],[-0.2070822,5.5552105],[-0.2070888,5.5552821]]]}},{"type":"Feature","id":"775674244","properties":{"building":"shed","building:levels":"1"},"geometry":{"type":"Polygon","coordinates":[[[-0.2070235,5.5553858],[-0.2069377,5.5553927],[-0.2069308,5.5553077],[-0.2069783,5.5553039],[-0.2069803,5.5553282],[-0.2070186,5.5553252],[-0.2070235,5.5553858]]]}},{"type":"Feature","id":"879035115","properties":{"building":"apartments"},"geometry":{"type":"Polygon","coordinates":[[[-0.207139,5.5534007],[-0.2070958,5.5532921],[-0.2069594,5.5533458],[-0.2070025,5.5534544],[-0.207139,5.5534007]]]}},{"type":"Feature","id":"879035116","properties":{"building":"apartments"},"geometry":{"type":"Polygon","coordinates":[[[-0.2070717,5.5532749],[-0.2069582,5.5532779],[-0.2069549,5.5531562],[-0.207055,5.5531535],[-0.207057,5.5532261],[-0.2070704,5.5532257],[-0.2070717,5.5532749]]]}},{"type":"Feature","id":"879035118","properties":{"building":"apartments"},"geometry":{"type":"Polygon","coordinates":[[[-0.206896,5.5532704],[-0.2067617,5.5532802],[-0.2067554,5.5531944],[-0.2068268,5.5531892],[-0.206824,5.5531516],[-0.2068869,5.553147],[-0.206896,5.5532704]]]}},{"type":"Feature","id":"879035119","properties":{"building":"apartments"},"geometry":{"type":"Polygon","coordinates":[[[-0.2064973,5.5531935],[-0.2065568,5.5533178],[-0.206494,5.5533476],[-0.2064345,5.5532232],[-0.2064973,5.5531935]]]}},{"type":"Feature","id":"879035120","properties":{"building":"apartments"},"geometry":{"type":"Polygon","coordinates":[[[-0.2067371,5.5534057],[-0.206675,5.5534208],[-0.2066618,5.5533674],[-0.2066762,5.5533639],[-0.2066708,5.5533419],[-0.2068495,5.5532983],[-0.2068564,5.5533262],[-0.2068942,5.553317],[-0.2068999,5.55334],[-0.2067311,5.5533812],[-0.2067371,5.5534057]]]}},{"type":"Feature","id":"879035122","properties":{"building":"apartments"},"geometry":{"type":"Polygon","coordinates":[[[-0.2069447,5.5534535],[-0.2069234,5.553364],[-0.2068428,5.5533875],[-0.2067597,5.5534682],[-0.2068742,5.5535568],[-0.2069447,5.5534535]]]}},{"type":"Feature","id":"879759094","properties":{"building":"detached"},"geometry":{"type":"Polygon","coordinates":[[[-0.2069323,5.5520214],[-0.2068908,5.5518712],[-0.2070016,5.5518543],[-0.2070386,5.552006],[-0.2069323,5.5520214]]]}},{"type":"Feature","id":"881451662","properties":{"building":"shed"},"geometry":{"type":"Polygon","coordinates":[[[-0.2057561,5.5556184],[-0.2056399,5.5556314],[-0.2056328,5.5555688],[-0.2056464,5.5555672],[-0.2056429,5.5555357],[-0.2057594,5.5555227],[-0.2057677,5.5555957],[-0.2057537,5.5555973],[-0.2057561,5.5556184]]]}},{"type":"Feature","id":"881451663","properties":{"building":"shed"},"geometry":{"type":"Polygon","coordinates":[[[-0.2058026,5.5554778],[-0.2056721,5.5554881],[-0.2056657,5.5554084],[-0.2056152,5.5554124],[-0.2056094,5.5553403],[-0.2056786,5.5553348],[-0.2056765,5.5553076],[-0.2057666,5.5553005],[-0.2057688,5.5553277],[-0.2057905,5.555326],[-0.2058026,5.5554778]]]}},{"type":"Feature","id":"882484381","properties":{"building":"shed"},"geometry":{"type":"Polygon","coordinates":[[[-0.2045276,5.5528619],[-0.204485,5.552866],[-0.2044786,5.5528003],[-0.2045212,5.5527962],[-0.2045276,5.5528619]]]}},{"type":"Feature","id":"882485048","properties":{"building":"shed"},"geometry":{"type":"Polygon","coordinates":[[[-0.206577,5.5547034],[-0.2065186,5.5547065],[-0.2065248,5.5548214],[-0.2064586,5.5548249],[-0.2064523,5.55471],[-0.2063899,5.5547134],[-0.2063865,5.5546488],[-0.2064806,5.5546437],[-0.2064791,5.554615],[-0.206572,5.55461],[-0.206577,5.5547034]]]}},{"type":"Feature","id":"882485049","properties":{"building":"shed"},"geometry":{"type":"Polygon","coordinates":[[[-0.2069706,5.5549169],[-0.206973,5.5549751],[-0.2068738,5.5549791],[-0.2068714,5.5549209],[-0.2069706,5.5549169]]]}},{"type":"Feature","id":"882485050","properties":{"building":"shed"},"geometry":{"type":"Polygon","coordinates":[[[-0.2067524,5.5548387],[-0.2067543,5.554915],[-0.206675,5.5549169],[-0.206677,5.5549997],[-0.2065872,5.5550019],[-0.2065855,5.5549297],[-0.2066316,5.5549286],[-0.2066295,5.5548417],[-0.2067524,5.5548387]]]}},{"type":"Feature","id":"882492590","properties":{"building":"apartments"},"geometry":{"type":"Polygon","coordinates":[[[-0.2069633,5.5523654],[-0.2067621,5.5523908],[-0.2067537,5.5523248],[-0.2069549,5.5522994],[-0.2069633,5.5523654]]]}},{"type":"Feature","id":"882492592","properties":{"building":"shed"},"geometry":{"type":"Polygon","coordinates":[[[-0.2062498,5.5526491],[-0.2062039,5.5526523],[-0.2062003,5.5526028],[-0.2062463,5.5525996],[-0.2062498,5.5526491]]]}},{"type":"Feature","id":"882492595","properties":{"building":"apartments"},"geometry":{"type":"Polygon","coordinates":[[[-0.2068741,5.5529975],[-0.2068077,5.5529901],[-0.2068203,5.5528775],[-0.2068867,5.5528848],[-0.2068741,5.5529975]]]}},{"type":"Feature","id":"882492596","properties":{"building":"apartments"},"geometry":{"type":"Polygon","coordinates":[[[-0.2068345,5.5530268],[-0.2068249,5.5531416],[-0.2067129,5.5531322],[-0.2067225,5.5530175],[-0.2068345,5.5530268]]]}},{"type":"Feature","id":"882492597","properties":{"building":"apartments"},"geometry":{"type":"Polygon","coordinates":[[[-0.2068788,5.5527399],[-0.2067829,5.5527445],[-0.2067802,5.5526901],[-0.2068761,5.5526854],[-0.2068788,5.5527399]]]}},{"type":"Feature","id":"882492598","properties":{"building":"apartments"},"geometry":{"type":"Polygon","coordinates":[[[-0.207037,5.5527739],[-0.2069103,5.5527779],[-0.2069073,5.5526837],[-0.207034,5.5526797],[-0.207037,5.5527739]]]}},{"type":"Feature","id":"882492599","properties":{"building":"apartments"},"geometry":{"type":"Polygon","coordinates":[[[-0.2071087,5.5522024],[-0.2069887,5.5522151],[-0.206978,5.552115],[-0.207098,5.5521023],[-0.2071087,5.5522024]]]}},{"type":"Feature","id":"882492600","properties":{"building":"apartments"},"geometry":{"type":"Polygon","coordinates":[[[-0.2071215,5.5523474],[-0.2070089,5.5523621],[-0.2069971,5.5522728],[-0.2071098,5.5522581],[-0.2071215,5.5523474]]]}},{"type":"Feature","id":"882492601","properties":{"building":"apartments"},"geometry":{"type":"Polygon","coordinates":[[[-0.2069244,5.5522139],[-0.2067735,5.5522119],[-0.206775,5.5521012],[-0.2069259,5.5521032],[-0.2069244,5.5522139]]]}},{"type":"Feature","id":"882492604","properties":{"building":"apartments"},"geometry":{"type":"Polygon","coordinates":[[[-0.2065871,5.5522827],[-0.2065829,5.5521279],[-0.2067069,5.5521245],[-0.2067111,5.5522793],[-0.2065871,5.5522827]]]}},{"type":"Feature","id":"882533671","properties":{"building":"shed"},"geometry":{"type":"Polygon","coordinates":[[[-0.206105,5.5536041],[-0.2060468,5.5536057],[-0.2060441,5.5535034],[-0.2061023,5.5535019],[-0.206105,5.5536041]]]}},{"type":"Feature","id":"887369286","properties":{"building":"shed"},"geometry":{"type":"Polygon","coordinates":[[[-0.2058984,5.5550844],[-0.2058653,5.5550868],[-0.2058622,5.5550444],[-0.2058953,5.555042],[-0.2058984,5.5550844]]]}},{"type":"Feature","id":"890745043","properties":{"building":"hut"},"geometry":{"type":"Polygon","coordinates":[[[-0.2030459,5.5554642],[-0.2030134,5.5553892],[-0.2031314,5.5553385],[-0.2031639,5.5554135],[-0.2030459,5.5554642]]]}},{"type":"Feature","id":"890745044","properties":{"building":"hut"},"geometry":{"type":"Polygon","coordinates":[[[-0.2029655,5.5556831],[-0.2029504,5.5556254],[-0.2032509,5.555548],[-0.2032659,5.5556057],[-0.2029655,5.5556831]]]}},{"type":"Feature","id":"890745158","properties":{"building":"hut"},"geometry":{"type":"Polygon","coordinates":[[[-0.2030287,5.5557305],[-0.2031707,5.5557136],[-0.2031772,5.5557679],[-0.2030352,5.5557848],[-0.2030287,5.5557305]]]}},{"type":"Feature","id":"895731202","properties":{"building":"mosque"},"geometry":{"type":"Polygon","coordinates":[[[-0.2057723,5.5530956],[-0.2056932,5.5531022],[-0.2056893,5.5530566],[-0.2057684,5.55305],[-0.2057723,5.5530956]]]}},{"type":"Feature","id":"895731203","properties":{"building":"detached"},"geometry":{"type":"Polygon","coordinates":[[[-0.2057589,5.5530235],[-0.2056928,5.5530294],[-0.2056713,5.5527905],[-0.2057375,5.5527846],[-0.2057589,5.5530235]]]}},{"type":"Feature","id":"895731204","properties":{"building":"detached"},"geometry":{"type":"Polygon","coordinates":[[[-0.2055588,5.5528712],[-0.2054811,5.5528767],[-0.205477,5.5528177],[-0.2055546,5.5528123],[-0.2055588,5.5528712]]]}},{"type":"Feature","id":"895731205","properties":{"building":"detached"},"geometry":{"type":"Polygon","coordinates":[[[-0.2054666,5.5528647],[-0.2053767,5.5528727],[-0.2053712,5.5528114],[-0.2054611,5.5528034],[-0.2054666,5.5528647]]]}},{"type":"Feature","id":"895731206","properties":{"building":"detached"},"geometry":{"type":"Polygon","coordinates":[[[-0.2053539,5.5527686],[-0.2052775,5.5527779],[-0.2052713,5.5527276],[-0.2053477,5.5527183],[-0.2053539,5.5527686]]]}},{"type":"Feature","id":"895731207","properties":{"building":"shed"},"geometry":{"type":"Polygon","coordinates":[[[-0.2047974,5.5530582],[-0.2046995,5.5530662],[-0.2046918,5.5529731],[-0.2047897,5.5529651],[-0.2047974,5.5530582]]]}},{"type":"Feature","id":"895731208","properties":{"building":"shed"},"geometry":{"type":"Polygon","coordinates":[[[-0.2048711,5.5529581],[-0.2047987,5.5529634],[-0.2047957,5.552923],[-0.2048681,5.5529177],[-0.2048711,5.5529581]]]}},{"type":"Feature","id":"895814311","properties":{"building":"hut"},"geometry":{"type":"Polygon","coordinates":[[[-0.2036521,5.5555062],[-0.2034429,5.555557],[-0.2034312,5.5555092],[-0.2036404,5.5554584],[-0.2036521,5.5555062]]]}},{"type":"Feature","id":"895814312","properties":{"building":"hut"},"geometry":{"type":"Polygon","coordinates":[[[-0.2036843,5.5556024],[-0.2034241,5.5556638],[-0.2034136,5.5556197],[-0.2036738,5.5555583],[-0.2036843,5.5556024]]]}},{"type":"Feature","id":"895814674","properties":{"building":"yes"},"geometry":{"type":"Polygon","coordinates":[[[-0.2033597,5.5532971],[-0.2033289,5.5532891],[-0.2033409,5.5532434],[-0.2033717,5.5532514],[-0.2033597,5.5532971]]]}},{"type":"Feature","id":"895814675","properties":{"building":"hut"},"geometry":{"type":"Polygon","coordinates":[[[-0.2034321,5.554349],[-0.2034174,5.554361],[-0.2034047,5.5543455],[-0.2034194,5.5543335],[-0.2034321,5.554349]]]}},{"type":"Feature","id":"895814676","properties":{"building":"hut"},"geometry":{"type":"Polygon","coordinates":[[[-0.2033731,5.5543863],[-0.203357,5.554397],[-0.2033473,5.5543825],[-0.2033634,5.5543719],[-0.2033731,5.5543863]]]}},{"type":"Feature","id":"895814677","properties":{"building":"hut"},"geometry":{"type":"Polygon","coordinates":[[[-0.2034,5.5544117],[-0.2033892,5.554421],[-0.2033744,5.5544041],[-0.2033851,5.5543948],[-0.2034,5.5544117]]]}},{"type":"Feature","id":"895814678","properties":{"building":"hut"},"geometry":{"type":"Polygon","coordinates":[[[-0.2033409,5.5544037],[-0.2033289,5.5544157],[-0.2033155,5.5544024],[-0.2033275,5.5543903],[-0.2033409,5.5544037]]]}},{"type":"Feature","id":"895814679","properties":{"building":"hut"},"geometry":{"type":"Polygon","coordinates":[[[-0.2033691,5.5544344],[-0.2033517,5.5544477],[-0.2033383,5.5544304],[-0.2033557,5.554417],[-0.2033691,5.5544344]]]}},{"type":"Feature","id":"908443682","properties":{"building":"apartments"},"geometry":{"type":"Polygon","coordinates":[[[-0.2069346,5.5531313],[-0.206866,5.5531341],[-0.2068611,5.5530149],[-0.2069297,5.5530122],[-0.2069346,5.5531313]]]}},{"type":"Feature","id":"908443683","properties":{"building":"apartments"},"geometry":{"type":"Polygon","coordinates":[[[-0.2070042,5.5531139],[-0.2069509,5.5531148],[-0.2069498,5.5530517],[-0.2070032,5.5530509],[-0.2070042,5.5531139]]]}},{"type":"Feature","id":"908443686","properties":{"building":"apartments"},"geometry":{"type":"Polygon","coordinates":[[[-0.207037,5.5528553],[-0.2069277,5.552846],[-0.2069311,5.5528067],[-0.2070404,5.5528161],[-0.207037,5.5528553]]]}},{"type":"Feature","id":"908443687","properties":{"building":"apartments"},"geometry":{"type":"Polygon","coordinates":[[[-0.2068761,5.5528266],[-0.206793,5.5528173],[-0.2067971,5.5527805],[-0.2068803,5.5527899],[-0.2068761,5.5528266]]]}},{"type":"Feature","id":"908443688","properties":{"building":"apartments"},"geometry":{"type":"Polygon","coordinates":[[[-0.2070048,5.5530409],[-0.2069396,5.5530361],[-0.2069496,5.5528999],[-0.2070149,5.5529047],[-0.2070048,5.5530409]]]}},{"type":"Feature","id":"908443689","properties":{"building":"apartments"},"geometry":{"type":"Polygon","coordinates":[[[-0.2067232,5.5527365],[-0.2066676,5.5527358],[-0.2066682,5.5526811],[-0.2067239,5.5526818],[-0.2067232,5.5527365]]]}},{"type":"Feature","id":"908443690","properties":{"building":"apartments"},"geometry":{"type":"Polygon","coordinates":[[[-0.2067065,5.5528119],[-0.2066468,5.5528039],[-0.206653,5.5527579],[-0.2067127,5.5527659],[-0.2067065,5.5528119]]]}},{"type":"Feature","id":"908443691","properties":{"building":"apartments"},"geometry":{"type":"Polygon","coordinates":[[[-0.2066897,5.5528687],[-0.2064443,5.5528273],[-0.2064518,5.5527832],[-0.2066972,5.5528246],[-0.2066897,5.5528687]]]}},{"type":"Feature","id":"908443692","properties":{"building":"apartments"},"geometry":{"type":"Polygon","coordinates":[[[-0.2065495,5.5527158],[-0.2064624,5.5527138],[-0.2064635,5.5526658],[-0.2065507,5.5526678],[-0.2065495,5.5527158]]]}},{"type":"Feature","id":"908443693","properties":{"building":"apartments"},"geometry":{"type":"Polygon","coordinates":[[[-0.2065482,5.5527812],[-0.2064389,5.5527692],[-0.2064438,5.5527246],[-0.2065531,5.5527366],[-0.2065482,5.5527812]]]}},{"type":"Feature","id":"908443694","properties":{"building":"apartments"},"geometry":{"type":"Polygon","coordinates":[[[-0.206632,5.5527959],[-0.2065788,5.5527899],[-0.2065929,5.5526658],[-0.2066461,5.5526718],[-0.206632,5.5527959]]]}},{"type":"Feature","id":"908443695","properties":{"building":"apartments"},"geometry":{"type":"Polygon","coordinates":[[[-0.2068587,5.5526177],[-0.2068311,5.55262],[-0.2068277,5.55258],[-0.2068553,5.5525777],[-0.2068587,5.5526177]]]}},{"type":"Feature","id":"908443698","properties":{"building":"apartments"},"geometry":{"type":"Polygon","coordinates":[[[-0.2066588,5.5526571],[-0.2065235,5.5526554],[-0.2065251,5.5525375],[-0.2065539,5.5525379],[-0.2065548,5.5524711],[-0.2065798,5.5524714],[-0.206578,5.5526129],[-0.2066594,5.5526139],[-0.2066588,5.5526571]]]}},{"type":"Feature","id":"908443699","properties":{"building":"apartments"},"geometry":{"type":"Polygon","coordinates":[[[-0.20675,5.5526664],[-0.2067049,5.5526659],[-0.2067069,5.5524884],[-0.206752,5.5524889],[-0.20675,5.5526664]]]}},{"type":"Feature","id":"908443700","properties":{"building":"apartments"},"geometry":{"type":"Polygon","coordinates":[[[-0.2066991,5.5524402],[-0.2066059,5.5524397],[-0.2066066,5.5523162],[-0.2066997,5.5523167],[-0.2066991,5.5524402]]]}},{"type":"Feature","id":"958832760","properties":{"highway":"service"},"geometry":{"type":"LineString","coordinates":[[-0.2050907,5.5520658],[-0.2050777,5.5518302]]}},{"type":"Feature","id":"966050642","properties":{"building":"shed"},"geometry":{"type":"Polygon","coordinates":[[[-0.2053053,5.5545479],[-0.2052714,5.554561],[-0.2052271,5.5544475],[-0.2052611,5.5544343],[-0.2053053,5.5545479]]]}},{"type":"Feature","id":"966050643","properties":{"building":"shed"},"geometry":{"type":"Polygon","coordinates":[[[-0.2059414,5.5555783],[-0.2058173,5.5555852],[-0.2058138,5.5555235],[-0.2058324,5.5555224],[-0.2058157,5.5552265],[-0.2059212,5.5552206],[-0.2059286,5.5553516],[-0.2059373,5.5553511],[-0.2059407,5.5554112],[-0.205932,5.5554117],[-0.2059414,5.5555783]]]}},{"type":"Feature","id":"991312503","properties":{"highway":"service"},"geometry":{"type":"LineString","coordinates":[[-0.2040462,5.5528592],[-0.2040811,5.5528828]]}}]}
